{
"type": "FeatureCollection",
"name": "troost",
"crs": { "type": "name", "properties": { "name": "urn:ogc:def:crs:OGC:1.3:CRS84" } },
"features": [
{ "type": "Feature", "properties": { "full_id": "w18524952", "osm_id": "18524952", "osm_type": "way", "name": "Troost Avenue", "maxheight": null, "turn:lanes:forward": null, "turn:lanes:backward": null, "turn:lanes:both_ways": null, "lanes:forward": null, "lanes:both_ways": null, "lanes:backward": null, "surface": null, "turn:lanes": null, "sidewalk:right": null, "sidewalk:left": null, "oneway": null, "lanes": null, "layer": null, "bridge": null, "old_ref": null, "maxspeed": null, "tiger:zip_right": "64131", "tiger:zip_left": "64131", "tiger:reviewed": "no", "tiger:name_type": "Ave", "tiger:name_base": "Troost", "tiger:county": "Jackson, MO", "tiger:cfcc": "A41", "sidewalk:both": "separate", "highway": "tertiary" }, "geometry": { "type": "LineString", "coordinates": [ [ -94.5696071, 39.105447 ], [ -94.5696099, 39.1053825 ], [ -94.5696122, 39.1053427 ], [ -94.569623, 39.105119 ], [ -94.569655, 39.1044676 ], [ -94.5696578, 39.1044041 ], [ -94.5696658, 39.1042387 ], [ -94.569671, 39.1041323 ], [ -94.5696744, 39.104065 ] ] } },
{ "type": "Feature", "properties": { "full_id": "w18524955", "osm_id": "18524955", "osm_type": "way", "name": "Troost Avenue", "maxheight": null, "turn:lanes:forward": null, "turn:lanes:backward": null, "turn:lanes:both_ways": null, "lanes:forward": null, "lanes:both_ways": null, "lanes:backward": null, "surface": null, "turn:lanes": null, "sidewalk:right": null, "sidewalk:left": null, "oneway": null, "lanes": null, "layer": null, "bridge": null, "old_ref": null, "maxspeed": null, "tiger:zip_right": "64131", "tiger:zip_left": "64131", "tiger:reviewed": "no", "tiger:name_type": "Ave", "tiger:name_base": "Troost", "tiger:county": "Jackson, MO", "tiger:cfcc": "A41", "sidewalk:both": null, "highway": "residential" }, "geometry": { "type": "LineString", "coordinates": [ [ -94.5783225, 38.9295471 ], [ -94.578337, 38.929465 ], [ -94.578352, 38.929422 ], [ -94.578454, 38.92811 ] ] } },
{ "type": "Feature", "properties": { "full_id": "w18524961", "osm_id": "18524961", "osm_type": "way", "name": "Troost Avenue", "maxheight": null, "turn:lanes:forward": null, "turn:lanes:backward": null, "turn:lanes:both_ways": null, "lanes:forward": null, "lanes:both_ways": null, "lanes:backward": null, "surface": null, "turn:lanes": null, "sidewalk:right": null, "sidewalk:left": null, "oneway": null, "lanes": null, "layer": null, "bridge": null, "old_ref": null, "maxspeed": null, "tiger:zip_right": "64131", "tiger:zip_left": "64146", "tiger:reviewed": "no", "tiger:name_type": "Ave", "tiger:name_base": "Troost", "tiger:county": "Jackson, MO", "tiger:cfcc": "A41", "sidewalk:both": null, "highway": "residential" }, "geometry": { "type": "LineString", "coordinates": [ [ -94.5792952, 38.9183045 ], [ -94.5792687, 38.9182488 ], [ -94.5792736, 38.9181963 ], [ -94.579282, 38.9181127 ], [ -94.5793891, 38.9167622 ], [ -94.579453, 38.915694 ], [ -94.5794557, 38.91566 ], [ -94.579539, 38.91461 ], [ -94.579603, 38.913633 ], [ -94.5796758, 38.9129464 ], [ -94.579726, 38.912197 ], [ -94.579797, 38.911358 ], [ -94.579786, 38.911217 ], [ -94.579471, 38.910521 ], [ -94.579343, 38.910239 ] ] } },
{ "type": "Feature", "properties": { "full_id": "w37517384", "osm_id": "37517384", "osm_type": "way", "name": "Troost Avenue", "maxheight": null, "turn:lanes:forward": null, "turn:lanes:backward": null, "turn:lanes:both_ways": null, "lanes:forward": null, "lanes:both_ways": null, "lanes:backward": null, "surface": null, "turn:lanes": null, "sidewalk:right": null, "sidewalk:left": null, "oneway": null, "lanes": null, "layer": null, "bridge": null, "old_ref": "US 71 Alternate", "maxspeed": "35 mph", "tiger:zip_right": "64131", "tiger:zip_left": "64131", "tiger:reviewed": "no", "tiger:name_type": "Ave", "tiger:name_base": "Troost", "tiger:county": "Jackson, MO", "tiger:cfcc": "A41", "sidewalk:both": null, "highway": "secondary" }, "geometry": { "type": "LineString", "coordinates": [ [ -94.57065, 39.083677 ], [ -94.570653, 39.0836205 ], [ -94.5706814, 39.0832085 ], [ -94.570684, 39.083171 ], [ -94.570695, 39.0830116 ], [ -94.5707159, 39.0827079 ], [ -94.5707417, 39.0824021 ] ] } },
{ "type": "Feature", "properties": { "full_id": "w37517386", "osm_id": "37517386", "osm_type": "way", "name": "Troost Avenue", "maxheight": null, "turn:lanes:forward": null, "turn:lanes:backward": null, "turn:lanes:both_ways": null, "lanes:forward": null, "lanes:both_ways": null, "lanes:backward": null, "surface": null, "turn:lanes": null, "sidewalk:right": null, "sidewalk:left": null, "oneway": null, "lanes": null, "layer": "2", "bridge": "yes", "old_ref": "US 71 Alternate", "maxspeed": null, "tiger:zip_right": "64131", "tiger:zip_left": "64131", "tiger:reviewed": "no", "tiger:name_type": "Ave", "tiger:name_base": "Troost", "tiger:county": "Jackson, MO", "tiger:cfcc": "A41", "sidewalk:both": null, "highway": "secondary" }, "geometry": { "type": "LineString", "coordinates": [ [ -94.5701138, 39.0871824 ], [ -94.570084, 39.087046 ], [ -94.5700874, 39.0868142 ], [ -94.5701208, 39.0865568 ], [ -94.5701804, 39.0863742 ], [ -94.5703981, 39.0858975 ], [ -94.5704421, 39.0857775 ], [ -94.5704861, 39.0856242 ], [ -94.5705341, 39.0854243 ], [ -94.5705801, 39.0851771 ] ] } },
{ "type": "Feature", "properties": { "full_id": "w37517617", "osm_id": "37517617", "osm_type": "way", "name": "Troost Avenue", "maxheight": null, "turn:lanes:forward": null, "turn:lanes:backward": null, "turn:lanes:both_ways": null, "lanes:forward": null, "lanes:both_ways": null, "lanes:backward": null, "surface": null, "turn:lanes": null, "sidewalk:right": null, "sidewalk:left": null, "oneway": null, "lanes": null, "layer": null, "bridge": null, "old_ref": "US 71 Alternate", "maxspeed": null, "tiger:zip_right": "64131", "tiger:zip_left": "64131", "tiger:reviewed": "no", "tiger:name_type": "Ave", "tiger:name_base": "Troost", "tiger:county": "Jackson, MO", "tiger:cfcc": "A41", "sidewalk:both": null, "highway": "secondary" }, "geometry": { "type": "LineString", "coordinates": [ [ -94.5704109, 39.0884579 ], [ -94.570409, 39.088234 ], [ -94.570381, 39.08797 ], [ -94.570306, 39.087695 ], [ -94.5701138, 39.0871824 ] ] } },
{ "type": "Feature", "properties": { "full_id": "w37517618", "osm_id": "37517618", "osm_type": "way", "name": "Troost Avenue", "maxheight": null, "turn:lanes:forward": null, "turn:lanes:backward": null, "turn:lanes:both_ways": null, "lanes:forward": null, "lanes:both_ways": null, "lanes:backward": null, "surface": null, "turn:lanes": null, "sidewalk:right": null, "sidewalk:left": null, "oneway": null, "lanes": null, "layer": "1", "bridge": "yes", "old_ref": "US 71 Alternate", "maxspeed": null, "tiger:zip_right": "64131", "tiger:zip_left": "64131", "tiger:reviewed": "no", "tiger:name_type": "Ave", "tiger:name_base": "Troost", "tiger:county": "Jackson, MO", "tiger:cfcc": "A41", "sidewalk:both": null, "highway": "secondary" }, "geometry": { "type": "LineString", "coordinates": [ [ -94.5703893, 39.0888764 ], [ -94.5704109, 39.0884579 ] ] } },
{ "type": "Feature", "properties": { "full_id": "w43403750", "osm_id": "43403750", "osm_type": "way", "name": "Troost Avenue", "maxheight": null, "turn:lanes:forward": null, "turn:lanes:backward": null, "turn:lanes:both_ways": null, "lanes:forward": null, "lanes:both_ways": null, "lanes:backward": null, "surface": null, "turn:lanes": null, "sidewalk:right": null, "sidewalk:left": null, "oneway": null, "lanes": null, "layer": null, "bridge": null, "old_ref": null, "maxspeed": null, "tiger:zip_right": "64106", "tiger:zip_left": "64106", "tiger:reviewed": "no", "tiger:name_type": "Ave", "tiger:name_base": "Troost", "tiger:county": "Jackson, MO", "tiger:cfcc": "A41", "sidewalk:both": null, "highway": "residential" }, "geometry": { "type": "LineString", "coordinates": [ [ -94.5698508, 39.1118821 ], [ -94.5698613, 39.1115951 ], [ -94.569884, 39.110976 ], [ -94.5698956, 39.1109059 ] ] } },
{ "type": "Feature", "properties": { "full_id": "w67627884", "osm_id": "67627884", "osm_type": "way", "name": "Troost Avenue", "maxheight": null, "turn:lanes:forward": null, "turn:lanes:backward": null, "turn:lanes:both_ways": null, "lanes:forward": null, "lanes:both_ways": null, "lanes:backward": null, "surface": null, "turn:lanes": null, "sidewalk:right": null, "sidewalk:left": null, "oneway": "yes", "lanes": "2", "layer": null, "bridge": null, "old_ref": "US 71 Alternate", "maxspeed": null, "tiger:zip_right": null, "tiger:zip_left": null, "tiger:reviewed": null, "tiger:name_type": null, "tiger:name_base": null, "tiger:county": null, "tiger:cfcc": null, "sidewalk:both": null, "highway": "secondary" }, "geometry": { "type": "LineString", "coordinates": [ [ -94.573278, 39.0377029 ], [ -94.5732879, 39.0375557 ] ] } },
{ "type": "Feature", "properties": { "full_id": "w67627885", "osm_id": "67627885", "osm_type": "way", "name": "Troost Avenue", "maxheight": null, "turn:lanes:forward": null, "turn:lanes:backward": null, "turn:lanes:both_ways": null, "lanes:forward": null, "lanes:both_ways": null, "lanes:backward": null, "surface": null, "turn:lanes": "left||", "sidewalk:right": "separate", "sidewalk:left": "no", "oneway": "yes", "lanes": "3", "layer": "1", "bridge": "yes", "old_ref": "US 71 Alternate", "maxspeed": null, "tiger:zip_right": null, "tiger:zip_left": null, "tiger:reviewed": null, "tiger:name_type": null, "tiger:name_base": null, "tiger:county": null, "tiger:cfcc": null, "sidewalk:both": null, "highway": "secondary" }, "geometry": { "type": "LineString", "coordinates": [ [ -94.5732294, 39.0383388 ], [ -94.5732567, 39.0379255 ] ] } },
{ "type": "Feature", "properties": { "full_id": "w68205838", "osm_id": "68205838", "osm_type": "way", "name": "Troost Avenue", "maxheight": null, "turn:lanes:forward": null, "turn:lanes:backward": null, "turn:lanes:both_ways": null, "lanes:forward": null, "lanes:both_ways": null, "lanes:backward": null, "surface": null, "turn:lanes": null, "sidewalk:right": null, "sidewalk:left": null, "oneway": null, "lanes": null, "layer": null, "bridge": null, "old_ref": null, "maxspeed": "45 mph", "tiger:zip_right": "64131", "tiger:zip_left": "64131", "tiger:reviewed": null, "tiger:name_type": "Ave", "tiger:name_base": "Troost", "tiger:county": "Jackson, MO", "tiger:cfcc": "A41", "sidewalk:both": null, "highway": "secondary" }, "geometry": { "type": "LineString", "coordinates": [ [ -94.5766096, 38.9726206 ], [ -94.5766144, 38.9725177 ], [ -94.5766244, 38.9723302 ], [ -94.5766319, 38.9721134 ], [ -94.5766756, 38.9713316 ], [ -94.576681, 38.9710849 ], [ -94.5766953, 38.9707057 ], [ -94.576728, 38.9699543 ], [ -94.5767293, 38.9698938 ], [ -94.5767466, 38.969666 ], [ -94.5767614, 38.9692804 ], [ -94.5768494, 38.9672958 ], [ -94.5768701, 38.9668382 ], [ -94.5768793, 38.9666871 ], [ -94.576887, 38.9664902 ], [ -94.5769063, 38.9662147 ], [ -94.5769209, 38.9660224 ], [ -94.5769389, 38.9657728 ], [ -94.5769672, 38.9654864 ], [ -94.5769808, 38.965288 ], [ -94.577075, 38.9642891 ], [ -94.5771904, 38.9630166 ], [ -94.5772827, 38.9619764 ], [ -94.5774418, 38.9601079 ] ] } },
{ "type": "Feature", "properties": { "full_id": "w68205854", "osm_id": "68205854", "osm_type": "way", "name": "Troost Avenue", "maxheight": null, "turn:lanes:forward": null, "turn:lanes:backward": null, "turn:lanes:both_ways": null, "lanes:forward": null, "lanes:both_ways": null, "lanes:backward": null, "surface": null, "turn:lanes": null, "sidewalk:right": null, "sidewalk:left": null, "oneway": null, "lanes": null, "layer": "1", "bridge": "yes", "old_ref": null, "maxspeed": null, "tiger:zip_right": "64131", "tiger:zip_left": "64131", "tiger:reviewed": "aerial", "tiger:name_type": "Ave", "tiger:name_base": "Troost", "tiger:county": "Jackson, MO", "tiger:cfcc": "A41", "sidewalk:both": "separate", "highway": "secondary" }, "geometry": { "type": "LineString", "coordinates": [ [ -94.5765603, 38.9737228 ], [ -94.5766096, 38.9726206 ] ] } },
{ "type": "Feature", "properties": { "full_id": "w100221423", "osm_id": "100221423", "osm_type": "way", "name": "Troost Avenue", "maxheight": null, "turn:lanes:forward": null, "turn:lanes:backward": null, "turn:lanes:both_ways": null, "lanes:forward": null, "lanes:both_ways": null, "lanes:backward": null, "surface": null, "turn:lanes": null, "sidewalk:right": null, "sidewalk:left": null, "oneway": null, "lanes": null, "layer": null, "bridge": null, "old_ref": null, "maxspeed": null, "tiger:zip_right": "64131", "tiger:zip_left": "64131", "tiger:reviewed": "no", "tiger:name_type": "Ave", "tiger:name_base": "Troost", "tiger:county": "Jackson, MO", "tiger:cfcc": "A41", "sidewalk:both": "separate", "highway": "tertiary" }, "geometry": { "type": "LineString", "coordinates": [ [ -94.5697255, 39.1031294 ], [ -94.5697282, 39.1030652 ], [ -94.5697287, 39.1030542 ], [ -94.5697448, 39.1026739 ], [ -94.5697534, 39.10249 ], [ -94.5697736, 39.1019913 ], [ -94.5697739, 39.1019846 ], [ -94.5697824, 39.1019239 ] ] } },
{ "type": "Feature", "properties": { "full_id": "w100316035", "osm_id": "100316035", "osm_type": "way", "name": "Troost Avenue", "maxheight": null, "turn:lanes:forward": null, "turn:lanes:backward": null, "turn:lanes:both_ways": null, "lanes:forward": null, "lanes:both_ways": null, "lanes:backward": null, "surface": null, "turn:lanes": null, "sidewalk:right": null, "sidewalk:left": null, "oneway": null, "lanes": null, "layer": null, "bridge": null, "old_ref": "US 71", "maxspeed": null, "tiger:zip_right": "64131", "tiger:zip_left": "64131", "tiger:reviewed": "no", "tiger:name_type": "Ave", "tiger:name_base": "Troost", "tiger:county": "Jackson, MO", "tiger:cfcc": "A41", "sidewalk:both": null, "highway": "secondary" }, "geometry": { "type": "LineString", "coordinates": [ [ -94.575322, 38.9984459 ], [ -94.5753402, 38.9981107 ], [ -94.575351, 38.997901 ], [ -94.575353, 38.9978608 ], [ -94.5753671, 38.9975739 ], [ -94.5753694, 38.9975279 ], [ -94.575395, 38.997009 ], [ -94.575445, 38.99603 ], [ -94.5754848, 38.9952477 ], [ -94.575488, 38.995184 ], [ -94.5755173, 38.9945831 ], [ -94.5755582, 38.9937455 ], [ -94.5755688, 38.9935293 ], [ -94.5755759, 38.9933837 ], [ -94.5756382, 38.9921653 ], [ -94.5756416, 38.9921073 ], [ -94.5756475, 38.9920068 ] ] } },
{ "type": "Feature", "properties": { "full_id": "w100316135", "osm_id": "100316135", "osm_type": "way", "name": "Troost Avenue", "maxheight": null, "turn:lanes:forward": null, "turn:lanes:backward": null, "turn:lanes:both_ways": null, "lanes:forward": null, "lanes:both_ways": null, "lanes:backward": null, "surface": null, "turn:lanes": null, "sidewalk:right": null, "sidewalk:left": null, "oneway": null, "lanes": null, "layer": null, "bridge": null, "old_ref": "US 71 Alternate", "maxspeed": null, "tiger:zip_right": "64131", "tiger:zip_left": "64131", "tiger:reviewed": "no", "tiger:name_type": "Ave", "tiger:name_base": "Troost", "tiger:county": "Jackson, MO", "tiger:cfcc": "A41", "sidewalk:both": "separate", "highway": "secondary" }, "geometry": { "type": "LineString", "coordinates": [ [ -94.5702736, 39.0913759 ], [ -94.5702759, 39.0913274 ], [ -94.5702771, 39.0913012 ], [ -94.5703328, 39.0900996 ], [ -94.5703358, 39.0900354 ], [ -94.5703383, 39.0899717 ], [ -94.5703513, 39.0896421 ], [ -94.5703893, 39.0888764 ] ] } },
{ "type": "Feature", "properties": { "full_id": "w129249230", "osm_id": "129249230", "osm_type": "way", "name": "Troost Avenue", "maxheight": null, "turn:lanes:forward": null, "turn:lanes:backward": null, "turn:lanes:both_ways": null, "lanes:forward": null, "lanes:both_ways": null, "lanes:backward": null, "surface": null, "turn:lanes": null, "sidewalk:right": null, "sidewalk:left": null, "oneway": null, "lanes": null, "layer": null, "bridge": null, "old_ref": "US 71 Alternate", "maxspeed": null, "tiger:zip_right": "64131", "tiger:zip_left": "64131", "tiger:reviewed": "no", "tiger:name_type": "Ave", "tiger:name_base": "Troost", "tiger:county": "Jackson, MO", "tiger:cfcc": "A41", "sidewalk:both": "separate", "highway": "secondary" }, "geometry": { "type": "LineString", "coordinates": [ [ -94.573365, 39.034457 ], [ -94.5733687, 39.0343966 ], [ -94.5733746, 39.0342993 ], [ -94.5733887, 39.0340652 ], [ -94.5734147, 39.0336355 ], [ -94.5734208, 39.0335343 ], [ -94.5734706, 39.0327114 ], [ -94.573474, 39.032655 ] ] } },
{ "type": "Feature", "properties": { "full_id": "w203865176", "osm_id": "203865176", "osm_type": "way", "name": "Troost Avenue", "maxheight": null, "turn:lanes:forward": null, "turn:lanes:backward": null, "turn:lanes:both_ways": null, "lanes:forward": null, "lanes:both_ways": null, "lanes:backward": null, "surface": null, "turn:lanes": null, "sidewalk:right": null, "sidewalk:left": null, "oneway": null, "lanes": null, "layer": null, "bridge": null, "old_ref": null, "maxspeed": null, "tiger:zip_right": "64131", "tiger:zip_left": "64131", "tiger:reviewed": "no", "tiger:name_type": "Ave", "tiger:name_base": "Troost", "tiger:county": "Jackson, MO", "tiger:cfcc": "A41", "sidewalk:both": "separate", "highway": "secondary" }, "geometry": { "type": "LineString", "coordinates": [ [ -94.5701822, 39.0934496 ], [ -94.570203, 39.093012 ], [ -94.5702477, 39.0919768 ], [ -94.5702702, 39.0914552 ], [ -94.5702721, 39.0914108 ], [ -94.5702736, 39.0913759 ] ] } },
{ "type": "Feature", "properties": { "full_id": "w243964018", "osm_id": "243964018", "osm_type": "way", "name": "Troost Avenue", "maxheight": null, "turn:lanes:forward": null, "turn:lanes:backward": null, "turn:lanes:both_ways": null, "lanes:forward": null, "lanes:both_ways": null, "lanes:backward": null, "surface": "asphalt", "turn:lanes": null, "sidewalk:right": null, "sidewalk:left": null, "oneway": null, "lanes": null, "layer": null, "bridge": null, "old_ref": null, "maxspeed": null, "tiger:zip_right": "64131", "tiger:zip_left": "64131", "tiger:reviewed": "no", "tiger:name_type": "Ave", "tiger:name_base": "Troost", "tiger:county": "Jackson, MO", "tiger:cfcc": "A41", "sidewalk:both": null, "highway": "secondary" }, "geometry": { "type": "LineString", "coordinates": [ [ -94.575879, 38.987381 ], [ -94.5758817, 38.9873199 ], [ -94.5758866, 38.9872078 ], [ -94.575893, 38.987062 ], [ -94.575929, 38.9863503 ], [ -94.575938, 38.986142 ], [ -94.575943, 38.9860354 ], [ -94.5759554, 38.9857742 ], [ -94.575972, 38.985424 ], [ -94.575979, 38.985284 ], [ -94.5759964, 38.984928 ], [ -94.576007, 38.984711 ], [ -94.5760095, 38.984658 ], [ -94.576025, 38.984334 ], [ -94.5760593, 38.9836276 ], [ -94.576069, 38.983428 ], [ -94.576072, 38.9833606 ], [ -94.576076, 38.9832714 ], [ -94.5760805, 38.98317 ], [ -94.5760825, 38.9831319 ], [ -94.576096, 38.9828753 ], [ -94.5761123, 38.9825662 ], [ -94.576116, 38.982496 ], [ -94.576124, 38.982351 ], [ -94.5761329, 38.9821817 ], [ -94.5761476, 38.9819029 ], [ -94.5761571, 38.9817208 ], [ -94.576167, 38.981533 ], [ -94.5762307, 38.9803302 ], [ -94.576238, 38.9801893 ], [ -94.5762736, 38.9795045 ], [ -94.5762782, 38.9794264 ], [ -94.5763, 38.9790223 ], [ -94.5763041, 38.978955 ], [ -94.5763273, 38.9785746 ] ] } },
{ "type": "Feature", "properties": { "full_id": "w328889090", "osm_id": "328889090", "osm_type": "way", "name": "Troost Avenue", "maxheight": null, "turn:lanes:forward": null, "turn:lanes:backward": null, "turn:lanes:both_ways": null, "lanes:forward": null, "lanes:both_ways": null, "lanes:backward": null, "surface": null, "turn:lanes": null, "sidewalk:right": null, "sidewalk:left": null, "oneway": null, "lanes": null, "layer": null, "bridge": null, "old_ref": null, "maxspeed": null, "tiger:zip_right": "64131", "tiger:zip_left": "64131", "tiger:reviewed": "no", "tiger:name_type": "Ave", "tiger:name_base": "Troost", "tiger:county": "Jackson, MO", "tiger:cfcc": "A41", "sidewalk:both": "separate", "highway": "tertiary" }, "geometry": { "type": "LineString", "coordinates": [ [ -94.5699019, 39.0994853 ], [ -94.5699043, 39.0994197 ], [ -94.569948, 39.0982267 ], [ -94.5699499, 39.0981748 ], [ -94.5699524, 39.0981218 ], [ -94.5699689, 39.0977793 ], [ -94.5699831, 39.0974859 ], [ -94.5699839, 39.0972186 ] ] } },
{ "type": "Feature", "properties": { "full_id": "w439010657", "osm_id": "439010657", "osm_type": "way", "name": "Troost Avenue", "maxheight": null, "turn:lanes:forward": null, "turn:lanes:backward": null, "turn:lanes:both_ways": null, "lanes:forward": null, "lanes:both_ways": null, "lanes:backward": null, "surface": null, "turn:lanes": null, "sidewalk:right": null, "sidewalk:left": null, "oneway": null, "lanes": null, "layer": null, "bridge": null, "old_ref": null, "maxspeed": null, "tiger:zip_right": "64131", "tiger:zip_left": "64131", "tiger:reviewed": "no", "tiger:name_type": "Ave", "tiger:name_base": "Troost", "tiger:county": "Jackson, MO", "tiger:cfcc": "A41", "sidewalk:both": "separate", "highway": "tertiary" }, "geometry": { "type": "LineString", "coordinates": [ [ -94.5696744, 39.104065 ], [ -94.5696778, 39.1039999 ], [ -94.5697255, 39.1031294 ] ] } },
{ "type": "Feature", "properties": { "full_id": "w439010658", "osm_id": "439010658", "osm_type": "way", "name": "Troost Avenue", "maxheight": null, "turn:lanes:forward": null, "turn:lanes:backward": null, "turn:lanes:both_ways": null, "lanes:forward": null, "lanes:both_ways": null, "lanes:backward": null, "surface": null, "turn:lanes": null, "sidewalk:right": null, "sidewalk:left": null, "oneway": null, "lanes": null, "layer": null, "bridge": null, "old_ref": null, "maxspeed": null, "tiger:zip_right": "64131", "tiger:zip_left": "64131", "tiger:reviewed": "no", "tiger:name_type": "Ave", "tiger:name_base": "Troost", "tiger:county": "Jackson, MO", "tiger:cfcc": "A41", "sidewalk:both": "separate", "highway": "tertiary" }, "geometry": { "type": "LineString", "coordinates": [ [ -94.5697824, 39.1019239 ], [ -94.569782, 39.1018506 ], [ -94.5697818, 39.101808 ], [ -94.5698033, 39.1013565 ], [ -94.5698162, 39.1010848 ], [ -94.5698252, 39.1008945 ], [ -94.5698313, 39.1007669 ], [ -94.5698348, 39.1006934 ] ] } },
{ "type": "Feature", "properties": { "full_id": "w446631474", "osm_id": "446631474", "osm_type": "way", "name": "Troost Avenue", "maxheight": null, "turn:lanes:forward": null, "turn:lanes:backward": null, "turn:lanes:both_ways": null, "lanes:forward": null, "lanes:both_ways": null, "lanes:backward": null, "surface": null, "turn:lanes": null, "sidewalk:right": "separate", "sidewalk:left": "no", "oneway": "yes", "lanes": "2", "layer": "1", "bridge": "yes", "old_ref": "US 71 Alternate", "maxspeed": null, "tiger:zip_right": null, "tiger:zip_left": null, "tiger:reviewed": null, "tiger:name_type": null, "tiger:name_base": null, "tiger:county": null, "tiger:cfcc": null, "sidewalk:both": null, "highway": "secondary" }, "geometry": { "type": "LineString", "coordinates": [ [ -94.5731142, 39.0379216 ], [ -94.5730895, 39.0383348 ] ] } },
{ "type": "Feature", "properties": { "full_id": "w446631475", "osm_id": "446631475", "osm_type": "way", "name": "Troost Avenue", "maxheight": null, "turn:lanes:forward": null, "turn:lanes:backward": null, "turn:lanes:both_ways": null, "lanes:forward": null, "lanes:both_ways": null, "lanes:backward": null, "surface": null, "turn:lanes": null, "sidewalk:right": "separate", "sidewalk:left": "no", "oneway": "yes", "lanes": "2", "layer": null, "bridge": null, "old_ref": "US 71 Alternate", "maxspeed": null, "tiger:zip_right": null, "tiger:zip_left": null, "tiger:reviewed": null, "tiger:name_type": null, "tiger:name_base": null, "tiger:county": null, "tiger:cfcc": null, "sidewalk:both": null, "highway": "secondary" }, "geometry": { "type": "LineString", "coordinates": [ [ -94.5731684, 39.0391539 ], [ -94.5731971, 39.0388339 ] ] } },
{ "type": "Feature", "properties": { "full_id": "w446631476", "osm_id": "446631476", "osm_type": "way", "name": "Troost Avenue", "maxheight": null, "turn:lanes:forward": null, "turn:lanes:backward": null, "turn:lanes:both_ways": null, "lanes:forward": null, "lanes:both_ways": null, "lanes:backward": null, "surface": null, "turn:lanes": "left||", "sidewalk:right": "separate", "sidewalk:left": "no", "oneway": "yes", "lanes": "3", "layer": null, "bridge": null, "old_ref": "US 71 Alternate", "maxspeed": null, "tiger:zip_right": null, "tiger:zip_left": null, "tiger:reviewed": null, "tiger:name_type": null, "tiger:name_base": null, "tiger:county": null, "tiger:cfcc": null, "sidewalk:both": null, "highway": "secondary" }, "geometry": { "type": "LineString", "coordinates": [ [ -94.5731512, 39.0393537 ], [ -94.5731684, 39.0391539 ] ] } },
{ "type": "Feature", "properties": { "full_id": "w446631477", "osm_id": "446631477", "osm_type": "way", "name": "Troost Avenue", "maxheight": null, "turn:lanes:forward": null, "turn:lanes:backward": null, "turn:lanes:both_ways": null, "lanes:forward": null, "lanes:both_ways": null, "lanes:backward": null, "surface": null, "turn:lanes": null, "sidewalk:right": "separate", "sidewalk:left": "no", "oneway": "yes", "lanes": "2", "layer": null, "bridge": null, "old_ref": "US 71 Alternate", "maxspeed": null, "tiger:zip_right": null, "tiger:zip_left": null, "tiger:reviewed": null, "tiger:name_type": null, "tiger:name_base": null, "tiger:county": null, "tiger:cfcc": null, "sidewalk:both": null, "highway": "secondary" }, "geometry": { "type": "LineString", "coordinates": [ [ -94.5731311, 39.0378204 ], [ -94.5731142, 39.0379216 ] ] } },
{ "type": "Feature", "properties": { "full_id": "w446631478", "osm_id": "446631478", "osm_type": "way", "name": "Troost Avenue", "maxheight": null, "turn:lanes:forward": null, "turn:lanes:backward": null, "turn:lanes:both_ways": null, "lanes:forward": null, "lanes:both_ways": null, "lanes:backward": null, "surface": null, "turn:lanes": "left||", "sidewalk:right": "separate", "sidewalk:left": "no", "oneway": "yes", "lanes": "3", "layer": null, "bridge": null, "old_ref": "US 71 Alternate", "maxspeed": null, "tiger:zip_right": null, "tiger:zip_left": null, "tiger:reviewed": null, "tiger:name_type": null, "tiger:name_base": null, "tiger:county": null, "tiger:cfcc": null, "sidewalk:both": null, "highway": "secondary" }, "geometry": { "type": "LineString", "coordinates": [ [ -94.5732567, 39.0379255 ], [ -94.5732727, 39.0377946 ] ] } },
{ "type": "Feature", "properties": { "full_id": "w446631479", "osm_id": "446631479", "osm_type": "way", "name": "Troost Avenue", "maxheight": null, "turn:lanes:forward": null, "turn:lanes:backward": null, "turn:lanes:both_ways": null, "lanes:forward": null, "lanes:both_ways": null, "lanes:backward": null, "surface": null, "turn:lanes": null, "sidewalk:right": "separate", "sidewalk:left": "no", "oneway": "yes", "lanes": "2", "layer": null, "bridge": null, "old_ref": "US 71 Alternate", "maxspeed": null, "tiger:zip_right": null, "tiger:zip_left": null, "tiger:reviewed": null, "tiger:name_type": null, "tiger:name_base": null, "tiger:county": null, "tiger:cfcc": null, "sidewalk:both": null, "highway": "secondary" }, "geometry": { "type": "LineString", "coordinates": [ [ -94.5730642, 39.0398786 ], [ -94.5730923, 39.0398059 ], [ -94.5731182, 39.0397385 ], [ -94.5731512, 39.0393537 ] ] } },
{ "type": "Feature", "properties": { "full_id": "w446631480", "osm_id": "446631480", "osm_type": "way", "name": "Troost Avenue", "maxheight": null, "turn:lanes:forward": null, "turn:lanes:backward": null, "turn:lanes:both_ways": null, "lanes:forward": null, "lanes:both_ways": null, "lanes:backward": null, "surface": null, "turn:lanes": null, "sidewalk:right": "separate", "sidewalk:left": "no", "oneway": "yes", "lanes": "2", "layer": null, "bridge": null, "old_ref": "US 71 Alternate", "maxspeed": null, "tiger:zip_right": null, "tiger:zip_left": null, "tiger:reviewed": null, "tiger:name_type": null, "tiger:name_base": null, "tiger:county": null, "tiger:cfcc": null, "sidewalk:both": null, "highway": "secondary" }, "geometry": { "type": "LineString", "coordinates": [ [ -94.573262, 39.036253 ], [ -94.5732389, 39.0363194 ], [ -94.5732066, 39.0364121 ], [ -94.5731854, 39.0368831 ] ] } },
{ "type": "Feature", "properties": { "full_id": "w446631481", "osm_id": "446631481", "osm_type": "way", "name": "Troost Avenue", "maxheight": null, "turn:lanes:forward": null, "turn:lanes:backward": null, "turn:lanes:both_ways": null, "lanes:forward": null, "lanes:both_ways": null, "lanes:backward": null, "surface": null, "turn:lanes": "left||", "sidewalk:right": "separate", "sidewalk:left": "no", "oneway": "yes", "lanes": "3", "layer": null, "bridge": null, "old_ref": "US 71 Alternate", "maxspeed": null, "tiger:zip_right": null, "tiger:zip_left": null, "tiger:reviewed": null, "tiger:name_type": null, "tiger:name_base": null, "tiger:county": null, "tiger:cfcc": null, "sidewalk:both": null, "highway": "secondary" }, "geometry": { "type": "LineString", "coordinates": [ [ -94.5731971, 39.0388339 ], [ -94.5732294, 39.0383388 ] ] } },
{ "type": "Feature", "properties": { "full_id": "w446631482", "osm_id": "446631482", "osm_type": "way", "name": "Troost Avenue", "maxheight": null, "turn:lanes:forward": null, "turn:lanes:backward": null, "turn:lanes:both_ways": null, "lanes:forward": null, "lanes:both_ways": null, "lanes:backward": null, "surface": null, "turn:lanes": null, "sidewalk:right": "separate", "sidewalk:left": "no", "oneway": "yes", "lanes": "2", "layer": null, "bridge": null, "old_ref": "US 71 Alternate", "maxspeed": null, "tiger:zip_right": null, "tiger:zip_left": null, "tiger:reviewed": null, "tiger:name_type": null, "tiger:name_base": null, "tiger:county": null, "tiger:cfcc": null, "sidewalk:both": null, "highway": "secondary" }, "geometry": { "type": "LineString", "coordinates": [ [ -94.5730396, 39.0391486 ], [ -94.5730183, 39.0397445 ], [ -94.5730386, 39.0398045 ], [ -94.5730642, 39.0398786 ] ] } },
{ "type": "Feature", "properties": { "full_id": "w446631483", "osm_id": "446631483", "osm_type": "way", "name": "Troost Avenue", "maxheight": null, "turn:lanes:forward": null, "turn:lanes:backward": null, "turn:lanes:both_ways": null, "lanes:forward": null, "lanes:both_ways": null, "lanes:backward": null, "surface": null, "turn:lanes": null, "sidewalk:right": "separate", "sidewalk:left": "no", "oneway": "yes", "lanes": "2", "layer": null, "bridge": null, "old_ref": "US 71 Alternate", "maxspeed": null, "tiger:zip_right": null, "tiger:zip_left": null, "tiger:reviewed": null, "tiger:name_type": null, "tiger:name_base": null, "tiger:county": null, "tiger:cfcc": null, "sidewalk:both": null, "highway": "secondary" }, "geometry": { "type": "LineString", "coordinates": [ [ -94.5730895, 39.0383348 ], [ -94.5730818, 39.0384814 ], [ -94.5730396, 39.0391486 ] ] } },
{ "type": "Feature", "properties": { "full_id": "w446631484", "osm_id": "446631484", "osm_type": "way", "name": "Troost Avenue", "maxheight": null, "turn:lanes:forward": null, "turn:lanes:backward": null, "turn:lanes:both_ways": null, "lanes:forward": null, "lanes:both_ways": null, "lanes:backward": null, "surface": null, "turn:lanes": "left||", "sidewalk:right": "separate", "sidewalk:left": "no", "oneway": "yes", "lanes": "3", "layer": null, "bridge": null, "old_ref": "US 71 Alternate", "maxspeed": null, "tiger:zip_right": null, "tiger:zip_left": null, "tiger:reviewed": null, "tiger:name_type": null, "tiger:name_base": null, "tiger:county": null, "tiger:cfcc": null, "sidewalk:both": null, "highway": "secondary" }, "geometry": { "type": "LineString", "coordinates": [ [ -94.5731854, 39.0368831 ], [ -94.5731573, 39.0375075 ], [ -94.5731548, 39.0375641 ] ] } },
{ "type": "Feature", "properties": { "full_id": "w459717708", "osm_id": "459717708", "osm_type": "way", "name": "Troost Avenue", "maxheight": null, "turn:lanes:forward": null, "turn:lanes:backward": null, "turn:lanes:both_ways": null, "lanes:forward": null, "lanes:both_ways": null, "lanes:backward": null, "surface": null, "turn:lanes": null, "sidewalk:right": null, "sidewalk:left": null, "oneway": null, "lanes": null, "layer": null, "bridge": null, "old_ref": "US 71 Alternate", "maxspeed": "35 mph", "tiger:zip_right": "64131", "tiger:zip_left": "64131", "tiger:reviewed": "no", "tiger:name_type": "Ave", "tiger:name_base": "Troost", "tiger:county": "Jackson, MO", "tiger:cfcc": "A41", "sidewalk:both": null, "highway": "secondary" }, "geometry": { "type": "LineString", "coordinates": [ [ -94.57142, 39.06867 ], [ -94.5714256, 39.0685699 ], [ -94.5714439, 39.0682413 ], [ -94.571465, 39.0678638 ], [ -94.5714874, 39.067527 ], [ -94.5715036, 39.0670813 ], [ -94.5715265, 39.0669394 ], [ -94.571531, 39.066872 ], [ -94.5716222, 39.0652038 ] ] } },
{ "type": "Feature", "properties": { "full_id": "w494590191", "osm_id": "494590191", "osm_type": "way", "name": "Troost Avenue", "maxheight": null, "turn:lanes:forward": null, "turn:lanes:backward": null, "turn:lanes:both_ways": null, "lanes:forward": null, "lanes:both_ways": null, "lanes:backward": null, "surface": null, "turn:lanes": null, "sidewalk:right": null, "sidewalk:left": null, "oneway": null, "lanes": null, "layer": null, "bridge": null, "old_ref": null, "maxspeed": null, "tiger:zip_right": "64131", "tiger:zip_left": "64131", "tiger:reviewed": "no", "tiger:name_type": "Ave", "tiger:name_base": "Troost", "tiger:county": "Jackson, MO", "tiger:cfcc": "A41", "sidewalk:both": "separate", "highway": "tertiary" }, "geometry": { "type": "LineString", "coordinates": [ [ -94.5698348, 39.1006934 ], [ -94.5698386, 39.1006267 ], [ -94.5698568, 39.1003046 ], [ -94.5698651, 39.1001584 ], [ -94.5698679, 39.1001085 ], [ -94.5698864, 39.0997815 ], [ -94.5698917, 39.0996798 ], [ -94.5698986, 39.0995482 ], [ -94.5699019, 39.0994853 ] ] } },
{ "type": "Feature", "properties": { "full_id": "w494590192", "osm_id": "494590192", "osm_type": "way", "name": "Troost Avenue", "maxheight": null, "turn:lanes:forward": null, "turn:lanes:backward": null, "turn:lanes:both_ways": null, "lanes:forward": null, "lanes:both_ways": null, "lanes:backward": null, "surface": "asphalt", "turn:lanes": null, "sidewalk:right": null, "sidewalk:left": null, "oneway": null, "lanes": null, "layer": null, "bridge": null, "old_ref": null, "maxspeed": null, "tiger:zip_right": "64131", "tiger:zip_left": "64131", "tiger:reviewed": "no", "tiger:name_type": "Ave", "tiger:name_base": "Troost", "tiger:county": "Jackson, MO", "tiger:cfcc": "A41", "sidewalk:both": null, "highway": "secondary" }, "geometry": { "type": "LineString", "coordinates": [ [ -94.576333, 38.9778517 ], [ -94.5763396, 38.9777747 ], [ -94.576414, 38.976648 ], [ -94.576451, 38.975861 ], [ -94.576453, 38.975822 ], [ -94.5764941, 38.9750388 ] ] } },
{ "type": "Feature", "properties": { "full_id": "w495090976", "osm_id": "495090976", "osm_type": "way", "name": "Troost Avenue", "maxheight": null, "turn:lanes:forward": null, "turn:lanes:backward": null, "turn:lanes:both_ways": null, "lanes:forward": null, "lanes:both_ways": null, "lanes:backward": null, "surface": null, "turn:lanes": null, "sidewalk:right": null, "sidewalk:left": null, "oneway": null, "lanes": null, "layer": null, "bridge": null, "old_ref": null, "maxspeed": null, "tiger:zip_right": "64131", "tiger:zip_left": "64131", "tiger:reviewed": "no", "tiger:name_type": "Ave", "tiger:name_base": "Troost", "tiger:county": "Jackson, MO", "tiger:cfcc": "A41", "sidewalk:both": "separate", "highway": "secondary" }, "geometry": { "type": "LineString", "coordinates": [ [ -94.5700909, 39.0953652 ], [ -94.5700947, 39.0952848 ], [ -94.5700969, 39.0952394 ], [ -94.5701188, 39.0947807 ], [ -94.5701536, 39.0940868 ], [ -94.5701822, 39.0934496 ] ] } },
{ "type": "Feature", "properties": { "full_id": "w495115397", "osm_id": "495115397", "osm_type": "way", "name": "Troost Avenue", "maxheight": null, "turn:lanes:forward": null, "turn:lanes:backward": null, "turn:lanes:both_ways": null, "lanes:forward": null, "lanes:both_ways": null, "lanes:backward": null, "surface": null, "turn:lanes": null, "sidewalk:right": null, "sidewalk:left": null, "oneway": null, "lanes": null, "layer": null, "bridge": null, "old_ref": "US 71 Alternate", "maxspeed": "35 mph", "tiger:zip_right": "64131", "tiger:zip_left": "64131", "tiger:reviewed": "no", "tiger:name_type": "Ave", "tiger:name_base": "Troost", "tiger:county": "Jackson, MO", "tiger:cfcc": "A41", "sidewalk:both": null, "highway": "secondary" }, "geometry": { "type": "LineString", "coordinates": [ [ -94.5709051, 39.0790856 ], [ -94.5709661, 39.0778134 ], [ -94.5709676, 39.0777799 ], [ -94.57097, 39.077726 ] ] } },
{ "type": "Feature", "properties": { "full_id": "w495776768", "osm_id": "495776768", "osm_type": "way", "name": "Troost Avenue", "maxheight": null, "turn:lanes:forward": null, "turn:lanes:backward": null, "turn:lanes:both_ways": "left", "lanes:forward": "2", "lanes:both_ways": "1", "lanes:backward": "2", "surface": "asphalt", "turn:lanes": null, "sidewalk:right": null, "sidewalk:left": null, "oneway": null, "lanes": "5", "layer": null, "bridge": null, "old_ref": "US 71 Alternate", "maxspeed": null, "tiger:zip_right": "64131", "tiger:zip_left": "64131", "tiger:reviewed": "no", "tiger:name_type": "Ave", "tiger:name_base": "Troost", "tiger:county": "Jackson, MO", "tiger:cfcc": "A41", "sidewalk:both": null, "highway": "secondary" }, "geometry": { "type": "LineString", "coordinates": [ [ -94.573474, 39.032655 ], [ -94.5734777, 39.0325934 ], [ -94.5735, 39.0322242 ], [ -94.5735249, 39.03181 ], [ -94.5735803, 39.0308912 ], [ -94.573584, 39.03083 ], [ -94.5736886, 39.0290551 ], [ -94.573692, 39.028997 ], [ -94.5736967, 39.0289143 ], [ -94.5737185, 39.0285266 ], [ -94.5737483, 39.0279952 ], [ -94.5737536, 39.0279013 ], [ -94.5737909, 39.0272393 ], [ -94.573794, 39.027183 ], [ -94.5737971, 39.0271258 ], [ -94.5738558, 39.0260785 ], [ -94.5738918, 39.0254357 ], [ -94.573895, 39.025378 ], [ -94.5739343, 39.024683 ], [ -94.5739418, 39.0245494 ], [ -94.5739809, 39.0238562 ], [ -94.573997, 39.023571 ], [ -94.574028, 39.0229941 ], [ -94.5740573, 39.0224981 ], [ -94.5740743, 39.0222093 ], [ -94.574099, 39.021774 ], [ -94.5741091, 39.0215972 ], [ -94.5741148, 39.0214967 ], [ -94.5741173, 39.0214533 ], [ -94.5741467, 39.0209361 ], [ -94.5741554, 39.0207843 ], [ -94.5741992, 39.0200144 ], [ -94.574202, 39.019965 ], [ -94.5742057, 39.0199001 ], [ -94.5742203, 39.0196436 ], [ -94.57424, 39.0192964 ], [ -94.5742568, 39.0190013 ], [ -94.574297, 39.018294 ], [ -94.5743406, 39.0174843 ], [ -94.574369, 39.0169584 ], [ -94.5743749, 39.0168484 ], [ -94.574387, 39.016625 ], [ -94.5743942, 39.0164796 ], [ -94.5744125, 39.0161083 ], [ -94.5744326, 39.0156995 ], [ -94.5744471, 39.0154051 ], [ -94.5744505, 39.0153365 ], [ -94.574469, 39.014961 ], [ -94.5744832, 39.0146749 ], [ -94.5744952, 39.0144331 ], [ -94.5745027, 39.014283 ], [ -94.5745105, 39.0141256 ], [ -94.5745165, 39.0140053 ], [ -94.5745403, 39.0135276 ], [ -94.5745413, 39.0135066 ], [ -94.5745489, 39.0133527 ], [ -94.5745547, 39.0132504 ] ] } },
{ "type": "Feature", "properties": { "full_id": "w495776770", "osm_id": "495776770", "osm_type": "way", "name": "Troost Avenue", "maxheight": null, "turn:lanes:forward": null, "turn:lanes:backward": null, "turn:lanes:both_ways": null, "lanes:forward": null, "lanes:both_ways": null, "lanes:backward": null, "surface": null, "turn:lanes": null, "sidewalk:right": null, "sidewalk:left": null, "oneway": null, "lanes": null, "layer": null, "bridge": null, "old_ref": "US 71 Alternate", "maxspeed": "35 mph", "tiger:zip_right": "64131", "tiger:zip_left": "64131", "tiger:reviewed": "no", "tiger:name_type": "Ave", "tiger:name_base": "Troost", "tiger:county": "Jackson, MO", "tiger:cfcc": "A41", "sidewalk:both": null, "highway": "secondary" }, "geometry": { "type": "LineString", "coordinates": [ [ -94.5729601, 39.0416809 ], [ -94.5729653, 39.0416018 ], [ -94.5729685, 39.0415433 ], [ -94.5729726, 39.0414658 ], [ -94.5729838, 39.0412546 ], [ -94.5729919, 39.0411018 ], [ -94.5729934, 39.0410687 ], [ -94.5730203, 39.0405041 ], [ -94.5730642, 39.0398786 ] ] } },
{ "type": "Feature", "properties": { "full_id": "w499188323", "osm_id": "499188323", "osm_type": "way", "name": "Troost Avenue", "maxheight": null, "turn:lanes:forward": null, "turn:lanes:backward": null, "turn:lanes:both_ways": null, "lanes:forward": null, "lanes:both_ways": null, "lanes:backward": null, "surface": "asphalt", "turn:lanes": null, "sidewalk:right": null, "sidewalk:left": null, "oneway": null, "lanes": null, "layer": null, "bridge": null, "old_ref": "US 71", "maxspeed": null, "tiger:zip_right": "64131", "tiger:zip_left": "64131", "tiger:reviewed": "no", "tiger:name_type": "Ave", "tiger:name_base": "Troost", "tiger:county": "Jackson, MO", "tiger:cfcc": "A41", "sidewalk:both": null, "highway": "secondary" }, "geometry": { "type": "LineString", "coordinates": [ [ -94.57567, 38.991557 ], [ -94.5756759, 38.9914569 ], [ -94.5756945, 38.9911431 ], [ -94.575701, 38.991033 ], [ -94.575716, 38.990642 ], [ -94.575721, 38.99053 ], [ -94.5757524, 38.9899126 ], [ -94.57576, 38.989764 ], [ -94.5757627, 38.9897096 ], [ -94.575774, 38.98948 ], [ -94.575804, 38.988876 ], [ -94.575826, 38.988442 ], [ -94.57585, 38.987941 ], [ -94.5758628, 38.9876853 ], [ -94.5758732, 38.987489 ], [ -94.575879, 38.987381 ] ] } },
{ "type": "Feature", "properties": { "full_id": "w499188329", "osm_id": "499188329", "osm_type": "way", "name": "Troost Avenue", "maxheight": null, "turn:lanes:forward": null, "turn:lanes:backward": null, "turn:lanes:both_ways": null, "lanes:forward": null, "lanes:both_ways": null, "lanes:backward": null, "surface": null, "turn:lanes": null, "sidewalk:right": null, "sidewalk:left": null, "oneway": null, "lanes": null, "layer": null, "bridge": null, "old_ref": "US 71", "maxspeed": null, "tiger:zip_right": "64131", "tiger:zip_left": "64131", "tiger:reviewed": "no", "tiger:name_type": "Ave", "tiger:name_base": "Troost", "tiger:county": "Jackson, MO", "tiger:cfcc": "A41", "sidewalk:both": null, "highway": "secondary" }, "geometry": { "type": "LineString", "coordinates": [ [ -94.5756475, 38.9920068 ], [ -94.5756543, 38.9918705 ], [ -94.5756632, 38.9916938 ], [ -94.57567, 38.991557 ] ] } },
{ "type": "Feature", "properties": { "full_id": "w503623717", "osm_id": "503623717", "osm_type": "way", "name": "Troost Avenue", "maxheight": null, "turn:lanes:forward": null, "turn:lanes:backward": null, "turn:lanes:both_ways": null, "lanes:forward": null, "lanes:both_ways": null, "lanes:backward": null, "surface": null, "turn:lanes": null, "sidewalk:right": null, "sidewalk:left": null, "oneway": null, "lanes": null, "layer": null, "bridge": null, "old_ref": "US 71 Alternate", "maxspeed": "35 mph", "tiger:zip_right": "64131", "tiger:zip_left": "64131", "tiger:reviewed": "no", "tiger:name_type": "Ave", "tiger:name_base": "Troost", "tiger:county": "Jackson, MO", "tiger:cfcc": "A41", "sidewalk:both": null, "highway": "secondary" }, "geometry": { "type": "LineString", "coordinates": [ [ -94.571227, 39.072303 ], [ -94.5712302, 39.0722358 ], [ -94.571233, 39.072178 ], [ -94.5712516, 39.0717883 ], [ -94.5712674, 39.0714563 ], [ -94.571313, 39.070502 ], [ -94.5713182, 39.0704122 ], [ -94.5713831, 39.0693025 ], [ -94.5714127, 39.0687953 ], [ -94.57142, 39.06867 ] ] } },
{ "type": "Feature", "properties": { "full_id": "w607665301", "osm_id": "607665301", "osm_type": "way", "name": "Troost Avenue", "maxheight": null, "turn:lanes:forward": null, "turn:lanes:backward": null, "turn:lanes:both_ways": null, "lanes:forward": null, "lanes:both_ways": null, "lanes:backward": null, "surface": null, "turn:lanes": null, "sidewalk:right": null, "sidewalk:left": null, "oneway": "yes", "lanes": null, "layer": null, "bridge": null, "old_ref": "US 71 Alternate", "maxspeed": "35 mph", "tiger:zip_right": "64131", "tiger:zip_left": "64131", "tiger:reviewed": "no", "tiger:name_type": "Ave", "tiger:name_base": "Troost", "tiger:county": "Jackson, MO", "tiger:cfcc": "A41", "sidewalk:both": null, "highway": "secondary" }, "geometry": { "type": "LineString", "coordinates": [ [ -94.5708425, 39.0813389 ], [ -94.5708474, 39.0812579 ], [ -94.5709294, 39.0799034 ], [ -94.5708807, 39.079819 ] ] } },
{ "type": "Feature", "properties": { "full_id": "w607665305", "osm_id": "607665305", "osm_type": "way", "name": "Troost Avenue", "maxheight": null, "turn:lanes:forward": null, "turn:lanes:backward": null, "turn:lanes:both_ways": null, "lanes:forward": null, "lanes:both_ways": null, "lanes:backward": null, "surface": null, "turn:lanes": null, "sidewalk:right": null, "sidewalk:left": null, "oneway": "yes", "lanes": null, "layer": null, "bridge": null, "old_ref": "US 71 Alternate", "maxspeed": "35 mph", "tiger:zip_right": "64131", "tiger:zip_left": "64131", "tiger:reviewed": "no", "tiger:name_type": "Ave", "tiger:name_base": "Troost", "tiger:county": "Jackson, MO", "tiger:cfcc": "A41", "sidewalk:both": null, "highway": "secondary" }, "geometry": { "type": "LineString", "coordinates": [ [ -94.5707417, 39.0824021 ], [ -94.5707887, 39.0823563 ], [ -94.5707968, 39.0822023 ], [ -94.570811, 39.081934 ], [ -94.5708175, 39.081812 ], [ -94.5708378, 39.0814287 ], [ -94.5708425, 39.0813389 ] ] } },
{ "type": "Feature", "properties": { "full_id": "w607665308", "osm_id": "607665308", "osm_type": "way", "name": "Troost Avenue", "maxheight": null, "turn:lanes:forward": null, "turn:lanes:backward": null, "turn:lanes:both_ways": null, "lanes:forward": null, "lanes:both_ways": null, "lanes:backward": null, "surface": null, "turn:lanes": null, "sidewalk:right": null, "sidewalk:left": null, "oneway": "yes", "lanes": null, "layer": null, "bridge": null, "old_ref": "US 71 Alternate", "maxspeed": "35 mph", "tiger:zip_right": "64131", "tiger:zip_left": "64131", "tiger:reviewed": "no", "tiger:name_type": "Ave", "tiger:name_base": "Troost", "tiger:county": "Jackson, MO", "tiger:cfcc": "A41", "sidewalk:both": null, "highway": "secondary" }, "geometry": { "type": "LineString", "coordinates": [ [ -94.5708807, 39.079819 ], [ -94.5708363, 39.0798972 ], [ -94.5707656, 39.0812567 ], [ -94.5707615, 39.0813348 ] ] } },
{ "type": "Feature", "properties": { "full_id": "w607665311", "osm_id": "607665311", "osm_type": "way", "name": "Troost Avenue", "maxheight": null, "turn:lanes:forward": null, "turn:lanes:backward": null, "turn:lanes:both_ways": null, "lanes:forward": null, "lanes:both_ways": null, "lanes:backward": null, "surface": null, "turn:lanes": null, "sidewalk:right": null, "sidewalk:left": null, "oneway": "yes", "lanes": null, "layer": null, "bridge": null, "old_ref": "US 71 Alternate", "maxspeed": "35 mph", "tiger:zip_right": "64131", "tiger:zip_left": "64131", "tiger:reviewed": "no", "tiger:name_type": "Ave", "tiger:name_base": "Troost", "tiger:county": "Jackson, MO", "tiger:cfcc": "A41", "sidewalk:both": null, "highway": "secondary" }, "geometry": { "type": "LineString", "coordinates": [ [ -94.5707615, 39.0813348 ], [ -94.5707565, 39.0814299 ], [ -94.5707364, 39.0818094 ], [ -94.57073, 39.0819315 ], [ -94.5707081, 39.0823467 ], [ -94.5707417, 39.0824021 ] ] } },
{ "type": "Feature", "properties": { "full_id": "w628102946", "osm_id": "628102946", "osm_type": "way", "name": "Troost Avenue", "maxheight": null, "turn:lanes:forward": null, "turn:lanes:backward": null, "turn:lanes:both_ways": null, "lanes:forward": null, "lanes:both_ways": null, "lanes:backward": null, "surface": null, "turn:lanes": null, "sidewalk:right": null, "sidewalk:left": null, "oneway": null, "lanes": null, "layer": null, "bridge": null, "old_ref": "US 71 Alternate", "maxspeed": "35 mph", "tiger:zip_right": "64131", "tiger:zip_left": "64131", "tiger:reviewed": "no", "tiger:name_type": "Ave", "tiger:name_base": "Troost", "tiger:county": "Jackson, MO", "tiger:cfcc": "A41", "sidewalk:both": null, "highway": "secondary" }, "geometry": { "type": "LineString", "coordinates": [ [ -94.5717417, 39.0628678 ], [ -94.5717468, 39.0627819 ], [ -94.571815, 39.061451 ], [ -94.571818, 39.061403 ], [ -94.5718293, 39.061202 ], [ -94.5719117, 39.0597329 ], [ -94.571916, 39.059657 ], [ -94.5719699, 39.0589045 ], [ -94.571972, 39.0588664 ], [ -94.5720074, 39.0582701 ], [ -94.5720206, 39.0580084 ], [ -94.5720241, 39.057938 ], [ -94.5720281, 39.057869 ], [ -94.5720426, 39.0575948 ], [ -94.5720652, 39.0571533 ], [ -94.5720764, 39.0569347 ], [ -94.5720814, 39.0568358 ], [ -94.5721157, 39.056165 ], [ -94.57212, 39.05608 ], [ -94.5721246, 39.0560051 ], [ -94.5721381, 39.0557855 ], [ -94.5721517, 39.0555637 ] ] } },
{ "type": "Feature", "properties": { "full_id": "w628102953", "osm_id": "628102953", "osm_type": "way", "name": "Troost Avenue", "maxheight": null, "turn:lanes:forward": null, "turn:lanes:backward": null, "turn:lanes:both_ways": null, "lanes:forward": null, "lanes:both_ways": null, "lanes:backward": null, "surface": null, "turn:lanes": null, "sidewalk:right": null, "sidewalk:left": null, "oneway": null, "lanes": null, "layer": null, "bridge": null, "old_ref": "US 71 Alternate", "maxspeed": "35 mph", "tiger:zip_right": "64131", "tiger:zip_left": "64131", "tiger:reviewed": "no", "tiger:name_type": "Ave", "tiger:name_base": "Troost", "tiger:county": "Jackson, MO", "tiger:cfcc": "A41", "sidewalk:both": null, "highway": "secondary" }, "geometry": { "type": "LineString", "coordinates": [ [ -94.571636, 39.0649766 ], [ -94.571649, 39.0647774 ] ] } },
{ "type": "Feature", "properties": { "full_id": "w628102959", "osm_id": "628102959", "osm_type": "way", "name": "Troost Avenue", "maxheight": null, "turn:lanes:forward": null, "turn:lanes:backward": null, "turn:lanes:both_ways": null, "lanes:forward": null, "lanes:both_ways": null, "lanes:backward": null, "surface": null, "turn:lanes": null, "sidewalk:right": null, "sidewalk:left": null, "oneway": null, "lanes": null, "layer": null, "bridge": null, "old_ref": "US 71 Alternate", "maxspeed": "35 mph", "tiger:zip_right": "64131", "tiger:zip_left": "64131", "tiger:reviewed": "no", "tiger:name_type": "Ave", "tiger:name_base": "Troost", "tiger:county": "Jackson, MO", "tiger:cfcc": "A41", "sidewalk:both": null, "highway": "secondary" }, "geometry": { "type": "LineString", "coordinates": [ [ -94.5716222, 39.0652038 ], [ -94.571636, 39.0649766 ] ] } },
{ "type": "Feature", "properties": { "full_id": "w673791015", "osm_id": "673791015", "osm_type": "way", "name": "Troost Avenue", "maxheight": null, "turn:lanes:forward": null, "turn:lanes:backward": null, "turn:lanes:both_ways": null, "lanes:forward": null, "lanes:both_ways": null, "lanes:backward": null, "surface": "asphalt", "turn:lanes": null, "sidewalk:right": null, "sidewalk:left": null, "oneway": null, "lanes": null, "layer": null, "bridge": null, "old_ref": null, "maxspeed": null, "tiger:zip_right": "64131", "tiger:zip_left": "64131", "tiger:reviewed": "no", "tiger:name_type": "Ave", "tiger:name_base": "Troost", "tiger:county": "Jackson, MO", "tiger:cfcc": "A41", "sidewalk:both": null, "highway": "secondary" }, "geometry": { "type": "LineString", "coordinates": [ [ -94.5763273, 38.9785746 ], [ -94.576333, 38.9778517 ] ] } },
{ "type": "Feature", "properties": { "full_id": "w695556465", "osm_id": "695556465", "osm_type": "way", "name": "Troost Avenue", "maxheight": null, "turn:lanes:forward": null, "turn:lanes:backward": null, "turn:lanes:both_ways": null, "lanes:forward": null, "lanes:both_ways": null, "lanes:backward": null, "surface": "asphalt", "turn:lanes": null, "sidewalk:right": null, "sidewalk:left": null, "oneway": null, "lanes": null, "layer": null, "bridge": null, "old_ref": null, "maxspeed": null, "tiger:zip_right": "64131", "tiger:zip_left": "64131", "tiger:reviewed": "no", "tiger:name_type": "Ave", "tiger:name_base": "Troost", "tiger:county": "Jackson, MO", "tiger:cfcc": "A41", "sidewalk:both": "separate", "highway": "secondary" }, "geometry": { "type": "LineString", "coordinates": [ [ -94.5764941, 38.9750388 ], [ -94.5765603, 38.9737228 ] ] } },
{ "type": "Feature", "properties": { "full_id": "w719484807", "osm_id": "719484807", "osm_type": "way", "name": "Troost Avenue", "maxheight": null, "turn:lanes:forward": null, "turn:lanes:backward": null, "turn:lanes:both_ways": null, "lanes:forward": null, "lanes:both_ways": null, "lanes:backward": null, "surface": null, "turn:lanes": null, "sidewalk:right": null, "sidewalk:left": null, "oneway": null, "lanes": "2", "layer": null, "bridge": null, "old_ref": null, "maxspeed": "25 mph", "tiger:zip_right": null, "tiger:zip_left": null, "tiger:reviewed": null, "tiger:name_type": null, "tiger:name_base": null, "tiger:county": null, "tiger:cfcc": null, "sidewalk:both": null, "highway": "residential" }, "geometry": { "type": "LineString", "coordinates": [ [ -94.5705484, 39.1070013 ], [ -94.5705426, 39.1070917 ], [ -94.5705318, 39.1072267 ], [ -94.5705224, 39.1074176 ] ] } },
{ "type": "Feature", "properties": { "full_id": "w719484817", "osm_id": "719484817", "osm_type": "way", "name": "Troost Avenue", "maxheight": null, "turn:lanes:forward": null, "turn:lanes:backward": null, "turn:lanes:both_ways": null, "lanes:forward": null, "lanes:both_ways": null, "lanes:backward": null, "surface": null, "turn:lanes": null, "sidewalk:right": null, "sidewalk:left": null, "oneway": null, "lanes": "2", "layer": null, "bridge": null, "old_ref": null, "maxspeed": "25 mph", "tiger:zip_right": null, "tiger:zip_left": null, "tiger:reviewed": null, "tiger:name_type": null, "tiger:name_base": null, "tiger:county": null, "tiger:cfcc": null, "sidewalk:both": null, "highway": "residential" }, "geometry": { "type": "LineString", "coordinates": [ [ -94.5701521, 39.1084598 ], [ -94.5700682, 39.1085841 ], [ -94.5700208, 39.1086646 ], [ -94.5700006, 39.1087451 ], [ -94.5699973, 39.1088416 ], [ -94.5699956, 39.1088942 ], [ -94.5699924, 39.1089548 ], [ -94.5699515, 39.1098407 ], [ -94.5699496, 39.1098979 ] ] } },
{ "type": "Feature", "properties": { "full_id": "w719484819", "osm_id": "719484819", "osm_type": "way", "name": "Troost Avenue", "maxheight": null, "turn:lanes:forward": null, "turn:lanes:backward": null, "turn:lanes:both_ways": null, "lanes:forward": null, "lanes:both_ways": null, "lanes:backward": null, "surface": null, "turn:lanes": null, "sidewalk:right": null, "sidewalk:left": null, "oneway": null, "lanes": "2", "layer": null, "bridge": null, "old_ref": null, "maxspeed": "25 mph", "tiger:zip_right": null, "tiger:zip_left": null, "tiger:reviewed": null, "tiger:name_type": null, "tiger:name_base": null, "tiger:county": null, "tiger:cfcc": null, "sidewalk:both": null, "highway": "residential" }, "geometry": { "type": "LineString", "coordinates": [ [ -94.5704588, 39.1078753 ], [ -94.5704024, 39.1080293 ], [ -94.5703483, 39.1081553 ], [ -94.5702694, 39.1082953 ], [ -94.5701521, 39.1084598 ] ] } },
{ "type": "Feature", "properties": { "full_id": "w719484820", "osm_id": "719484820", "osm_type": "way", "name": "Troost Avenue", "maxheight": null, "turn:lanes:forward": null, "turn:lanes:backward": null, "turn:lanes:both_ways": null, "lanes:forward": null, "lanes:both_ways": null, "lanes:backward": null, "surface": null, "turn:lanes": null, "sidewalk:right": null, "sidewalk:left": null, "oneway": null, "lanes": "2", "layer": null, "bridge": null, "old_ref": null, "maxspeed": "25 mph", "tiger:zip_right": null, "tiger:zip_left": null, "tiger:reviewed": null, "tiger:name_type": null, "tiger:name_base": null, "tiger:county": null, "tiger:cfcc": null, "sidewalk:both": null, "highway": "residential" }, "geometry": { "type": "LineString", "coordinates": [ [ -94.5705224, 39.1074176 ], [ -94.5705159, 39.1075707 ], [ -94.5704935, 39.1077291 ], [ -94.5704588, 39.1078753 ] ] } },
{ "type": "Feature", "properties": { "full_id": "w741002463", "osm_id": "741002463", "osm_type": "way", "name": "Troost Avenue", "maxheight": null, "turn:lanes:forward": null, "turn:lanes:backward": null, "turn:lanes:both_ways": null, "lanes:forward": null, "lanes:both_ways": null, "lanes:backward": null, "surface": null, "turn:lanes": null, "sidewalk:right": null, "sidewalk:left": null, "oneway": null, "lanes": null, "layer": null, "bridge": null, "old_ref": "US 71 Alternate", "maxspeed": "35 mph", "tiger:zip_right": "64131", "tiger:zip_left": "64131", "tiger:reviewed": "no", "tiger:name_type": "Ave", "tiger:name_base": "Troost", "tiger:county": "Jackson, MO", "tiger:cfcc": "A41", "sidewalk:both": null, "highway": "secondary" }, "geometry": { "type": "LineString", "coordinates": [ [ -94.5721517, 39.0555637 ], [ -94.5721849, 39.0550233 ], [ -94.5721925, 39.0548997 ], [ -94.5722244, 39.0543811 ], [ -94.572228, 39.054322 ], [ -94.5722306, 39.0542755 ], [ -94.5722551, 39.0538443 ], [ -94.5722863, 39.0532935 ], [ -94.5723117, 39.052845 ], [ -94.5723219, 39.0526658 ], [ -94.5723268, 39.0525791 ], [ -94.57233, 39.052523 ], [ -94.5723333, 39.0524629 ], [ -94.5723532, 39.0521015 ], [ -94.5723874, 39.0514805 ], [ -94.5724163, 39.0509566 ], [ -94.57243, 39.050708 ], [ -94.5724321, 39.0506612 ], [ -94.5724769, 39.0498565 ], [ -94.5724809, 39.0497834 ], [ -94.572529, 39.04891 ], [ -94.5725544, 39.0484469 ], [ -94.57262, 39.047248 ], [ -94.572628, 39.047109 ], [ -94.5727316, 39.0452939 ], [ -94.5727349, 39.0452342 ], [ -94.5727466, 39.0450235 ], [ -94.5727691, 39.0446195 ], [ -94.572804, 39.0440246 ], [ -94.572825, 39.0436671 ], [ -94.572832, 39.043547 ] ] } },
{ "type": "Feature", "properties": { "full_id": "w926150555", "osm_id": "926150555", "osm_type": "way", "name": "Troost Avenue", "maxheight": null, "turn:lanes:forward": null, "turn:lanes:backward": null, "turn:lanes:both_ways": null, "lanes:forward": null, "lanes:both_ways": null, "lanes:backward": null, "surface": null, "turn:lanes": null, "sidewalk:right": null, "sidewalk:left": null, "oneway": null, "lanes": null, "layer": null, "bridge": null, "old_ref": "US 71 Alternate", "maxspeed": null, "tiger:zip_right": "64131", "tiger:zip_left": "64131", "tiger:reviewed": "no", "tiger:name_type": "Ave", "tiger:name_base": "Troost", "tiger:county": "Jackson, MO", "tiger:cfcc": "A41", "sidewalk:both": "separate", "highway": "secondary" }, "geometry": { "type": "LineString", "coordinates": [ [ -94.573262, 39.036253 ], [ -94.5732677, 39.0361521 ], [ -94.5732691, 39.0361284 ], [ -94.5732739, 39.0360442 ], [ -94.5733257, 39.0351414 ], [ -94.5733333, 39.0350095 ], [ -94.573365, 39.034457 ] ] } },
{ "type": "Feature", "properties": { "full_id": "w1370486122", "osm_id": "1370486122", "osm_type": "way", "name": "Troost Avenue", "maxheight": null, "turn:lanes:forward": null, "turn:lanes:backward": null, "turn:lanes:both_ways": null, "lanes:forward": null, "lanes:both_ways": null, "lanes:backward": null, "surface": null, "turn:lanes": null, "sidewalk:right": null, "sidewalk:left": null, "oneway": null, "lanes": null, "layer": null, "bridge": null, "old_ref": null, "maxspeed": "45 mph", "tiger:zip_right": "64131", "tiger:zip_left": "64131", "tiger:reviewed": null, "tiger:name_type": "Ave", "tiger:name_base": "Troost", "tiger:county": "Jackson, MO", "tiger:cfcc": "A41", "sidewalk:both": null, "highway": "secondary" }, "geometry": { "type": "LineString", "coordinates": [ [ -94.5778568, 38.9553949 ], [ -94.5778709, 38.9552862 ] ] } },
{ "type": "Feature", "properties": { "full_id": "w1391757365", "osm_id": "1391757365", "osm_type": "way", "name": "Troost Avenue", "maxheight": null, "turn:lanes:forward": null, "turn:lanes:backward": null, "turn:lanes:both_ways": null, "lanes:forward": null, "lanes:both_ways": null, "lanes:backward": null, "surface": null, "turn:lanes": null, "sidewalk:right": null, "sidewalk:left": null, "oneway": null, "lanes": null, "layer": null, "bridge": null, "old_ref": "US 71 Alternate", "maxspeed": "35 mph", "tiger:zip_right": "64131", "tiger:zip_left": "64131", "tiger:reviewed": "no", "tiger:name_type": "Ave", "tiger:name_base": "Troost", "tiger:county": "Jackson, MO", "tiger:cfcc": "A41", "sidewalk:both": null, "highway": "secondary" }, "geometry": { "type": "LineString", "coordinates": [ [ -94.571649, 39.0647774 ], [ -94.571665, 39.064445 ], [ -94.5716724, 39.0642703 ], [ -94.5716838, 39.0640524 ], [ -94.571695, 39.0638159 ], [ -94.5716957, 39.0638057 ], [ -94.5716986, 39.0637447 ], [ -94.5717005, 39.0637045 ], [ -94.5717103, 39.0635024 ], [ -94.5717164, 39.0633754 ], [ -94.571723, 39.063246 ] ] } },
{ "type": "Feature", "properties": { "full_id": "w1391757367", "osm_id": "1391757367", "osm_type": "way", "name": "Troost Avenue", "maxheight": null, "turn:lanes:forward": null, "turn:lanes:backward": "left|", "turn:lanes:both_ways": null, "lanes:forward": "1", "lanes:both_ways": null, "lanes:backward": "2", "surface": null, "turn:lanes": null, "sidewalk:right": null, "sidewalk:left": null, "oneway": null, "lanes": "3", "layer": null, "bridge": null, "old_ref": "US 71 Alternate", "maxspeed": "35 mph", "tiger:zip_right": "64131", "tiger:zip_left": "64131", "tiger:reviewed": "no", "tiger:name_type": "Ave", "tiger:name_base": "Troost", "tiger:county": "Jackson, MO", "tiger:cfcc": "A41", "sidewalk:both": null, "highway": "secondary" }, "geometry": { "type": "LineString", "coordinates": [ [ -94.571723, 39.063246 ], [ -94.5717285, 39.0631389 ], [ -94.5717417, 39.0628678 ] ] } },
{ "type": "Feature", "properties": { "full_id": "w1393945142", "osm_id": "1393945142", "osm_type": "way", "name": "Troost Avenue", "maxheight": null, "turn:lanes:forward": null, "turn:lanes:backward": null, "turn:lanes:both_ways": "left", "lanes:forward": "2", "lanes:both_ways": "1", "lanes:backward": "2", "surface": "asphalt", "turn:lanes": null, "sidewalk:right": null, "sidewalk:left": null, "oneway": null, "lanes": "5", "layer": null, "bridge": null, "old_ref": "US 71 Alternate", "maxspeed": null, "tiger:zip_right": "64131", "tiger:zip_left": "64131", "tiger:reviewed": "no", "tiger:name_type": "Ave", "tiger:name_base": "Troost", "tiger:county": "Jackson, MO", "tiger:cfcc": "A41", "sidewalk:both": null, "highway": "secondary" }, "geometry": { "type": "LineString", "coordinates": [ [ -94.5745547, 39.0132504 ], [ -94.5745665, 39.0130054 ], [ -94.5745755, 39.0128301 ], [ -94.5745793, 39.0127559 ], [ -94.5746098, 39.0121612 ], [ -94.5746206, 39.0119514 ], [ -94.5746254, 39.0118577 ], [ -94.5746285, 39.0117977 ], [ -94.5746351, 39.0116673 ], [ -94.5746387, 39.0115995 ], [ -94.574645, 39.011475 ] ] } },
{ "type": "Feature", "properties": { "full_id": "w1413411663", "osm_id": "1413411663", "osm_type": "way", "name": "Troost Avenue", "maxheight": null, "turn:lanes:forward": null, "turn:lanes:backward": null, "turn:lanes:both_ways": null, "lanes:forward": null, "lanes:both_ways": null, "lanes:backward": null, "surface": null, "turn:lanes": null, "sidewalk:right": null, "sidewalk:left": null, "oneway": null, "lanes": null, "layer": null, "bridge": null, "old_ref": "US 71 Alternate", "maxspeed": "35 mph", "tiger:zip_right": "64131", "tiger:zip_left": "64131", "tiger:reviewed": "no", "tiger:name_type": "Ave", "tiger:name_base": "Troost", "tiger:county": "Jackson, MO", "tiger:cfcc": "A41", "sidewalk:both": null, "highway": "secondary" }, "geometry": { "type": "LineString", "coordinates": [ [ -94.5728651, 39.0430665 ], [ -94.5728754, 39.0429173 ], [ -94.572879, 39.0428648 ], [ -94.5728844, 39.0427857 ], [ -94.5729114, 39.0423945 ], [ -94.5729191, 39.0422825 ], [ -94.5729201, 39.0422675 ], [ -94.5729336, 39.0420758 ], [ -94.5729541, 39.0417828 ], [ -94.5729561, 39.0417485 ], [ -94.5729601, 39.0416809 ] ] } },
{ "type": "Feature", "properties": { "full_id": "w1414043122", "osm_id": "1414043122", "osm_type": "way", "name": "Troost Avenue", "maxheight": null, "turn:lanes:forward": null, "turn:lanes:backward": null, "turn:lanes:both_ways": null, "lanes:forward": null, "lanes:both_ways": null, "lanes:backward": null, "surface": null, "turn:lanes": null, "sidewalk:right": null, "sidewalk:left": null, "oneway": null, "lanes": null, "layer": null, "bridge": null, "old_ref": null, "maxspeed": "45 mph", "tiger:zip_right": "64131", "tiger:zip_left": "64131", "tiger:reviewed": null, "tiger:name_type": "Ave", "tiger:name_base": "Troost", "tiger:county": "Jackson, MO", "tiger:cfcc": "A41", "sidewalk:both": null, "highway": "secondary" }, "geometry": { "type": "LineString", "coordinates": [ [ -94.5775209, 38.9592568 ], [ -94.5776636, 38.957799 ], [ -94.5776712, 38.9573251 ], [ -94.5776895, 38.9571305 ], [ -94.5777051, 38.9569687 ], [ -94.5777072, 38.9569466 ], [ -94.5777083, 38.956935 ], [ -94.5777121, 38.9568957 ], [ -94.577734, 38.9566687 ], [ -94.5777467, 38.956537 ], [ -94.5777711, 38.9562841 ], [ -94.5777735, 38.9562587 ], [ -94.5777834, 38.956156 ], [ -94.5778046, 38.9559365 ] ] } },
{ "type": "Feature", "properties": { "full_id": "w1414043123", "osm_id": "1414043123", "osm_type": "way", "name": "Troost Avenue", "maxheight": null, "turn:lanes:forward": null, "turn:lanes:backward": "left||", "turn:lanes:both_ways": null, "lanes:forward": "2", "lanes:both_ways": null, "lanes:backward": "3", "surface": null, "turn:lanes": null, "sidewalk:right": null, "sidewalk:left": null, "oneway": null, "lanes": "5", "layer": null, "bridge": null, "old_ref": null, "maxspeed": "45 mph", "tiger:zip_right": "64131", "tiger:zip_left": "64131", "tiger:reviewed": null, "tiger:name_type": "Ave", "tiger:name_base": "Troost", "tiger:county": "Jackson, MO", "tiger:cfcc": "A41", "sidewalk:both": null, "highway": "secondary" }, "geometry": { "type": "LineString", "coordinates": [ [ -94.57747, 38.959777 ], [ -94.5775209, 38.9592568 ] ] } },
{ "type": "Feature", "properties": { "full_id": "w1414043124", "osm_id": "1414043124", "osm_type": "way", "name": "Troost Avenue", "maxheight": null, "turn:lanes:forward": "left||", "turn:lanes:backward": null, "turn:lanes:both_ways": null, "lanes:forward": "3", "lanes:both_ways": null, "lanes:backward": "2", "surface": null, "turn:lanes": null, "sidewalk:right": null, "sidewalk:left": null, "oneway": null, "lanes": "5", "layer": null, "bridge": null, "old_ref": null, "maxspeed": "45 mph", "tiger:zip_right": "64131", "tiger:zip_left": "64131", "tiger:reviewed": null, "tiger:name_type": "Ave", "tiger:name_base": "Troost", "tiger:county": "Jackson, MO", "tiger:cfcc": "A41", "sidewalk:both": null, "highway": "secondary" }, "geometry": { "type": "LineString", "coordinates": [ [ -94.5774418, 38.9601079 ], [ -94.57747, 38.959777 ] ] } },
{ "type": "Feature", "properties": { "full_id": "w1414812909", "osm_id": "1414812909", "osm_type": "way", "name": "Troost Avenue", "maxheight": null, "turn:lanes:forward": "left|left", "turn:lanes:backward": null, "turn:lanes:both_ways": null, "lanes:forward": "2", "lanes:both_ways": null, "lanes:backward": "1", "surface": null, "turn:lanes": null, "sidewalk:right": null, "sidewalk:left": null, "oneway": null, "lanes": "3", "layer": null, "bridge": null, "old_ref": null, "maxspeed": "45 mph", "tiger:zip_right": "64131", "tiger:zip_left": "64131", "tiger:reviewed": null, "tiger:name_type": "Ave", "tiger:name_base": "Troost", "tiger:county": "Jackson, MO", "tiger:cfcc": "A41", "sidewalk:both": null, "highway": "secondary" }, "geometry": { "type": "LineString", "coordinates": [ [ -94.5778046, 38.9559365 ], [ -94.5778568, 38.9553949 ] ] } },
{ "type": "Feature", "properties": { "full_id": "w1414814737", "osm_id": "1414814737", "osm_type": "way", "name": "Troost Avenue", "maxheight": null, "turn:lanes:forward": null, "turn:lanes:backward": null, "turn:lanes:both_ways": null, "lanes:forward": null, "lanes:both_ways": null, "lanes:backward": null, "surface": null, "turn:lanes": null, "sidewalk:right": null, "sidewalk:left": null, "oneway": null, "lanes": null, "layer": null, "bridge": null, "old_ref": "US 71", "maxspeed": null, "tiger:zip_right": "64131", "tiger:zip_left": "64131", "tiger:reviewed": "no", "tiger:name_type": "Ave", "tiger:name_base": "Troost", "tiger:county": "Jackson, MO", "tiger:cfcc": "A41", "sidewalk:both": null, "highway": "secondary" }, "geometry": { "type": "LineString", "coordinates": [ [ -94.574645, 39.011475 ], [ -94.5746533, 39.0113256 ], [ -94.5746599, 39.0112073 ], [ -94.5746614, 39.0111799 ], [ -94.5746755, 39.0109279 ], [ -94.5746841, 39.0107735 ], [ -94.5746959, 39.0105613 ], [ -94.5747026, 39.0105015 ], [ -94.5747123, 39.010303 ], [ -94.5747259, 39.0100237 ], [ -94.5747351, 39.009859 ], [ -94.5747381, 39.0098251 ], [ -94.5747524, 39.0096638 ], [ -94.574758, 39.0095653 ], [ -94.5747913, 39.0089756 ], [ -94.5748074, 39.0086974 ], [ -94.5748212, 39.0084979 ], [ -94.5748282, 39.0083407 ], [ -94.5748451, 39.0080628 ], [ -94.5748627, 39.007774 ], [ -94.5748699, 39.0076561 ], [ -94.57489, 39.007327 ], [ -94.574914, 39.006951 ], [ -94.5749516, 39.006224 ], [ -94.5749625, 39.0060256 ] ] } },
{ "type": "Feature", "properties": { "full_id": "w1414814738", "osm_id": "1414814738", "osm_type": "way", "name": "Troost Avenue", "maxheight": null, "turn:lanes:forward": null, "turn:lanes:backward": "left|none|none", "turn:lanes:both_ways": null, "lanes:forward": "2", "lanes:both_ways": null, "lanes:backward": "3", "surface": null, "turn:lanes": null, "sidewalk:right": null, "sidewalk:left": null, "oneway": null, "lanes": "5", "layer": null, "bridge": null, "old_ref": "US 71", "maxspeed": null, "tiger:zip_right": "64131", "tiger:zip_left": "64131", "tiger:reviewed": "no", "tiger:name_type": "Ave", "tiger:name_base": "Troost", "tiger:county": "Jackson, MO", "tiger:cfcc": "A41", "sidewalk:both": null, "highway": "secondary" }, "geometry": { "type": "LineString", "coordinates": [ [ -94.5749625, 39.0060256 ], [ -94.5749646, 39.0059808 ], [ -94.575005, 39.0051321 ], [ -94.5750479, 39.0041756 ] ] } },
{ "type": "Feature", "properties": { "full_id": "w1414814739", "osm_id": "1414814739", "osm_type": "way", "name": "Troost Avenue", "maxheight": null, "turn:lanes:forward": null, "turn:lanes:backward": "left|none|none", "turn:lanes:both_ways": null, "lanes:forward": "2", "lanes:both_ways": null, "lanes:backward": "3", "surface": null, "turn:lanes": null, "sidewalk:right": null, "sidewalk:left": null, "oneway": null, "lanes": "5", "layer": null, "bridge": null, "old_ref": "US 71", "maxspeed": null, "tiger:zip_right": "64131", "tiger:zip_left": "64131", "tiger:reviewed": "no", "tiger:name_type": "Ave", "tiger:name_base": "Troost", "tiger:county": "Jackson, MO", "tiger:cfcc": "A41", "sidewalk:both": null, "highway": "secondary" }, "geometry": { "type": "LineString", "coordinates": [ [ -94.5750479, 39.0041756 ], [ -94.575062, 39.0038668 ], [ -94.5750776, 39.0035248 ], [ -94.5750842, 39.0033809 ], [ -94.5750951, 39.0031428 ] ] } },
{ "type": "Feature", "properties": { "full_id": "w1416296450", "osm_id": "1416296450", "osm_type": "way", "name": "Troost Avenue", "maxheight": null, "turn:lanes:forward": null, "turn:lanes:backward": "left|none|none", "turn:lanes:both_ways": null, "lanes:forward": "2", "lanes:both_ways": null, "lanes:backward": "3", "surface": null, "turn:lanes": null, "sidewalk:right": null, "sidewalk:left": null, "oneway": null, "lanes": "5", "layer": null, "bridge": null, "old_ref": "US 71 Alternate", "maxspeed": "35 mph", "tiger:zip_right": "64131", "tiger:zip_left": "64131", "tiger:reviewed": "no", "tiger:name_type": "Ave", "tiger:name_base": "Troost", "tiger:county": "Jackson, MO", "tiger:cfcc": "A41", "sidewalk:both": null, "highway": "secondary" }, "geometry": { "type": "LineString", "coordinates": [ [ -94.572832, 39.043547 ], [ -94.5728387, 39.0434495 ], [ -94.5728651, 39.0430665 ] ] } },
{ "type": "Feature", "properties": { "full_id": "w1416674973", "osm_id": "1416674973", "osm_type": "way", "name": "Troost Avenue", "maxheight": null, "turn:lanes:forward": "left|none", "turn:lanes:backward": null, "turn:lanes:both_ways": null, "lanes:forward": "2", "lanes:both_ways": null, "lanes:backward": "1", "surface": null, "turn:lanes": null, "sidewalk:right": null, "sidewalk:left": null, "oneway": null, "lanes": "3", "layer": null, "bridge": null, "old_ref": "US 71 Alternate", "maxspeed": "35 mph", "tiger:zip_right": "64131", "tiger:zip_left": "64131", "tiger:reviewed": "no", "tiger:name_type": "Ave", "tiger:name_base": "Troost", "tiger:county": "Jackson, MO", "tiger:cfcc": "A41", "sidewalk:both": null, "highway": "secondary" }, "geometry": { "type": "LineString", "coordinates": [ [ -94.5708807, 39.079819 ], [ -94.5708823, 39.0795413 ], [ -94.5708867, 39.0794688 ] ] } },
{ "type": "Feature", "properties": { "full_id": "w1416674975", "osm_id": "1416674975", "osm_type": "way", "name": "Troost Avenue", "maxheight": null, "turn:lanes:forward": null, "turn:lanes:backward": "left|none", "turn:lanes:both_ways": null, "lanes:forward": "1", "lanes:both_ways": null, "lanes:backward": "2", "surface": null, "turn:lanes": null, "sidewalk:right": null, "sidewalk:left": null, "oneway": null, "lanes": "3", "layer": null, "bridge": null, "old_ref": "US 71 Alternate", "maxspeed": "35 mph", "tiger:zip_right": "64131", "tiger:zip_left": "64131", "tiger:reviewed": "no", "tiger:name_type": "Ave", "tiger:name_base": "Troost", "tiger:county": "Jackson, MO", "tiger:cfcc": "A41", "sidewalk:both": null, "highway": "secondary" }, "geometry": { "type": "LineString", "coordinates": [ [ -94.5708867, 39.0794688 ], [ -94.5708902, 39.0793966 ], [ -94.5709051, 39.0790856 ] ] } },
{ "type": "Feature", "properties": { "full_id": "w1417587860", "osm_id": "1417587860", "osm_type": "way", "name": "Troost Avenue", "maxheight": null, "turn:lanes:forward": null, "turn:lanes:backward": null, "turn:lanes:both_ways": null, "lanes:forward": null, "lanes:both_ways": null, "lanes:backward": null, "surface": null, "turn:lanes": null, "sidewalk:right": null, "sidewalk:left": null, "oneway": null, "lanes": null, "layer": null, "bridge": null, "old_ref": "US 71 Alternate", "maxspeed": "35 mph", "tiger:zip_right": "64131", "tiger:zip_left": "64131", "tiger:reviewed": "no", "tiger:name_type": "Ave", "tiger:name_base": "Troost", "tiger:county": "Jackson, MO", "tiger:cfcc": "A41", "sidewalk:both": null, "highway": "secondary" }, "geometry": { "type": "LineString", "coordinates": [ [ -94.571141, 39.074119 ], [ -94.5711443, 39.0740493 ], [ -94.5711496, 39.0739371 ], [ -94.5711658, 39.0735964 ], [ -94.5712088, 39.0726872 ] ] } },
{ "type": "Feature", "properties": { "full_id": "w1417587861", "osm_id": "1417587861", "osm_type": "way", "name": "Troost Avenue", "maxheight": null, "turn:lanes:forward": "left|", "turn:lanes:backward": null, "turn:lanes:both_ways": null, "lanes:forward": "2", "lanes:both_ways": null, "lanes:backward": "1", "surface": null, "turn:lanes": null, "sidewalk:right": null, "sidewalk:left": null, "oneway": null, "lanes": "3", "layer": null, "bridge": null, "old_ref": "US 71 Alternate", "maxspeed": "35 mph", "tiger:zip_right": "64131", "tiger:zip_left": "64131", "tiger:reviewed": "no", "tiger:name_type": "Ave", "tiger:name_base": "Troost", "tiger:county": "Jackson, MO", "tiger:cfcc": "A41", "sidewalk:both": null, "highway": "secondary" }, "geometry": { "type": "LineString", "coordinates": [ [ -94.5712088, 39.0726872 ], [ -94.5712226, 39.0723965 ], [ -94.571227, 39.072303 ] ] } },
{ "type": "Feature", "properties": { "full_id": "w1420378482", "osm_id": "1420378482", "osm_type": "way", "name": "Troost Avenue", "maxheight": null, "turn:lanes:forward": null, "turn:lanes:backward": null, "turn:lanes:both_ways": null, "lanes:forward": null, "lanes:both_ways": null, "lanes:backward": null, "surface": null, "turn:lanes": null, "sidewalk:right": null, "sidewalk:left": null, "oneway": null, "lanes": null, "layer": null, "bridge": null, "old_ref": "US 71 Alternate", "maxspeed": "35 mph", "tiger:zip_right": "64131", "tiger:zip_left": "64131", "tiger:reviewed": "no", "tiger:name_type": "Ave", "tiger:name_base": "Troost", "tiger:county": "Jackson, MO", "tiger:cfcc": "A41", "sidewalk:both": null, "highway": "secondary" }, "geometry": { "type": "LineString", "coordinates": [ [ -94.5710661, 39.075739 ], [ -94.5710842, 39.0753474 ], [ -94.5711094, 39.0748013 ], [ -94.5711229, 39.074513 ] ] } },
{ "type": "Feature", "properties": { "full_id": "w1420378483", "osm_id": "1420378483", "osm_type": "way", "name": "Troost Avenue", "maxheight": null, "turn:lanes:forward": "left|none", "turn:lanes:backward": null, "turn:lanes:both_ways": null, "lanes:forward": "2", "lanes:both_ways": null, "lanes:backward": "1", "surface": null, "turn:lanes": null, "sidewalk:right": null, "sidewalk:left": null, "oneway": null, "lanes": "3", "layer": null, "bridge": null, "old_ref": "US 71 Alternate", "maxspeed": "35 mph", "tiger:zip_right": "64131", "tiger:zip_left": "64131", "tiger:reviewed": "no", "tiger:name_type": "Ave", "tiger:name_base": "Troost", "tiger:county": "Jackson, MO", "tiger:cfcc": "A41", "sidewalk:both": null, "highway": "secondary" }, "geometry": { "type": "LineString", "coordinates": [ [ -94.5710298, 39.0764982 ], [ -94.5710453, 39.0761829 ], [ -94.571049, 39.076108 ] ] } },
{ "type": "Feature", "properties": { "full_id": "w1420378484", "osm_id": "1420378484", "osm_type": "way", "name": "Troost Avenue", "maxheight": null, "turn:lanes:forward": null, "turn:lanes:backward": "left|none", "turn:lanes:both_ways": null, "lanes:forward": "1", "lanes:both_ways": null, "lanes:backward": "2", "surface": null, "turn:lanes": null, "sidewalk:right": null, "sidewalk:left": null, "oneway": null, "lanes": "3", "layer": null, "bridge": null, "old_ref": "US 71 Alternate", "maxspeed": "35 mph", "tiger:zip_right": "64131", "tiger:zip_left": "64131", "tiger:reviewed": "no", "tiger:name_type": "Ave", "tiger:name_base": "Troost", "tiger:county": "Jackson, MO", "tiger:cfcc": "A41", "sidewalk:both": null, "highway": "secondary" }, "geometry": { "type": "LineString", "coordinates": [ [ -94.571049, 39.076108 ], [ -94.5710518, 39.0760485 ], [ -94.5710661, 39.075739 ] ] } },
{ "type": "Feature", "properties": { "full_id": "w1423272226", "osm_id": "1423272226", "osm_type": "way", "name": "Troost Avenue", "maxheight": null, "turn:lanes:forward": "left|none", "turn:lanes:backward": null, "turn:lanes:both_ways": null, "lanes:forward": "2", "lanes:both_ways": null, "lanes:backward": "1", "surface": null, "turn:lanes": null, "sidewalk:right": null, "sidewalk:left": null, "oneway": null, "lanes": "3", "layer": null, "bridge": null, "old_ref": "US 71 Alternate", "maxspeed": "35 mph", "tiger:zip_right": "64131", "tiger:zip_left": "64131", "tiger:reviewed": "no", "tiger:name_type": "Ave", "tiger:name_base": "Troost", "tiger:county": "Jackson, MO", "tiger:cfcc": "A41", "sidewalk:both": null, "highway": "secondary" }, "geometry": { "type": "LineString", "coordinates": [ [ -94.5711229, 39.074513 ], [ -94.5711376, 39.0741922 ], [ -94.571141, 39.074119 ] ] } },
{ "type": "Feature", "properties": { "full_id": "w1454752320", "osm_id": "1454752320", "osm_type": "way", "name": "Troost Avenue", "maxheight": null, "turn:lanes:forward": null, "turn:lanes:backward": null, "turn:lanes:both_ways": null, "lanes:forward": null, "lanes:both_ways": null, "lanes:backward": null, "surface": null, "turn:lanes": null, "sidewalk:right": "separate", "sidewalk:left": "no", "oneway": "yes", "lanes": "2", "layer": null, "bridge": null, "old_ref": "US 71 Alternate", "maxspeed": null, "tiger:zip_right": null, "tiger:zip_left": null, "tiger:reviewed": null, "tiger:name_type": null, "tiger:name_base": null, "tiger:county": null, "tiger:cfcc": null, "sidewalk:both": null, "highway": "secondary" }, "geometry": { "type": "LineString", "coordinates": [ [ -94.5732879, 39.0375557 ], [ -94.5732891, 39.0374981 ], [ -94.5733125, 39.0364194 ], [ -94.5732824, 39.0363203 ], [ -94.573262, 39.036253 ] ] } },
{ "type": "Feature", "properties": { "full_id": "w1454752321", "osm_id": "1454752321", "osm_type": "way", "name": "Troost Avenue", "maxheight": null, "turn:lanes:forward": null, "turn:lanes:backward": null, "turn:lanes:both_ways": null, "lanes:forward": null, "lanes:both_ways": null, "lanes:backward": null, "surface": null, "turn:lanes": "left||", "sidewalk:right": null, "sidewalk:left": null, "oneway": "yes", "lanes": "3", "layer": null, "bridge": null, "old_ref": "US 71 Alternate", "maxspeed": null, "tiger:zip_right": null, "tiger:zip_left": null, "tiger:reviewed": null, "tiger:name_type": null, "tiger:name_base": null, "tiger:county": null, "tiger:cfcc": null, "sidewalk:both": null, "highway": "secondary" }, "geometry": { "type": "LineString", "coordinates": [ [ -94.5731392, 39.0377232 ], [ -94.5731311, 39.0378204 ] ] } },
{ "type": "Feature", "properties": { "full_id": "w1454752322", "osm_id": "1454752322", "osm_type": "way", "name": "Troost Avenue", "maxheight": null, "turn:lanes:forward": null, "turn:lanes:backward": null, "turn:lanes:both_ways": null, "lanes:forward": null, "lanes:both_ways": null, "lanes:backward": null, "surface": null, "turn:lanes": "left||", "sidewalk:right": null, "sidewalk:left": null, "oneway": "yes", "lanes": "3", "layer": null, "bridge": null, "old_ref": "US 71 Alternate", "maxspeed": null, "tiger:zip_right": null, "tiger:zip_left": null, "tiger:reviewed": null, "tiger:name_type": null, "tiger:name_base": null, "tiger:county": null, "tiger:cfcc": null, "sidewalk:both": null, "highway": "secondary" }, "geometry": { "type": "LineString", "coordinates": [ [ -94.5732727, 39.0377946 ], [ -94.573278, 39.0377029 ] ] } },
{ "type": "Feature", "properties": { "full_id": "w1454752324", "osm_id": "1454752324", "osm_type": "way", "name": "Troost Avenue", "maxheight": null, "turn:lanes:forward": null, "turn:lanes:backward": null, "turn:lanes:both_ways": null, "lanes:forward": null, "lanes:both_ways": null, "lanes:backward": null, "surface": null, "turn:lanes": "left||", "sidewalk:right": null, "sidewalk:left": null, "oneway": "yes", "lanes": "3", "layer": null, "bridge": null, "old_ref": "US 71 Alternate", "maxspeed": null, "tiger:zip_right": null, "tiger:zip_left": null, "tiger:reviewed": null, "tiger:name_type": null, "tiger:name_base": null, "tiger:county": null, "tiger:cfcc": null, "sidewalk:both": null, "highway": "secondary" }, "geometry": { "type": "LineString", "coordinates": [ [ -94.5731548, 39.0375641 ], [ -94.5731392, 39.0377232 ] ] } },
{ "type": "Feature", "properties": { "full_id": "w1455967342", "osm_id": "1455967342", "osm_type": "way", "name": "Troost Avenue", "maxheight": null, "turn:lanes:forward": null, "turn:lanes:backward": null, "turn:lanes:both_ways": null, "lanes:forward": null, "lanes:both_ways": null, "lanes:backward": null, "surface": null, "turn:lanes": null, "sidewalk:right": null, "sidewalk:left": null, "oneway": null, "lanes": null, "layer": null, "bridge": null, "old_ref": "US 71 Alternate", "maxspeed": "35 mph", "tiger:zip_right": "64131", "tiger:zip_left": "64131", "tiger:reviewed": "no", "tiger:name_type": "Ave", "tiger:name_base": "Troost", "tiger:county": "Jackson, MO", "tiger:cfcc": "A41", "sidewalk:both": null, "highway": "secondary" }, "geometry": { "type": "LineString", "coordinates": [ [ -94.5705801, 39.0851771 ], [ -94.570583, 39.084957 ], [ -94.570609, 39.0844612 ], [ -94.5706293, 39.0840881 ] ] } },
{ "type": "Feature", "properties": { "full_id": "w1455967343", "osm_id": "1455967343", "osm_type": "way", "name": "Troost Avenue", "maxheight": null, "turn:lanes:forward": "left|none", "turn:lanes:backward": null, "turn:lanes:both_ways": null, "lanes:forward": "2", "lanes:both_ways": null, "lanes:backward": "1", "surface": null, "turn:lanes": null, "sidewalk:right": null, "sidewalk:left": null, "oneway": null, "lanes": "3", "layer": null, "bridge": null, "old_ref": "US 71 Alternate", "maxspeed": "35 mph", "tiger:zip_right": "64131", "tiger:zip_left": "64131", "tiger:reviewed": "no", "tiger:name_type": "Ave", "tiger:name_base": "Troost", "tiger:county": "Jackson, MO", "tiger:cfcc": "A41", "sidewalk:both": null, "highway": "secondary" }, "geometry": { "type": "LineString", "coordinates": [ [ -94.5706293, 39.0840881 ], [ -94.5706454, 39.0837655 ], [ -94.57065, 39.083677 ] ] } },
{ "type": "Feature", "properties": { "full_id": "w1455970174", "osm_id": "1455970174", "osm_type": "way", "name": "Troost Avenue", "maxheight": null, "turn:lanes:forward": null, "turn:lanes:backward": null, "turn:lanes:both_ways": null, "lanes:forward": null, "lanes:both_ways": null, "lanes:backward": null, "surface": null, "turn:lanes": null, "sidewalk:right": null, "sidewalk:left": null, "oneway": null, "lanes": null, "layer": null, "bridge": null, "old_ref": "US 71", "maxspeed": null, "tiger:zip_right": "64131", "tiger:zip_left": "64131", "tiger:reviewed": "no", "tiger:name_type": "Ave", "tiger:name_base": "Troost", "tiger:county": "Jackson, MO", "tiger:cfcc": "A41", "sidewalk:both": null, "highway": "secondary" }, "geometry": { "type": "LineString", "coordinates": [ [ -94.5750951, 39.0031428 ], [ -94.5751226, 39.0025395 ], [ -94.5751271, 39.0024421 ], [ -94.5751315, 39.002365 ], [ -94.5751383, 39.0022209 ], [ -94.5751392, 39.002202 ], [ -94.575214, 39.000608 ], [ -94.5752518, 38.9998583 ], [ -94.575259, 38.999716 ], [ -94.5752876, 38.9991451 ], [ -94.575305, 38.998797 ] ] } },
{ "type": "Feature", "properties": { "full_id": "w1455970175", "osm_id": "1455970175", "osm_type": "way", "name": "Troost Avenue", "maxheight": null, "turn:lanes:forward": null, "turn:lanes:backward": "left|none|none", "turn:lanes:both_ways": null, "lanes:forward": "2", "lanes:both_ways": null, "lanes:backward": "3", "surface": null, "turn:lanes": null, "sidewalk:right": null, "sidewalk:left": null, "oneway": null, "lanes": "5", "layer": null, "bridge": null, "old_ref": "US 71", "maxspeed": null, "tiger:zip_right": "64131", "tiger:zip_left": "64131", "tiger:reviewed": "no", "tiger:name_type": "Ave", "tiger:name_base": "Troost", "tiger:county": "Jackson, MO", "tiger:cfcc": "A41", "sidewalk:both": null, "highway": "secondary" }, "geometry": { "type": "LineString", "coordinates": [ [ -94.575305, 38.998797 ], [ -94.5753105, 38.9986903 ], [ -94.5753167, 38.9985682 ], [ -94.575322, 38.9984459 ] ] } },
{ "type": "Feature", "properties": { "full_id": "w1479229811", "osm_id": "1479229811", "osm_type": "way", "name": "Troost Avenue", "maxheight": null, "turn:lanes:forward": null, "turn:lanes:backward": null, "turn:lanes:both_ways": null, "lanes:forward": null, "lanes:both_ways": null, "lanes:backward": null, "surface": null, "turn:lanes": null, "sidewalk:right": null, "sidewalk:left": null, "oneway": null, "lanes": null, "layer": null, "bridge": null, "old_ref": "US 71 Alternate", "maxspeed": "35 mph", "tiger:zip_right": "64131", "tiger:zip_left": "64131", "tiger:reviewed": "no", "tiger:name_type": "Ave", "tiger:name_base": "Troost", "tiger:county": "Jackson, MO", "tiger:cfcc": "A41", "sidewalk:both": null, "highway": "secondary" }, "geometry": { "type": "LineString", "coordinates": [ [ -94.570989, 39.0773419 ], [ -94.570997, 39.077173 ], [ -94.571014, 39.076825 ], [ -94.5710164, 39.076771 ], [ -94.5710298, 39.0764982 ] ] } },
{ "type": "Feature", "properties": { "full_id": "w1506592038", "osm_id": "1506592038", "osm_type": "way", "name": "Troost Avenue", "maxheight": null, "turn:lanes:forward": null, "turn:lanes:backward": null, "turn:lanes:both_ways": null, "lanes:forward": null, "lanes:both_ways": null, "lanes:backward": null, "surface": null, "turn:lanes": null, "sidewalk:right": null, "sidewalk:left": null, "oneway": null, "lanes": "2", "layer": null, "bridge": null, "old_ref": null, "maxspeed": "25 mph", "tiger:zip_right": null, "tiger:zip_left": null, "tiger:reviewed": null, "tiger:name_type": null, "tiger:name_base": null, "tiger:county": null, "tiger:cfcc": null, "sidewalk:both": "separate", "highway": "residential" }, "geometry": { "type": "LineString", "coordinates": [ [ -94.5699496, 39.1098979 ], [ -94.569944, 39.1099555 ], [ -94.5698989, 39.11085 ], [ -94.5698956, 39.1109059 ] ] } },
{ "type": "Feature", "properties": { "full_id": "w1513455590", "osm_id": "1513455590", "osm_type": "way", "name": "Troost Avenue", "maxheight": null, "turn:lanes:forward": null, "turn:lanes:backward": "left|none", "turn:lanes:both_ways": null, "lanes:forward": "1", "lanes:both_ways": null, "lanes:backward": "2", "surface": null, "turn:lanes": null, "sidewalk:right": null, "sidewalk:left": null, "oneway": null, "lanes": "3", "layer": null, "bridge": null, "old_ref": "US 71 Alternate", "maxspeed": "35 mph", "tiger:zip_right": "64131", "tiger:zip_left": "64131", "tiger:reviewed": "no", "tiger:name_type": "Ave", "tiger:name_base": "Troost", "tiger:county": "Jackson, MO", "tiger:cfcc": "A41", "sidewalk:both": null, "highway": "secondary" }, "geometry": { "type": "LineString", "coordinates": [ [ -94.57097, 39.077726 ], [ -94.5709722, 39.0776889 ], [ -94.5709741, 39.0776569 ], [ -94.570989, 39.0773419 ] ] } },
{ "type": "Feature", "properties": { "full_id": "w1522451750", "osm_id": "1522451750", "osm_type": "way", "name": "Troost Avenue", "maxheight": null, "turn:lanes:forward": null, "turn:lanes:backward": null, "turn:lanes:both_ways": null, "lanes:forward": null, "lanes:both_ways": null, "lanes:backward": null, "surface": null, "turn:lanes": null, "sidewalk:right": null, "sidewalk:left": null, "oneway": null, "lanes": null, "layer": null, "bridge": null, "old_ref": null, "maxspeed": null, "tiger:zip_right": "64131", "tiger:zip_left": "64131", "tiger:reviewed": "no", "tiger:name_type": "Ave", "tiger:name_base": "Troost", "tiger:county": "Jackson, MO", "tiger:cfcc": "A41", "sidewalk:both": "separate", "highway": "tertiary" }, "geometry": { "type": "LineString", "coordinates": [ [ -94.5700591, 39.0959606 ], [ -94.570084, 39.0954946 ], [ -94.5700909, 39.0953652 ] ] } },
{ "type": "Feature", "properties": { "full_id": "w1522451751", "osm_id": "1522451751", "osm_type": "way", "name": "Troost Avenue", "maxheight": "13'5\"", "turn:lanes:forward": null, "turn:lanes:backward": null, "turn:lanes:both_ways": null, "lanes:forward": null, "lanes:both_ways": null, "lanes:backward": null, "surface": null, "turn:lanes": null, "sidewalk:right": null, "sidewalk:left": null, "oneway": null, "lanes": null, "layer": null, "bridge": null, "old_ref": null, "maxspeed": null, "tiger:zip_right": "64131", "tiger:zip_left": "64131", "tiger:reviewed": "no", "tiger:name_type": "Ave", "tiger:name_base": "Troost", "tiger:county": "Jackson, MO", "tiger:cfcc": "A41", "sidewalk:both": "separate", "highway": "tertiary" }, "geometry": { "type": "LineString", "coordinates": [ [ -94.5699839, 39.0972186 ], [ -94.5699541, 39.0966994 ], [ -94.5699856, 39.0962624 ], [ -94.5700591, 39.0959606 ] ] } }
]
}
