{
"type": "FeatureCollection",
"name": "us71",
"crs": { "type": "name", "properties": { "name": "urn:ogc:def:crs:OGC:1.3:CRS84" } },
"features": [
{ "type": "Feature", "properties": { "full_id": "w37517627", "osm_id": "37517627", "osm_type": "way", "ref": "US 71", "destination": null, "maxheight": null, "placement": null, "maxspeed:advisory": null, "noname": null, "maxspeed:type": null, "junction:ref": null, "shoulder": null, "expressway": null, "destination:ref": null, "destination:lanes": null, "turn:lanes": null, "layer": null, "bridge": null, "surface": "concrete", "source:hgv": "https://www.modot.org/sites/default/files/documents/KC_Com-Zone.pdf", "oneway": "yes", "name": "Bruce R. Watkins Drive", "maxspeed": "55 mph", "lanes": "4", "highway": "motorway", "hgv": "designated", "NHS": "yes" }, "geometry": { "type": "LineString", "coordinates": [ [ -94.5711682, 39.0888513 ], [ -94.5713176, 39.0897821 ], [ -94.571333, 39.0898779 ] ] } },
{ "type": "Feature", "properties": { "full_id": "w37530765", "osm_id": "37530765", "osm_type": "way", "ref": "US 71", "destination": null, "maxheight": null, "placement": null, "maxspeed:advisory": null, "noname": null, "maxspeed:type": null, "junction:ref": null, "shoulder": null, "expressway": null, "destination:ref": null, "destination:lanes": null, "turn:lanes": null, "layer": "1", "bridge": "yes", "surface": "concrete", "source:hgv": "https://www.modot.org/sites/default/files/documents/KC_Com-Zone.pdf", "oneway": "yes", "name": "Bruce R. Watkins Drive", "maxspeed": "55 mph", "lanes": "3", "highway": "motorway", "hgv": "designated", "NHS": "yes" }, "geometry": { "type": "LineString", "coordinates": [ [ -94.5548658, 39.0368303 ], [ -94.5546301, 39.0365802 ], [ -94.5544433, 39.0363481 ] ] } },
{ "type": "Feature", "properties": { "full_id": "w37535911", "osm_id": "37535911", "osm_type": "way", "ref": "US 71", "destination": null, "maxheight": null, "placement": null, "maxspeed:advisory": null, "noname": null, "maxspeed:type": null, "junction:ref": null, "shoulder": null, "expressway": null, "destination:ref": null, "destination:lanes": null, "turn:lanes": null, "layer": null, "bridge": null, "surface": "concrete", "source:hgv": null, "oneway": "yes", "name": null, "maxspeed": "45 mph", "lanes": "1", "highway": "motorway", "hgv": null, "NHS": null }, "geometry": { "type": "LineString", "coordinates": [ [ -94.5715779, 39.0980823 ], [ -94.5716407, 39.0983013 ], [ -94.5717449, 39.0986176 ], [ -94.5719118, 39.0990211 ] ] } },
{ "type": "Feature", "properties": { "full_id": "w37535933", "osm_id": "37535933", "osm_type": "way", "ref": "US 71", "destination": null, "maxheight": null, "placement": null, "maxspeed:advisory": null, "noname": null, "maxspeed:type": null, "junction:ref": null, "shoulder": null, "expressway": null, "destination:ref": null, "destination:lanes": null, "turn:lanes": "|slight_right", "layer": "1", "bridge": "yes", "surface": "concrete", "source:hgv": null, "oneway": "yes", "name": null, "maxspeed": "45 mph", "lanes": "2", "highway": "motorway", "hgv": null, "NHS": null }, "geometry": { "type": "LineString", "coordinates": [ [ -94.571638, 39.0951083 ], [ -94.5714793, 39.0959273 ], [ -94.5713929, 39.0964363 ] ] } },
{ "type": "Feature", "properties": { "full_id": "w37538228", "osm_id": "37538228", "osm_type": "way", "ref": "US 71", "destination": null, "maxheight": null, "placement": null, "maxspeed:advisory": null, "noname": null, "maxspeed:type": null, "junction:ref": null, "shoulder": null, "expressway": null, "destination:ref": null, "destination:lanes": null, "turn:lanes": null, "layer": null, "bridge": null, "surface": "asphalt", "source:hgv": null, "oneway": "yes", "name": null, "maxspeed": "45 mph", "lanes": "2", "highway": "motorway", "hgv": null, "NHS": null }, "geometry": { "type": "LineString", "coordinates": [ [ -94.5722777, 39.0998377 ], [ -94.5723813, 39.100145 ], [ -94.5724082, 39.1002972 ], [ -94.5724979, 39.1004678 ] ] } },
{ "type": "Feature", "properties": { "full_id": "w38428878", "osm_id": "38428878", "osm_type": "way", "ref": "US 71", "destination": null, "maxheight": null, "placement": null, "maxspeed:advisory": null, "noname": null, "maxspeed:type": null, "junction:ref": null, "shoulder": null, "expressway": null, "destination:ref": null, "destination:lanes": null, "turn:lanes": null, "layer": "1", "bridge": "yes", "surface": "concrete", "source:hgv": "https://www.modot.org/sites/default/files/documents/KC_Com-Zone.pdf", "oneway": "yes", "name": "Bruce R. Watkins Drive", "maxspeed": "55 mph", "lanes": "4", "highway": "motorway", "hgv": "designated", "NHS": "yes" }, "geometry": { "type": "LineString", "coordinates": [ [ -94.571333, 39.0898779 ], [ -94.5713999, 39.0902501 ] ] } },
{ "type": "Feature", "properties": { "full_id": "w38428879", "osm_id": "38428879", "osm_type": "way", "ref": "US 71", "destination": null, "maxheight": null, "placement": null, "maxspeed:advisory": null, "noname": null, "maxspeed:type": null, "junction:ref": null, "shoulder": null, "expressway": null, "destination:ref": null, "destination:lanes": null, "turn:lanes": null, "layer": null, "bridge": null, "surface": "concrete", "source:hgv": "https://www.modot.org/sites/default/files/documents/KC_Com-Zone.pdf", "oneway": "yes", "name": "Bruce R. Watkins Drive", "maxspeed": "45 mph", "lanes": "4", "highway": "motorway", "hgv": "designated", "NHS": "yes" }, "geometry": { "type": "LineString", "coordinates": [ [ -94.5713999, 39.0902501 ], [ -94.5715624, 39.0911995 ] ] } },
{ "type": "Feature", "properties": { "full_id": "w38428884", "osm_id": "38428884", "osm_type": "way", "ref": "US 71", "destination": null, "maxheight": null, "placement": null, "maxspeed:advisory": null, "noname": null, "maxspeed:type": null, "junction:ref": null, "shoulder": null, "expressway": null, "destination:ref": null, "destination:lanes": null, "turn:lanes": null, "layer": "1", "bridge": "yes", "surface": "concrete", "source:hgv": "https://www.modot.org/sites/default/files/documents/KC_Com-Zone.pdf", "oneway": "yes", "name": "Bruce R. Watkins Drive", "maxspeed": "45 mph", "lanes": "4", "highway": "motorway", "hgv": "designated", "NHS": "yes" }, "geometry": { "type": "LineString", "coordinates": [ [ -94.5715624, 39.0911995 ], [ -94.5716477, 39.0917131 ] ] } },
{ "type": "Feature", "properties": { "full_id": "w38428885", "osm_id": "38428885", "osm_type": "way", "ref": "US 71", "destination": null, "maxheight": null, "placement": null, "maxspeed:advisory": null, "noname": null, "maxspeed:type": null, "junction:ref": null, "shoulder": null, "expressway": null, "destination:ref": null, "destination:lanes": "Kansas||11th Street;Downtown|Truman Road", "turn:lanes": "|||slight_right", "layer": null, "bridge": null, "surface": "concrete", "source:hgv": "https://www.modot.org/sites/default/files/documents/KC_Com-Zone.pdf", "oneway": "yes", "name": "Bruce R. Watkins Drive", "maxspeed": "45 mph", "lanes": "4", "highway": "motorway", "hgv": "designated", "NHS": "yes" }, "geometry": { "type": "LineString", "coordinates": [ [ -94.5716477, 39.0917131 ], [ -94.5717943, 39.092464 ], [ -94.5718225, 39.0927145 ] ] } },
{ "type": "Feature", "properties": { "full_id": "w118575748", "osm_id": "118575748", "osm_type": "way", "ref": "US 71", "destination": null, "maxheight": null, "placement": null, "maxspeed:advisory": null, "noname": null, "maxspeed:type": null, "junction:ref": null, "shoulder": null, "expressway": null, "destination:ref": "I 29 North;I 35 North;US 71 North;I 70 West;US 24 West;US 40 West", "destination:lanes": null, "turn:lanes": null, "layer": "1", "bridge": "yes", "surface": "concrete", "source:hgv": null, "oneway": "yes", "name": null, "maxspeed": "45 mph", "lanes": "1", "highway": "motorway", "hgv": null, "NHS": null }, "geometry": { "type": "LineString", "coordinates": [ [ -94.5713929, 39.0964363 ], [ -94.5714117, 39.0965574 ], [ -94.5714149, 39.0969511 ], [ -94.5714327, 39.097285 ], [ -94.5714762, 39.0976017 ], [ -94.5715779, 39.0980823 ] ] } },
{ "type": "Feature", "properties": { "full_id": "w118575863", "osm_id": "118575863", "osm_type": "way", "ref": "US 71", "destination": null, "maxheight": null, "placement": null, "maxspeed:advisory": null, "noname": null, "maxspeed:type": null, "junction:ref": null, "shoulder": null, "expressway": null, "destination:ref": null, "destination:lanes": null, "turn:lanes": null, "layer": null, "bridge": null, "surface": null, "source:hgv": "https://www.modot.org/sites/default/files/documents/KC_Com-Zone.pdf", "oneway": "yes", "name": null, "maxspeed": "45 mph", "lanes": "2", "highway": "motorway", "hgv": "designated", "NHS": null }, "geometry": { "type": "LineString", "coordinates": [ [ -94.5717703, 39.0945929 ], [ -94.571638, 39.0951083 ] ] } },
{ "type": "Feature", "properties": { "full_id": "w505948284", "osm_id": "505948284", "osm_type": "way", "ref": "US 71", "destination": null, "maxheight": null, "placement": null, "maxspeed:advisory": null, "noname": null, "maxspeed:type": null, "junction:ref": null, "shoulder": null, "expressway": "yes", "destination:ref": null, "destination:lanes": null, "turn:lanes": null, "layer": null, "bridge": null, "surface": "asphalt", "source:hgv": "https://www.modot.org/sites/default/files/documents/KC_Com-Zone.pdf", "oneway": "yes", "name": "Bruce R. Watkins Drive", "maxspeed": "45 mph", "lanes": "2", "highway": "trunk", "hgv": "designated", "NHS": null }, "geometry": { "type": "LineString", "coordinates": [ [ -94.5545634, 39.0040119 ], [ -94.5546386, 39.0045361 ], [ -94.5547754, 39.0062994 ], [ -94.5547566, 39.0066704 ], [ -94.5543865, 39.0136858 ], [ -94.5543436, 39.0139984 ], [ -94.5542899, 39.0143235 ], [ -94.5541478, 39.0150446 ], [ -94.5540324, 39.0158573 ], [ -94.5539778, 39.0160855 ] ] } },
{ "type": "Feature", "properties": { "full_id": "w505948287", "osm_id": "505948287", "osm_type": "way", "ref": "US 71", "destination": null, "maxheight": null, "placement": null, "maxspeed:advisory": null, "noname": null, "maxspeed:type": null, "junction:ref": null, "shoulder": null, "expressway": "yes", "destination:ref": null, "destination:lanes": null, "turn:lanes": null, "layer": null, "bridge": null, "surface": "asphalt", "source:hgv": "https://www.modot.org/sites/default/files/documents/KC_Com-Zone.pdf", "oneway": "yes", "name": "Bruce R. Watkins Drive", "maxspeed": "45 mph", "lanes": "3", "highway": "trunk", "hgv": "designated", "NHS": null }, "geometry": { "type": "LineString", "coordinates": [ [ -94.5535995, 39.022859 ], [ -94.5534765, 39.0248775 ], [ -94.553294, 39.0263739 ], [ -94.553283, 39.0264638 ], [ -94.5532684, 39.0265811 ], [ -94.5531313, 39.0276829 ], [ -94.5529826, 39.030081 ] ] } },
{ "type": "Feature", "properties": { "full_id": "w505948290", "osm_id": "505948290", "osm_type": "way", "ref": "US 71", "destination": null, "maxheight": null, "placement": null, "maxspeed:advisory": null, "noname": null, "maxspeed:type": null, "junction:ref": null, "shoulder": null, "expressway": null, "destination:ref": null, "destination:lanes": null, "turn:lanes": null, "layer": null, "bridge": null, "surface": "asphalt", "source:hgv": "https://www.modot.org/sites/default/files/documents/KC_Com-Zone.pdf", "oneway": "yes", "name": "Bruce R. Watkins Drive", "maxspeed": "55 mph", "lanes": "3", "highway": "motorway", "hgv": "designated", "NHS": null }, "geometry": { "type": "LineString", "coordinates": [ [ -94.5530951, 39.0331397 ], [ -94.553208, 39.0342779 ], [ -94.5533294, 39.0348023 ], [ -94.5536182, 39.0356223 ], [ -94.5540205, 39.036289 ], [ -94.5542243, 39.036564 ], [ -94.5544173, 39.0367572 ] ] } },
{ "type": "Feature", "properties": { "full_id": "w505948292", "osm_id": "505948292", "osm_type": "way", "ref": "US 71", "destination": null, "maxheight": null, "placement": null, "maxspeed:advisory": null, "noname": null, "maxspeed:type": null, "junction:ref": null, "shoulder": null, "expressway": null, "destination:ref": null, "destination:lanes": null, "turn:lanes": null, "layer": null, "bridge": null, "surface": null, "source:hgv": "https://www.modot.org/sites/default/files/documents/KC_Com-Zone.pdf", "oneway": "yes", "name": "Bruce R. Watkins Drive", "maxspeed": "55 mph", "lanes": "3", "highway": "motorway", "hgv": "designated", "NHS": null }, "geometry": { "type": "LineString", "coordinates": [ [ -94.5544433, 39.0363481 ], [ -94.5540041, 39.0357094 ], [ -94.5537064, 39.0350016 ], [ -94.553535, 39.034427 ], [ -94.5534476, 39.0336103 ], [ -94.5534792, 39.0332634 ], [ -94.5535255, 39.0329102 ] ] } },
{ "type": "Feature", "properties": { "full_id": "w505948295", "osm_id": "505948295", "osm_type": "way", "ref": "US 71", "destination": null, "maxheight": null, "placement": null, "maxspeed:advisory": null, "noname": null, "maxspeed:type": null, "junction:ref": null, "shoulder": "both", "expressway": "yes", "destination:ref": null, "destination:lanes": null, "turn:lanes": null, "layer": null, "bridge": null, "surface": null, "source:hgv": "https://www.modot.org/sites/default/files/documents/KC_Com-Zone.pdf", "oneway": "yes", "name": "Bruce R. Watkins Drive", "maxspeed": "45 mph", "lanes": "3", "highway": "trunk", "hgv": "designated", "NHS": null }, "geometry": { "type": "LineString", "coordinates": [ [ -94.5540257, 39.0301151 ], [ -94.5540358, 39.0299445 ], [ -94.5542701, 39.0266079 ], [ -94.5542778, 39.0264989 ], [ -94.554285, 39.0264025 ], [ -94.5545305, 39.0232194 ] ] } },
{ "type": "Feature", "properties": { "full_id": "w505948297", "osm_id": "505948297", "osm_type": "way", "ref": "US 71", "destination": null, "maxheight": null, "placement": null, "maxspeed:advisory": null, "noname": null, "maxspeed:type": null, "junction:ref": null, "shoulder": null, "expressway": "yes", "destination:ref": null, "destination:lanes": null, "turn:lanes": null, "layer": null, "bridge": null, "surface": null, "source:hgv": "https://www.modot.org/sites/default/files/documents/KC_Com-Zone.pdf", "oneway": "yes", "name": "Bruce R. Watkins Drive", "maxspeed": "45 mph", "lanes": "2", "highway": "trunk", "hgv": "designated", "NHS": null }, "geometry": { "type": "LineString", "coordinates": [ [ -94.5549024, 39.0164434 ], [ -94.5548319, 39.0159986 ], [ -94.554665, 39.0149191 ], [ -94.554638, 39.0146246 ], [ -94.5546109, 39.014162 ], [ -94.555053, 39.0061142 ], [ -94.5551342, 39.0056129 ], [ -94.5553146, 39.0046034 ], [ -94.5554087, 39.0040301 ], [ -94.5555058, 39.0036587 ] ] } },
{ "type": "Feature", "properties": { "full_id": "w505950401", "osm_id": "505950401", "osm_type": "way", "ref": "US 71", "destination": null, "maxheight": null, "placement": null, "maxspeed:advisory": null, "noname": null, "maxspeed:type": null, "junction:ref": null, "shoulder": null, "expressway": null, "destination:ref": null, "destination:lanes": null, "turn:lanes": null, "layer": "1", "bridge": "yes", "surface": "concrete", "source:hgv": "https://www.modot.org/sites/default/files/documents/KC_Com-Zone.pdf", "oneway": "yes", "name": "Bruce R. Watkins Drive", "maxspeed": "55 mph", "lanes": "4", "highway": "motorway", "hgv": "designated", "NHS": null }, "geometry": { "type": "LineString", "coordinates": [ [ -94.5544173, 39.0367572 ], [ -94.554876, 39.0371895 ] ] } },
{ "type": "Feature", "properties": { "full_id": "w505950402", "osm_id": "505950402", "osm_type": "way", "ref": "US 71", "destination": null, "maxheight": null, "placement": null, "maxspeed:advisory": null, "noname": null, "maxspeed:type": null, "junction:ref": null, "shoulder": null, "expressway": null, "destination:ref": null, "destination:lanes": null, "turn:lanes": "|||slight_right", "layer": null, "bridge": null, "surface": "asphalt", "source:hgv": "https://www.modot.org/sites/default/files/documents/KC_Com-Zone.pdf", "oneway": "yes", "name": "Bruce R. Watkins Drive", "maxspeed": "55 mph", "lanes": "4", "highway": "motorway", "hgv": "designated", "NHS": null }, "geometry": { "type": "LineString", "coordinates": [ [ -94.554876, 39.0371895 ], [ -94.5553387, 39.0375965 ] ] } },
{ "type": "Feature", "properties": { "full_id": "w505950403", "osm_id": "505950403", "osm_type": "way", "ref": "US 71", "destination": null, "maxheight": null, "placement": null, "maxspeed:advisory": null, "noname": null, "maxspeed:type": null, "junction:ref": null, "shoulder": null, "expressway": null, "destination:ref": null, "destination:lanes": null, "turn:lanes": null, "layer": null, "bridge": null, "surface": "asphalt", "source:hgv": "https://www.modot.org/sites/default/files/documents/KC_Com-Zone.pdf", "oneway": "yes", "name": "Bruce R. Watkins Drive", "maxspeed": "55 mph", "lanes": "3", "highway": "motorway", "hgv": "designated", "NHS": null }, "geometry": { "type": "LineString", "coordinates": [ [ -94.5553387, 39.0375965 ], [ -94.5574846, 39.0390903 ], [ -94.5577461, 39.0393034 ], [ -94.558081, 39.0396031 ], [ -94.5584255, 39.0399723 ], [ -94.5586818, 39.0403507 ] ] } },
{ "type": "Feature", "properties": { "full_id": "w505950406", "osm_id": "505950406", "osm_type": "way", "ref": "US 71", "destination": null, "maxheight": null, "placement": null, "maxspeed:advisory": null, "noname": null, "maxspeed:type": null, "junction:ref": null, "shoulder": null, "expressway": null, "destination:ref": null, "destination:lanes": null, "turn:lanes": null, "layer": "1", "bridge": "yes", "surface": "concrete", "source:hgv": "https://www.modot.org/sites/default/files/documents/KC_Com-Zone.pdf", "oneway": "yes", "name": "Bruce R. Watkins Drive", "maxspeed": "55 mph", "lanes": "3", "highway": "motorway", "hgv": "designated", "NHS": null }, "geometry": { "type": "LineString", "coordinates": [ [ -94.5586818, 39.0403507 ], [ -94.5590883, 39.0410594 ], [ -94.5601141, 39.0432756 ] ] } },
{ "type": "Feature", "properties": { "full_id": "w505951920", "osm_id": "505951920", "osm_type": "way", "ref": "US 71", "destination": null, "maxheight": null, "placement": null, "maxspeed:advisory": null, "noname": null, "maxspeed:type": null, "junction:ref": null, "shoulder": null, "expressway": null, "destination:ref": null, "destination:lanes": null, "turn:lanes": null, "layer": null, "bridge": null, "surface": "concrete", "source:hgv": "https://www.modot.org/sites/default/files/documents/KC_Com-Zone.pdf", "oneway": "yes", "name": "Bruce R. Watkins Drive", "maxspeed": "55 mph", "lanes": "3", "highway": "motorway", "hgv": "designated", "NHS": null }, "geometry": { "type": "LineString", "coordinates": [ [ -94.5601141, 39.0432756 ], [ -94.5611743, 39.0457134 ], [ -94.5613434, 39.0461965 ], [ -94.5615124, 39.0468604 ], [ -94.5616081, 39.047611 ], [ -94.5616044, 39.0482179 ], [ -94.5615631, 39.0488914 ] ] } },
{ "type": "Feature", "properties": { "full_id": "w505951921", "osm_id": "505951921", "osm_type": "way", "ref": "US 71", "destination": null, "maxheight": null, "placement": null, "maxspeed:advisory": null, "noname": null, "maxspeed:type": null, "junction:ref": null, "shoulder": null, "expressway": null, "destination:ref": null, "destination:lanes": null, "turn:lanes": "|||slight_right", "layer": null, "bridge": null, "surface": "concrete", "source:hgv": "https://www.modot.org/sites/default/files/documents/KC_Com-Zone.pdf", "oneway": "yes", "name": "Bruce R. Watkins Drive", "maxspeed": "55 mph", "lanes": "4", "highway": "motorway", "hgv": "designated", "NHS": null }, "geometry": { "type": "LineString", "coordinates": [ [ -94.5615631, 39.0488914 ], [ -94.5615059, 39.0501328 ] ] } },
{ "type": "Feature", "properties": { "full_id": "w505951922", "osm_id": "505951922", "osm_type": "way", "ref": "US 71", "destination": null, "maxheight": null, "placement": null, "maxspeed:advisory": null, "noname": null, "maxspeed:type": null, "junction:ref": null, "shoulder": null, "expressway": null, "destination:ref": null, "destination:lanes": null, "turn:lanes": null, "layer": null, "bridge": null, "surface": "concrete", "source:hgv": "https://www.modot.org/sites/default/files/documents/KC_Com-Zone.pdf", "oneway": "yes", "name": "Bruce R. Watkins Drive", "maxspeed": "55 mph", "lanes": "3", "highway": "motorway", "hgv": "designated", "NHS": null }, "geometry": { "type": "LineString", "coordinates": [ [ -94.5615059, 39.0501328 ], [ -94.5612222, 39.0553889 ], [ -94.5607788, 39.0597284 ] ] } },
{ "type": "Feature", "properties": { "full_id": "w505951923", "osm_id": "505951923", "osm_type": "way", "ref": "US 71", "destination": null, "maxheight": null, "placement": null, "maxspeed:advisory": null, "noname": null, "maxspeed:type": null, "junction:ref": null, "shoulder": null, "expressway": null, "destination:ref": null, "destination:lanes": null, "turn:lanes": "|||slight_right", "layer": null, "bridge": null, "surface": "concrete", "source:hgv": "https://www.modot.org/sites/default/files/documents/KC_Com-Zone.pdf", "oneway": "yes", "name": "Bruce R. Watkins Drive", "maxspeed": "55 mph", "lanes": "4", "highway": "motorway", "hgv": "designated", "NHS": null }, "geometry": { "type": "LineString", "coordinates": [ [ -94.5607788, 39.0597284 ], [ -94.5605131, 39.0635268 ] ] } },
{ "type": "Feature", "properties": { "full_id": "w505951924", "osm_id": "505951924", "osm_type": "way", "ref": "US 71", "destination": null, "maxheight": null, "placement": null, "maxspeed:advisory": null, "noname": null, "maxspeed:type": null, "junction:ref": null, "shoulder": null, "expressway": null, "destination:ref": null, "destination:lanes": null, "turn:lanes": null, "layer": null, "bridge": null, "surface": "concrete", "source:hgv": "https://www.modot.org/sites/default/files/documents/KC_Com-Zone.pdf", "oneway": "yes", "name": "Bruce R. Watkins Drive", "maxspeed": "55 mph", "lanes": "3", "highway": "motorway", "hgv": "designated", "NHS": null }, "geometry": { "type": "LineString", "coordinates": [ [ -94.5605131, 39.0635268 ], [ -94.5603345, 39.0670289 ], [ -94.5601846, 39.068733 ] ] } },
{ "type": "Feature", "properties": { "full_id": "w505951925", "osm_id": "505951925", "osm_type": "way", "ref": "US 71", "destination": null, "maxheight": null, "placement": null, "maxspeed:advisory": null, "noname": null, "maxspeed:type": null, "junction:ref": "2M", "shoulder": null, "expressway": null, "destination:ref": null, "destination:lanes": "Joplin|Joplin;Wichita|Wichita", "turn:lanes": "|through;slight_right|slight_right", "layer": null, "bridge": null, "surface": null, "source:hgv": null, "oneway": "yes", "name": "Bruce R. Watkins Drive", "maxspeed": "45 mph", "lanes": "3", "highway": "motorway", "hgv": null, "NHS": null }, "geometry": { "type": "LineString", "coordinates": [ [ -94.5727396, 39.0991538 ], [ -94.5727801, 39.0987646 ] ] } },
{ "type": "Feature", "properties": { "full_id": "w505951926", "osm_id": "505951926", "osm_type": "way", "ref": "US 71", "destination": null, "maxheight": null, "placement": null, "maxspeed:advisory": null, "noname": null, "maxspeed:type": null, "junction:ref": null, "shoulder": null, "expressway": null, "destination:ref": null, "destination:lanes": null, "turn:lanes": null, "layer": null, "bridge": null, "surface": null, "source:hgv": "https://www.modot.org/sites/default/files/documents/KC_Com-Zone.pdf", "oneway": "yes", "name": "Bruce R. Watkins Drive", "maxspeed": "55 mph", "lanes": "4", "highway": "motorway", "hgv": "designated", "NHS": null }, "geometry": { "type": "LineString", "coordinates": [ [ -94.5608598, 39.0640986 ], [ -94.561067, 39.0598392 ] ] } },
{ "type": "Feature", "properties": { "full_id": "w505951927", "osm_id": "505951927", "osm_type": "way", "ref": "US 71", "destination": null, "maxheight": null, "placement": null, "maxspeed:advisory": null, "noname": null, "maxspeed:type": null, "junction:ref": null, "shoulder": null, "expressway": null, "destination:ref": null, "destination:lanes": null, "turn:lanes": null, "layer": null, "bridge": null, "surface": null, "source:hgv": "https://www.modot.org/sites/default/files/documents/KC_Com-Zone.pdf", "oneway": "yes", "name": "Bruce R. Watkins Drive", "maxspeed": "55 mph", "lanes": "3", "highway": "motorway", "hgv": "designated", "NHS": null }, "geometry": { "type": "LineString", "coordinates": [ [ -94.5610787, 39.0595991 ], [ -94.561155, 39.0588146 ], [ -94.5615479, 39.0547217 ], [ -94.5615926, 39.0535872 ], [ -94.561754, 39.0513677 ] ] } },
{ "type": "Feature", "properties": { "full_id": "w505951928", "osm_id": "505951928", "osm_type": "way", "ref": "US 71", "destination": null, "maxheight": null, "placement": null, "maxspeed:advisory": null, "noname": null, "maxspeed:type": null, "junction:ref": null, "shoulder": null, "expressway": null, "destination:ref": null, "destination:lanes": null, "turn:lanes": "||through;slight_right|slight_right", "layer": null, "bridge": null, "surface": null, "source:hgv": "https://www.modot.org/sites/default/files/documents/KC_Com-Zone.pdf", "oneway": "yes", "name": "Bruce R. Watkins Drive", "maxspeed": "55 mph", "lanes": "4", "highway": "motorway", "hgv": "designated", "NHS": null }, "geometry": { "type": "LineString", "coordinates": [ [ -94.561754, 39.0513677 ], [ -94.5619594, 39.0482658 ] ] } },
{ "type": "Feature", "properties": { "full_id": "w505951929", "osm_id": "505951929", "osm_type": "way", "ref": "US 71", "destination": null, "maxheight": null, "placement": null, "maxspeed:advisory": null, "noname": null, "maxspeed:type": null, "junction:ref": null, "shoulder": null, "expressway": null, "destination:ref": null, "destination:lanes": null, "turn:lanes": null, "layer": null, "bridge": null, "surface": null, "source:hgv": "https://www.modot.org/sites/default/files/documents/KC_Com-Zone.pdf", "oneway": "yes", "name": "Bruce R. Watkins Drive", "maxspeed": "55 mph", "lanes": "3", "highway": "motorway", "hgv": "designated", "NHS": null }, "geometry": { "type": "LineString", "coordinates": [ [ -94.5619594, 39.0482658 ], [ -94.5618811, 39.0475935 ], [ -94.5618204, 39.0470043 ], [ -94.5615776, 39.0460439 ], [ -94.5604749, 39.0433975 ] ] } },
{ "type": "Feature", "properties": { "full_id": "w505951930", "osm_id": "505951930", "osm_type": "way", "ref": "US 71", "destination": null, "maxheight": null, "placement": null, "maxspeed:advisory": null, "noname": null, "maxspeed:type": null, "junction:ref": null, "shoulder": null, "expressway": null, "destination:ref": null, "destination:lanes": null, "turn:lanes": null, "layer": "1", "bridge": "yes", "surface": null, "source:hgv": "https://www.modot.org/sites/default/files/documents/KC_Com-Zone.pdf", "oneway": "yes", "name": "Bruce R. Watkins Drive", "maxspeed": "55 mph", "lanes": "3", "highway": "motorway", "hgv": "designated", "NHS": null }, "geometry": { "type": "LineString", "coordinates": [ [ -94.5604749, 39.0433975 ], [ -94.5590694, 39.0404549 ] ] } },
{ "type": "Feature", "properties": { "full_id": "w505951931", "osm_id": "505951931", "osm_type": "way", "ref": "US 71", "destination": null, "maxheight": null, "placement": null, "maxspeed:advisory": null, "noname": null, "maxspeed:type": null, "junction:ref": null, "shoulder": null, "expressway": null, "destination:ref": null, "destination:lanes": null, "turn:lanes": null, "layer": null, "bridge": null, "surface": null, "source:hgv": "https://www.modot.org/sites/default/files/documents/KC_Com-Zone.pdf", "oneway": "yes", "name": "Bruce R. Watkins Drive", "maxspeed": "55 mph", "lanes": "3", "highway": "motorway", "hgv": "designated", "NHS": null }, "geometry": { "type": "LineString", "coordinates": [ [ -94.5590694, 39.0404549 ], [ -94.5587352, 39.0399517 ], [ -94.5582661, 39.0394332 ], [ -94.5562949, 39.0379078 ], [ -94.5554693, 39.0373555 ], [ -94.5550994, 39.0370752 ], [ -94.5548658, 39.0368303 ] ] } },
{ "type": "Feature", "properties": { "full_id": "w505954025", "osm_id": "505954025", "osm_type": "way", "ref": "US 71", "destination": null, "maxheight": null, "placement": null, "maxspeed:advisory": null, "noname": null, "maxspeed:type": null, "junction:ref": null, "shoulder": null, "expressway": null, "destination:ref": null, "destination:lanes": null, "turn:lanes": null, "layer": null, "bridge": null, "surface": "concrete", "source:hgv": "https://www.modot.org/sites/default/files/documents/KC_Com-Zone.pdf", "oneway": "yes", "name": "Bruce R. Watkins Drive", "maxspeed": "55 mph", "lanes": "3", "highway": "motorway", "hgv": "designated", "NHS": null }, "geometry": { "type": "LineString", "coordinates": [ [ -94.5612223, 39.0740322 ], [ -94.5621517, 39.0769156 ] ] } },
{ "type": "Feature", "properties": { "full_id": "w505954026", "osm_id": "505954026", "osm_type": "way", "ref": "US 71", "destination": null, "maxheight": null, "placement": null, "maxspeed:advisory": null, "noname": null, "maxspeed:type": null, "junction:ref": null, "shoulder": null, "expressway": null, "destination:ref": null, "destination:lanes": null, "turn:lanes": null, "layer": null, "bridge": null, "surface": "concrete", "source:hgv": "https://www.modot.org/sites/default/files/documents/KC_Com-Zone.pdf", "oneway": "yes", "name": "Bruce R. Watkins Drive", "maxspeed": "55 mph", "lanes": "4", "highway": "motorway", "hgv": "designated", "NHS": null }, "geometry": { "type": "LineString", "coordinates": [ [ -94.5621517, 39.0769156 ], [ -94.5622348, 39.0771938 ] ] } },
{ "type": "Feature", "properties": { "full_id": "w505954027", "osm_id": "505954027", "osm_type": "way", "ref": "US 71", "destination": null, "maxheight": null, "placement": null, "maxspeed:advisory": null, "noname": null, "maxspeed:type": null, "junction:ref": null, "shoulder": null, "expressway": null, "destination:ref": null, "destination:lanes": null, "turn:lanes": null, "layer": "1", "bridge": "yes", "surface": "concrete", "source:hgv": "https://www.modot.org/sites/default/files/documents/KC_Com-Zone.pdf", "oneway": "yes", "name": "Bruce R. Watkins Drive", "maxspeed": "55 mph", "lanes": "4", "highway": "motorway", "hgv": "designated", "NHS": null }, "geometry": { "type": "LineString", "coordinates": [ [ -94.5622348, 39.0771938 ], [ -94.562385, 39.0776513 ] ] } },
{ "type": "Feature", "properties": { "full_id": "w505954028", "osm_id": "505954028", "osm_type": "way", "ref": "US 71", "destination": null, "maxheight": null, "placement": null, "maxspeed:advisory": null, "noname": null, "maxspeed:type": null, "junction:ref": null, "shoulder": null, "expressway": null, "destination:ref": null, "destination:lanes": null, "turn:lanes": null, "layer": null, "bridge": null, "surface": "concrete", "source:hgv": "https://www.modot.org/sites/default/files/documents/KC_Com-Zone.pdf", "oneway": "yes", "name": "Bruce R. Watkins Drive", "maxspeed": "55 mph", "lanes": "4", "highway": "motorway", "hgv": "designated", "NHS": null }, "geometry": { "type": "LineString", "coordinates": [ [ -94.562385, 39.0776513 ], [ -94.5630016, 39.0795711 ], [ -94.5632153, 39.0800391 ], [ -94.5633384, 39.080268 ] ] } },
{ "type": "Feature", "properties": { "full_id": "w505954029", "osm_id": "505954029", "osm_type": "way", "ref": "US 71", "destination": null, "maxheight": null, "placement": null, "maxspeed:advisory": null, "noname": null, "maxspeed:type": null, "junction:ref": null, "shoulder": null, "expressway": null, "destination:ref": null, "destination:lanes": null, "turn:lanes": null, "layer": "1", "bridge": "yes", "surface": "concrete", "source:hgv": "https://www.modot.org/sites/default/files/documents/KC_Com-Zone.pdf", "oneway": "yes", "name": "Bruce R. Watkins Drive", "maxspeed": "55 mph", "lanes": "4", "highway": "motorway", "hgv": "designated", "NHS": null }, "geometry": { "type": "LineString", "coordinates": [ [ -94.5633384, 39.080268 ], [ -94.5636175, 39.0807523 ], [ -94.5639859, 39.081318 ], [ -94.5641145, 39.0814668 ] ] } },
{ "type": "Feature", "properties": { "full_id": "w505954030", "osm_id": "505954030", "osm_type": "way", "ref": "US 71", "destination": null, "maxheight": null, "placement": null, "maxspeed:advisory": null, "noname": null, "maxspeed:type": null, "junction:ref": null, "shoulder": null, "expressway": null, "destination:ref": null, "destination:lanes": null, "turn:lanes": "|||slight_right", "layer": null, "bridge": null, "surface": "concrete", "source:hgv": "https://www.modot.org/sites/default/files/documents/KC_Com-Zone.pdf", "oneway": "yes", "name": "Bruce R. Watkins Drive", "maxspeed": "55 mph", "lanes": "4", "highway": "motorway", "hgv": "designated", "NHS": null }, "geometry": { "type": "LineString", "coordinates": [ [ -94.5641145, 39.0814668 ], [ -94.5642927, 39.0816752 ] ] } },
{ "type": "Feature", "properties": { "full_id": "w505954033", "osm_id": "505954033", "osm_type": "way", "ref": "US 71", "destination": null, "maxheight": null, "placement": null, "maxspeed:advisory": null, "noname": null, "maxspeed:type": null, "junction:ref": null, "shoulder": null, "expressway": null, "destination:ref": null, "destination:lanes": null, "turn:lanes": null, "layer": null, "bridge": null, "surface": "concrete", "source:hgv": "https://www.modot.org/sites/default/files/documents/KC_Com-Zone.pdf", "oneway": "yes", "name": "Bruce R. Watkins Drive", "maxspeed": "55 mph", "lanes": "3", "highway": "motorway", "hgv": "designated", "NHS": null }, "geometry": { "type": "LineString", "coordinates": [ [ -94.5680196, 39.0843242 ], [ -94.5686802, 39.0846717 ], [ -94.5692862, 39.0850802 ], [ -94.569777, 39.0855331 ], [ -94.5701598, 39.0859487 ], [ -94.5705589, 39.0865063 ], [ -94.5707503, 39.0869123 ], [ -94.5709161, 39.0873605 ], [ -94.5710756, 39.0881032 ], [ -94.5711184, 39.0884581 ] ] } },
{ "type": "Feature", "properties": { "full_id": "w505954034", "osm_id": "505954034", "osm_type": "way", "ref": "US 71", "destination": null, "maxheight": null, "placement": null, "maxspeed:advisory": null, "noname": null, "maxspeed:type": null, "junction:ref": null, "shoulder": null, "expressway": null, "destination:ref": null, "destination:lanes": null, "turn:lanes": null, "layer": null, "bridge": null, "surface": "concrete", "source:hgv": "https://www.modot.org/sites/default/files/documents/KC_Com-Zone.pdf", "oneway": "yes", "name": "Bruce R. Watkins Drive", "maxspeed": "55 mph", "lanes": "4", "highway": "motorway", "hgv": "designated", "NHS": null }, "geometry": { "type": "LineString", "coordinates": [ [ -94.5711184, 39.0884581 ], [ -94.571128, 39.0885383 ] ] } },
{ "type": "Feature", "properties": { "full_id": "w505954035", "osm_id": "505954035", "osm_type": "way", "ref": "US 71", "destination": null, "maxheight": null, "placement": null, "maxspeed:advisory": null, "noname": null, "maxspeed:type": null, "junction:ref": null, "shoulder": null, "expressway": null, "destination:ref": null, "destination:lanes": null, "turn:lanes": null, "layer": "1", "bridge": "yes", "surface": "concrete", "source:hgv": "https://www.modot.org/sites/default/files/documents/KC_Com-Zone.pdf", "oneway": "yes", "name": "Bruce R. Watkins Drive", "maxspeed": "55 mph", "lanes": "4", "highway": "motorway", "hgv": "designated", "NHS": null }, "geometry": { "type": "LineString", "coordinates": [ [ -94.571128, 39.0885383 ], [ -94.5711682, 39.0888513 ] ] } },
{ "type": "Feature", "properties": { "full_id": "w505954037", "osm_id": "505954037", "osm_type": "way", "ref": "US 71", "destination": null, "maxheight": null, "placement": null, "maxspeed:advisory": null, "noname": null, "maxspeed:type": null, "junction:ref": null, "shoulder": null, "expressway": null, "destination:ref": null, "destination:lanes": "Kansas||11th Street;Downtown", "turn:lanes": "slight_left||", "layer": null, "bridge": null, "surface": "concrete", "source:hgv": "https://www.modot.org/sites/default/files/documents/KC_Com-Zone.pdf", "oneway": "yes", "name": "Bruce R. Watkins Drive", "maxspeed": "45 mph", "lanes": "3", "highway": "motorway", "hgv": "designated", "NHS": "yes" }, "geometry": { "type": "LineString", "coordinates": [ [ -94.5718225, 39.0927145 ], [ -94.5718553, 39.0930076 ], [ -94.5718628, 39.0933233 ], [ -94.5718698, 39.0936298 ], [ -94.5717703, 39.0945929 ] ] } },
{ "type": "Feature", "properties": { "full_id": "w528246256", "osm_id": "528246256", "osm_type": "way", "ref": "US 71", "destination": null, "maxheight": null, "placement": null, "maxspeed:advisory": null, "noname": null, "maxspeed:type": null, "junction:ref": null, "shoulder": null, "expressway": null, "destination:ref": null, "destination:lanes": null, "turn:lanes": null, "layer": "1", "bridge": "yes", "surface": "concrete", "source:hgv": null, "oneway": "yes", "name": null, "maxspeed": "45 mph", "lanes": "2", "highway": "motorway", "hgv": null, "NHS": null }, "geometry": { "type": "LineString", "coordinates": [ [ -94.5720461, 39.0993458 ], [ -94.5722777, 39.0998377 ] ] } },
{ "type": "Feature", "properties": { "full_id": "w560831045", "osm_id": "560831045", "osm_type": "way", "ref": "US 71", "destination": null, "maxheight": null, "placement": null, "maxspeed:advisory": null, "noname": null, "maxspeed:type": null, "junction:ref": null, "shoulder": "both", "expressway": "yes", "destination:ref": null, "destination:lanes": null, "turn:lanes": null, "layer": null, "bridge": null, "surface": null, "source:hgv": "https://www.modot.org/sites/default/files/documents/KC_Com-Zone.pdf", "oneway": "yes", "name": "Bruce R. Watkins Drive", "maxspeed": "45 mph", "lanes": "3", "highway": "trunk", "hgv": "designated", "NHS": null }, "geometry": { "type": "LineString", "coordinates": [ [ -94.5555058, 39.0036587 ], [ -94.5556142, 39.0016075 ], [ -94.5556833, 39.0008267 ], [ -94.5557667, 39.0004258 ], [ -94.5558653, 38.9999424 ], [ -94.5560197, 38.9981555 ], [ -94.5560262, 38.9980739 ], [ -94.5560369, 38.9979514 ] ] } },
{ "type": "Feature", "properties": { "full_id": "w560905328", "osm_id": "560905328", "osm_type": "way", "ref": "US 71", "destination": null, "maxheight": null, "placement": null, "maxspeed:advisory": null, "noname": "yes", "maxspeed:type": "sign", "junction:ref": null, "shoulder": null, "expressway": null, "destination:ref": null, "destination:lanes": null, "turn:lanes": null, "layer": null, "bridge": null, "surface": null, "source:hgv": "https://www.modot.org/sites/default/files/documents/KC_Com-Zone.pdf", "oneway": "yes", "name": null, "maxspeed": "65 mph", "lanes": "3", "highway": "motorway", "hgv": "designated", "NHS": null }, "geometry": { "type": "LineString", "coordinates": [ [ -94.5354402, 38.939205 ], [ -94.5358121, 38.9397107 ], [ -94.5361341, 38.9402357 ], [ -94.536351, 38.9406376 ], [ -94.5367177, 38.9413769 ], [ -94.5369862, 38.9419952 ], [ -94.5373885, 38.9431426 ], [ -94.5376031, 38.9439061 ], [ -94.5377962, 38.9447464 ] ] } },
{ "type": "Feature", "properties": { "full_id": "w560905339", "osm_id": "560905339", "osm_type": "way", "ref": "US 71", "destination": null, "maxheight": null, "placement": null, "maxspeed:advisory": null, "noname": "yes", "maxspeed:type": "sign", "junction:ref": null, "shoulder": null, "expressway": null, "destination:ref": null, "destination:lanes": "Kansas City|Kansas City|Bannister Road|Bannister Road", "turn:lanes": "||slight_right|slight_right", "layer": null, "bridge": null, "surface": null, "source:hgv": "https://www.modot.org/sites/default/files/documents/KC_Com-Zone.pdf", "oneway": "yes", "name": null, "maxspeed": "65 mph", "lanes": "4", "highway": "motorway", "hgv": "designated", "NHS": null }, "geometry": { "type": "LineString", "coordinates": [ [ -94.5377962, 38.9447464 ], [ -94.5390943, 38.9502375 ] ] } },
{ "type": "Feature", "properties": { "full_id": "w560905342", "osm_id": "560905342", "osm_type": "way", "ref": "US 71", "destination": null, "maxheight": null, "placement": null, "maxspeed:advisory": "45 mph", "noname": null, "maxspeed:type": null, "junction:ref": null, "shoulder": null, "expressway": null, "destination:ref": null, "destination:lanes": null, "turn:lanes": null, "layer": null, "bridge": null, "surface": null, "source:hgv": null, "oneway": "yes", "name": null, "maxspeed": null, "lanes": "2", "highway": "motorway", "hgv": null, "NHS": null }, "geometry": { "type": "LineString", "coordinates": [ [ -94.5390943, 38.9502375 ], [ -94.5391098, 38.9508888 ], [ -94.5391353, 38.9513775 ], [ -94.5392948, 38.952903 ] ] } },
{ "type": "Feature", "properties": { "full_id": "w560905345", "osm_id": "560905345", "osm_type": "way", "ref": "US 71", "destination": null, "maxheight": null, "placement": null, "maxspeed:advisory": null, "noname": null, "maxspeed:type": null, "junction:ref": null, "shoulder": null, "expressway": null, "destination:ref": null, "destination:lanes": null, "turn:lanes": "left|left|slight_right", "layer": null, "bridge": null, "surface": null, "source:hgv": null, "oneway": "yes", "name": null, "maxspeed": null, "lanes": "2", "highway": "motorway", "hgv": null, "NHS": null }, "geometry": { "type": "LineString", "coordinates": [ [ -94.5392948, 38.952903 ], [ -94.5393552, 38.9533786 ] ] } },
{ "type": "Feature", "properties": { "full_id": "w560905350", "osm_id": "560905350", "osm_type": "way", "ref": "US 71", "destination": null, "maxheight": null, "placement": null, "maxspeed:advisory": null, "noname": null, "maxspeed:type": null, "junction:ref": null, "shoulder": null, "expressway": null, "destination:ref": null, "destination:lanes": null, "turn:lanes": null, "layer": null, "bridge": null, "surface": null, "source:hgv": null, "oneway": "yes", "name": null, "maxspeed": null, "lanes": "2", "highway": "motorway", "hgv": null, "NHS": null }, "geometry": { "type": "LineString", "coordinates": [ [ -94.5393552, 38.9533786 ], [ -94.5393946, 38.9536142 ], [ -94.5394083, 38.9536965 ] ] } },
{ "type": "Feature", "properties": { "full_id": "w560905352", "osm_id": "560905352", "osm_type": "way", "ref": "US 71", "destination": null, "maxheight": null, "placement": null, "maxspeed:advisory": null, "noname": null, "maxspeed:type": null, "junction:ref": null, "shoulder": null, "expressway": null, "destination:ref": null, "destination:lanes": null, "turn:lanes": null, "layer": null, "bridge": null, "surface": null, "source:hgv": null, "oneway": "yes", "name": null, "maxspeed": null, "lanes": "2", "highway": "motorway", "hgv": null, "NHS": null }, "geometry": { "type": "LineString", "coordinates": [ [ -94.5405617, 38.9538803 ], [ -94.5405431, 38.9537368 ], [ -94.5405205, 38.9536674 ], [ -94.5404783, 38.9535379 ], [ -94.5404268, 38.9533796 ], [ -94.5402068, 38.9527808 ], [ -94.5397061, 38.9514445 ], [ -94.5395505, 38.9509666 ], [ -94.5394193, 38.9507805 ] ] } },
{ "type": "Feature", "properties": { "full_id": "w560905356", "osm_id": "560905356", "osm_type": "way", "ref": "US 71", "destination": null, "maxheight": null, "placement": null, "maxspeed:advisory": null, "noname": null, "maxspeed:type": null, "junction:ref": null, "shoulder": null, "expressway": null, "destination:ref": null, "destination:lanes": null, "turn:lanes": null, "layer": null, "bridge": null, "surface": null, "source:hgv": null, "oneway": "yes", "name": null, "maxspeed": null, "lanes": "2", "highway": "motorway", "hgv": null, "NHS": null }, "geometry": { "type": "LineString", "coordinates": [ [ -94.5394083, 38.9536965 ], [ -94.5394414, 38.9538408 ], [ -94.5394941, 38.9540016 ], [ -94.5395374, 38.9541335 ], [ -94.5403527, 38.9560858 ], [ -94.540553, 38.9564188 ] ] } },
{ "type": "Feature", "properties": { "full_id": "w560905359", "osm_id": "560905359", "osm_type": "way", "ref": "US 71", "destination": null, "maxheight": null, "placement": null, "maxspeed:advisory": null, "noname": null, "maxspeed:type": null, "junction:ref": null, "shoulder": null, "expressway": null, "destination:ref": null, "destination:lanes": null, "turn:lanes": null, "layer": null, "bridge": null, "surface": null, "source:hgv": null, "oneway": "yes", "name": null, "maxspeed": null, "lanes": "2", "highway": "motorway", "hgv": null, "NHS": null }, "geometry": { "type": "LineString", "coordinates": [ [ -94.5406436, 38.9556743 ], [ -94.5406156, 38.9550763 ], [ -94.5406102, 38.9547801 ] ] } },
{ "type": "Feature", "properties": { "full_id": "w560905362", "osm_id": "560905362", "osm_type": "way", "ref": "US 71", "destination": null, "maxheight": null, "placement": null, "maxspeed:advisory": null, "noname": null, "maxspeed:type": null, "junction:ref": null, "shoulder": null, "expressway": null, "destination:ref": null, "destination:lanes": null, "turn:lanes": "left|left|right", "layer": null, "bridge": null, "surface": null, "source:hgv": null, "oneway": "yes", "name": null, "maxspeed": null, "lanes": "2", "highway": "motorway", "hgv": null, "NHS": null }, "geometry": { "type": "LineString", "coordinates": [ [ -94.5406102, 38.9547801 ], [ -94.5405781, 38.9541377 ] ] } },
{ "type": "Feature", "properties": { "full_id": "w560905364", "osm_id": "560905364", "osm_type": "way", "ref": "US 71", "destination": null, "maxheight": null, "placement": null, "maxspeed:advisory": null, "noname": null, "maxspeed:type": null, "junction:ref": null, "shoulder": null, "expressway": null, "destination:ref": null, "destination:lanes": null, "turn:lanes": null, "layer": null, "bridge": null, "surface": null, "source:hgv": null, "oneway": "yes", "name": null, "maxspeed": null, "lanes": "2", "highway": "motorway", "hgv": null, "NHS": null }, "geometry": { "type": "LineString", "coordinates": [ [ -94.5405781, 38.9541377 ], [ -94.5405617, 38.9538803 ] ] } },
{ "type": "Feature", "properties": { "full_id": "w560905385", "osm_id": "560905385", "osm_type": "way", "ref": "US 71", "destination": null, "maxheight": null, "placement": null, "maxspeed:advisory": null, "noname": "yes", "maxspeed:type": null, "junction:ref": null, "shoulder": null, "expressway": null, "destination:ref": null, "destination:lanes": null, "turn:lanes": "through|through|through;slight_right|slight_right", "layer": null, "bridge": null, "surface": null, "source:hgv": "https://www.modot.org/sites/default/files/documents/KC_Com-Zone.pdf", "oneway": "yes", "name": null, "maxspeed": "65 mph", "lanes": "4", "highway": "motorway", "hgv": "designated", "NHS": null }, "geometry": { "type": "LineString", "coordinates": [ [ -94.5394193, 38.9507805 ], [ -94.5381526, 38.9453324 ] ] } },
{ "type": "Feature", "properties": { "full_id": "w560905388", "osm_id": "560905388", "osm_type": "way", "ref": "US 71", "destination": null, "maxheight": null, "placement": null, "maxspeed:advisory": null, "noname": "yes", "maxspeed:type": "sign", "junction:ref": null, "shoulder": null, "expressway": null, "destination:ref": null, "destination:lanes": null, "turn:lanes": null, "layer": null, "bridge": null, "surface": null, "source:hgv": "https://www.modot.org/sites/default/files/documents/KC_Com-Zone.pdf", "oneway": "yes", "name": null, "maxspeed": "65 mph", "lanes": "3", "highway": "motorway", "hgv": "designated", "NHS": null }, "geometry": { "type": "LineString", "coordinates": [ [ -94.540553, 38.9564188 ], [ -94.5422582, 38.9625888 ] ] } },
{ "type": "Feature", "properties": { "full_id": "w560905394", "osm_id": "560905394", "osm_type": "way", "ref": "US 71", "destination": null, "maxheight": null, "placement": "middle_of:2", "maxspeed:advisory": null, "noname": "yes", "maxspeed:type": "sign", "junction:ref": null, "shoulder": null, "expressway": null, "destination:ref": null, "destination:lanes": "|75th Street|Hickman Mills Drive;Blue River Road;85th Street;87th Street|Hickman Mills Drive;Blue River Road;85th Street;87th Street", "turn:lanes": "none|none|slight_right|slight_right", "layer": null, "bridge": null, "surface": null, "source:hgv": "https://www.modot.org/sites/default/files/documents/KC_Com-Zone.pdf", "oneway": "yes", "name": null, "maxspeed": "65 mph", "lanes": "4", "highway": "motorway", "hgv": "designated", "NHS": null }, "geometry": { "type": "LineString", "coordinates": [ [ -94.5423519, 38.962928 ], [ -94.5427558, 38.9643891 ], [ -94.5429235, 38.9648918 ], [ -94.5432239, 38.9656551 ], [ -94.5434867, 38.9662015 ], [ -94.5436925, 38.966611 ] ] } },
{ "type": "Feature", "properties": { "full_id": "w560905397", "osm_id": "560905397", "osm_type": "way", "ref": "US 71", "destination": null, "maxheight": null, "placement": null, "maxspeed:advisory": null, "noname": null, "maxspeed:type": "sign", "junction:ref": null, "shoulder": null, "expressway": null, "destination:ref": null, "destination:lanes": null, "turn:lanes": null, "layer": null, "bridge": null, "surface": null, "source:hgv": "https://www.modot.org/sites/default/files/documents/KC_Com-Zone.pdf", "oneway": "yes", "name": "Bruce R. Watkins Drive", "maxspeed": "65 mph", "lanes": "2", "highway": "motorway", "hgv": "designated", "NHS": null }, "geometry": { "type": "LineString", "coordinates": [ [ -94.5436925, 38.966611 ], [ -94.5444899, 38.9680492 ], [ -94.5447957, 38.9687207 ], [ -94.5453162, 38.9698056 ] ] } },
{ "type": "Feature", "properties": { "full_id": "w560905400", "osm_id": "560905400", "osm_type": "way", "ref": "US 71", "destination": null, "maxheight": null, "placement": null, "maxspeed:advisory": null, "noname": "yes", "maxspeed:type": null, "junction:ref": null, "shoulder": null, "expressway": null, "destination:ref": null, "destination:lanes": null, "turn:lanes": "||slight_right", "layer": null, "bridge": null, "surface": null, "source:hgv": "https://www.modot.org/sites/default/files/documents/KC_Com-Zone.pdf", "oneway": "yes", "name": null, "maxspeed": "65 mph", "lanes": "3", "highway": "motorway", "hgv": "designated", "NHS": null }, "geometry": { "type": "LineString", "coordinates": [ [ -94.5424171, 38.9621349 ], [ -94.5406436, 38.9556743 ] ] } },
{ "type": "Feature", "properties": { "full_id": "w560913861", "osm_id": "560913861", "osm_type": "way", "ref": "US 71", "destination": null, "maxheight": null, "placement": null, "maxspeed:advisory": null, "noname": null, "maxspeed:type": "sign", "junction:ref": null, "shoulder": null, "expressway": null, "destination:ref": null, "destination:lanes": null, "turn:lanes": null, "layer": "1", "bridge": "yes", "surface": null, "source:hgv": "https://www.modot.org/sites/default/files/documents/KC_Com-Zone.pdf", "oneway": "yes", "name": "Bruce R. Watkins Drive", "maxspeed": "65 mph", "lanes": "2", "highway": "motorway", "hgv": "designated", "NHS": null }, "geometry": { "type": "LineString", "coordinates": [ [ -94.5453162, 38.9698056 ], [ -94.5454996, 38.9702926 ], [ -94.5456079, 38.9706293 ], [ -94.5457071, 38.9710537 ], [ -94.5457838, 38.9715342 ], [ -94.5458154, 38.9719129 ], [ -94.5458244, 38.974473 ] ] } },
{ "type": "Feature", "properties": { "full_id": "w560913865", "osm_id": "560913865", "osm_type": "way", "ref": "US 71", "destination": null, "maxheight": null, "placement": null, "maxspeed:advisory": null, "noname": null, "maxspeed:type": null, "junction:ref": null, "shoulder": null, "expressway": null, "destination:ref": null, "destination:lanes": null, "turn:lanes": null, "layer": null, "bridge": null, "surface": null, "source:hgv": "https://www.modot.org/sites/default/files/documents/KC_Com-Zone.pdf", "oneway": "yes", "name": "Bruce R. Watkins Drive", "maxspeed": "65 mph", "lanes": "2", "highway": "motorway", "hgv": "designated", "NHS": null }, "geometry": { "type": "LineString", "coordinates": [ [ -94.5457466, 38.9700288 ], [ -94.5455467, 38.9695507 ], [ -94.5441361, 38.9668567 ] ] } },
{ "type": "Feature", "properties": { "full_id": "w560913868", "osm_id": "560913868", "osm_type": "way", "ref": "US 71", "destination": null, "maxheight": null, "placement": null, "maxspeed:advisory": null, "noname": null, "maxspeed:type": "sign", "junction:ref": null, "shoulder": null, "expressway": null, "destination:ref": null, "destination:lanes": null, "turn:lanes": null, "layer": null, "bridge": null, "surface": "asphalt", "source:hgv": "https://www.modot.org/sites/default/files/documents/KC_Com-Zone.pdf", "oneway": "yes", "name": "Bruce R. Watkins Drive", "maxspeed": "65 mph", "lanes": "2", "highway": "motorway", "hgv": "designated", "NHS": null }, "geometry": { "type": "LineString", "coordinates": [ [ -94.5458244, 38.974473 ], [ -94.5458306, 38.976733 ] ] } },
{ "type": "Feature", "properties": { "full_id": "w560913872", "osm_id": "560913872", "osm_type": "way", "ref": "US 71", "destination": null, "maxheight": null, "placement": null, "maxspeed:advisory": null, "noname": null, "maxspeed:type": null, "junction:ref": null, "shoulder": null, "expressway": null, "destination:ref": null, "destination:lanes": null, "turn:lanes": null, "layer": "1", "bridge": "yes", "surface": null, "source:hgv": "https://www.modot.org/sites/default/files/documents/KC_Com-Zone.pdf", "oneway": "yes", "name": "Bruce R. Watkins Drive", "maxspeed": "65 mph", "lanes": "2", "highway": "motorway", "hgv": "designated", "NHS": null }, "geometry": { "type": "LineString", "coordinates": [ [ -94.5461373, 38.9744272 ], [ -94.5461401, 38.9721759 ], [ -94.5461221, 38.9718393 ], [ -94.5460815, 38.9713974 ], [ -94.5460093, 38.970959 ], [ -94.5458146, 38.9702714 ], [ -94.5457466, 38.9700288 ] ] } },
{ "type": "Feature", "properties": { "full_id": "w560913888", "osm_id": "560913888", "osm_type": "way", "ref": "US 71", "destination": null, "maxheight": null, "placement": null, "maxspeed:advisory": null, "noname": null, "maxspeed:type": "sign", "junction:ref": null, "shoulder": null, "expressway": null, "destination:ref": null, "destination:lanes": null, "turn:lanes": null, "layer": "1", "bridge": "yes", "surface": "concrete", "source:hgv": "https://www.modot.org/sites/default/files/documents/KC_Com-Zone.pdf", "oneway": "yes", "name": "Bruce R. Watkins Drive", "maxspeed": "65 mph", "lanes": "3", "highway": "motorway", "hgv": "designated", "NHS": null }, "geometry": { "type": "LineString", "coordinates": [ [ -94.545991, 38.9789641 ], [ -94.5463414, 38.9798934 ], [ -94.5465881, 38.9803729 ] ] } },
{ "type": "Feature", "properties": { "full_id": "w560913892", "osm_id": "560913892", "osm_type": "way", "ref": "US 71", "destination": null, "maxheight": null, "placement": null, "maxspeed:advisory": null, "noname": null, "maxspeed:type": "sign", "junction:ref": null, "shoulder": null, "expressway": null, "destination:ref": null, "destination:lanes": null, "turn:lanes": null, "layer": null, "bridge": null, "surface": "asphalt", "source:hgv": "https://www.modot.org/sites/default/files/documents/KC_Com-Zone.pdf", "oneway": "yes", "name": "Bruce R. Watkins Drive", "maxspeed": "65 mph", "lanes": "3", "highway": "motorway", "hgv": "designated", "NHS": null }, "geometry": { "type": "LineString", "coordinates": [ [ -94.5465881, 38.9803729 ], [ -94.5469261, 38.9808775 ], [ -94.5473606, 38.9813988 ], [ -94.5477468, 38.9817616 ], [ -94.5503647, 38.984176 ], [ -94.5506865, 38.984497 ], [ -94.5509869, 38.9848932 ] ] } },
{ "type": "Feature", "properties": { "full_id": "w560913896", "osm_id": "560913896", "osm_type": "way", "ref": "US 71", "destination": null, "maxheight": null, "placement": null, "maxspeed:advisory": null, "noname": null, "maxspeed:type": "sign", "junction:ref": null, "shoulder": null, "expressway": null, "destination:ref": null, "destination:lanes": null, "turn:lanes": null, "layer": null, "bridge": null, "surface": "asphalt", "source:hgv": "https://www.modot.org/sites/default/files/documents/KC_Com-Zone.pdf", "oneway": "yes", "name": "Bruce R. Watkins Drive", "maxspeed": "65 mph", "lanes": "3", "highway": "motorway", "hgv": "designated", "NHS": null }, "geometry": { "type": "LineString", "coordinates": [ [ -94.5458306, 38.976733 ], [ -94.5458334, 38.9777238 ], [ -94.5458334, 38.978078 ], [ -94.545874, 38.9784638 ], [ -94.545991, 38.9789641 ] ] } },
{ "type": "Feature", "properties": { "full_id": "w560913901", "osm_id": "560913901", "osm_type": "way", "ref": "US 71", "destination": null, "maxheight": null, "placement": null, "maxspeed:advisory": null, "noname": null, "maxspeed:type": null, "junction:ref": null, "shoulder": null, "expressway": null, "destination:ref": null, "destination:lanes": null, "turn:lanes": null, "layer": "1", "bridge": "yes", "surface": "concrete", "source:hgv": "https://www.modot.org/sites/default/files/documents/KC_Com-Zone.pdf", "oneway": "yes", "name": "Bruce R. Watkins Drive", "maxspeed": "65 mph", "lanes": "2", "highway": "motorway", "hgv": "designated", "NHS": null }, "geometry": { "type": "LineString", "coordinates": [ [ -94.5468671, 38.9802145 ], [ -94.5465828, 38.9796849 ], [ -94.5464165, 38.9792637 ], [ -94.5462987, 38.9787973 ] ] } },
{ "type": "Feature", "properties": { "full_id": "w560913908", "osm_id": "560913908", "osm_type": "way", "ref": "US 71", "destination": null, "maxheight": null, "placement": null, "maxspeed:advisory": null, "noname": null, "maxspeed:type": null, "junction:ref": null, "shoulder": null, "expressway": null, "destination:ref": null, "destination:lanes": null, "turn:lanes": null, "layer": null, "bridge": null, "surface": null, "source:hgv": "https://www.modot.org/sites/default/files/documents/KC_Com-Zone.pdf", "oneway": "yes", "name": "Bruce R. Watkins Drive", "maxspeed": "65 mph", "lanes": "2", "highway": "motorway", "hgv": "designated", "NHS": null }, "geometry": { "type": "LineString", "coordinates": [ [ -94.5462987, 38.9787973 ], [ -94.5462129, 38.978472 ], [ -94.5461271, 38.9780425 ], [ -94.5461282, 38.9773665 ], [ -94.5461294, 38.9769589 ], [ -94.5461373, 38.9744272 ] ] } },
{ "type": "Feature", "properties": { "full_id": "w560913914", "osm_id": "560913914", "osm_type": "way", "ref": "US 71", "destination": null, "maxheight": null, "placement": null, "maxspeed:advisory": null, "noname": null, "maxspeed:type": "sign", "junction:ref": null, "shoulder": null, "expressway": null, "destination:ref": null, "destination:lanes": null, "turn:lanes": null, "layer": null, "bridge": null, "surface": "asphalt", "source:hgv": "https://www.modot.org/sites/default/files/documents/KC_Com-Zone.pdf", "oneway": "yes", "name": "Bruce R. Watkins Drive", "maxspeed": "55 mph", "lanes": "2", "highway": "motorway", "hgv": "designated", "NHS": null }, "geometry": { "type": "LineString", "coordinates": [ [ -94.5517916, 38.9873367 ], [ -94.5521729, 38.9892318 ], [ -94.5522695, 38.9897363 ], [ -94.5524219, 38.9901984 ] ] } },
{ "type": "Feature", "properties": { "full_id": "w560913923", "osm_id": "560913923", "osm_type": "way", "ref": "US 71", "destination": null, "maxheight": null, "placement": null, "maxspeed:advisory": null, "noname": null, "maxspeed:type": "sign", "junction:ref": null, "shoulder": null, "expressway": null, "destination:ref": null, "destination:lanes": null, "turn:lanes": null, "layer": "1", "bridge": "yes", "surface": "concrete", "source:hgv": "https://www.modot.org/sites/default/files/documents/KC_Com-Zone.pdf", "oneway": "yes", "name": "Bruce R. Watkins Drive", "maxspeed": "55 mph", "lanes": "2", "highway": "motorway", "hgv": "designated", "NHS": null }, "geometry": { "type": "LineString", "coordinates": [ [ -94.5524219, 38.9901984 ], [ -94.5527103, 38.9908576 ] ] } },
{ "type": "Feature", "properties": { "full_id": "w560913930", "osm_id": "560913930", "osm_type": "way", "ref": "US 71", "destination": null, "maxheight": null, "placement": null, "maxspeed:advisory": null, "noname": null, "maxspeed:type": "sign", "junction:ref": null, "shoulder": null, "expressway": null, "destination:ref": null, "destination:lanes": null, "turn:lanes": null, "layer": null, "bridge": null, "surface": "asphalt", "source:hgv": "https://www.modot.org/sites/default/files/documents/KC_Com-Zone.pdf", "oneway": "yes", "name": "Bruce R. Watkins Drive", "maxspeed": "55 mph", "lanes": "2", "highway": "motorway", "hgv": "designated", "NHS": null }, "geometry": { "type": "LineString", "coordinates": [ [ -94.5527103, 38.9908576 ], [ -94.5530038, 38.9913535 ], [ -94.5543581, 38.993299 ], [ -94.5545376, 38.9935751 ], [ -94.5546893, 38.9938463 ], [ -94.5548183, 38.99415 ], [ -94.5549397, 38.9946629 ] ] } },
{ "type": "Feature", "properties": { "full_id": "w560913937", "osm_id": "560913937", "osm_type": "way", "ref": "US 71", "destination": null, "maxheight": "default", "placement": null, "maxspeed:advisory": null, "noname": null, "maxspeed:type": null, "junction:ref": null, "shoulder": null, "expressway": null, "destination:ref": null, "destination:lanes": null, "turn:lanes": null, "layer": null, "bridge": null, "surface": null, "source:hgv": "https://www.modot.org/sites/default/files/documents/KC_Com-Zone.pdf", "oneway": "yes", "name": "Bruce R. Watkins Drive", "maxspeed": "55 mph", "lanes": "2", "highway": "motorway", "hgv": "designated", "NHS": null }, "geometry": { "type": "LineString", "coordinates": [ [ -94.5527669, 38.9902395 ], [ -94.5525708, 38.9896628 ], [ -94.5523172, 38.9883992 ], [ -94.5518345, 38.985994 ], [ -94.5517004, 38.9855395 ], [ -94.5515073, 38.9851475 ], [ -94.5512747, 38.9847251 ] ] } },
{ "type": "Feature", "properties": { "full_id": "w560913943", "osm_id": "560913943", "osm_type": "way", "ref": "US 71", "destination": null, "maxheight": null, "placement": null, "maxspeed:advisory": null, "noname": null, "maxspeed:type": null, "junction:ref": null, "shoulder": null, "expressway": null, "destination:ref": null, "destination:lanes": null, "turn:lanes": null, "layer": "1", "bridge": "yes", "surface": null, "source:hgv": "https://www.modot.org/sites/default/files/documents/KC_Com-Zone.pdf", "oneway": "yes", "name": "Bruce R. Watkins Drive", "maxspeed": "55 mph", "lanes": "2", "highway": "motorway", "hgv": "designated", "NHS": null }, "geometry": { "type": "LineString", "coordinates": [ [ -94.5530177, 38.9908109 ], [ -94.5527669, 38.9902395 ] ] } },
{ "type": "Feature", "properties": { "full_id": "w560913966", "osm_id": "560913966", "osm_type": "way", "ref": "US 71", "destination": null, "maxheight": null, "placement": null, "maxspeed:advisory": null, "noname": null, "maxspeed:type": null, "junction:ref": null, "shoulder": null, "expressway": null, "destination:ref": null, "destination:lanes": null, "turn:lanes": null, "layer": null, "bridge": null, "surface": null, "source:hgv": "https://www.modot.org/sites/default/files/documents/KC_Com-Zone.pdf", "oneway": "yes", "name": "Bruce R. Watkins Drive", "maxspeed": "65 mph", "lanes": "2", "highway": "motorway", "hgv": "designated", "NHS": null }, "geometry": { "type": "LineString", "coordinates": [ [ -94.5512747, 38.9847251 ], [ -94.5510747, 38.9844865 ], [ -94.5508148, 38.984201 ], [ -94.5505336, 38.9839195 ], [ -94.5478541, 38.9814655 ], [ -94.5475913, 38.9811861 ], [ -94.547205, 38.9807316 ], [ -94.5468671, 38.9802145 ] ] } },
{ "type": "Feature", "properties": { "full_id": "w560920839", "osm_id": "560920839", "osm_type": "way", "ref": "US 71", "destination": null, "maxheight": null, "placement": null, "maxspeed:advisory": null, "noname": null, "maxspeed:type": "sign", "junction:ref": null, "shoulder": null, "expressway": "yes", "destination:ref": null, "destination:lanes": null, "turn:lanes": null, "layer": null, "bridge": null, "surface": "asphalt", "source:hgv": "https://www.modot.org/sites/default/files/documents/KC_Com-Zone.pdf", "oneway": "yes", "name": "Bruce R. Watkins Drive", "maxspeed": "45 mph", "lanes": "3", "highway": "trunk", "hgv": "designated", "NHS": null }, "geometry": { "type": "LineString", "coordinates": [ [ -94.55486, 38.9979197 ], [ -94.5548578, 38.9980406 ], [ -94.5548522, 38.9981333 ], [ -94.5546443, 39.0015475 ], [ -94.5545634, 39.0040119 ] ] } },
{ "type": "Feature", "properties": { "full_id": "w560920842", "osm_id": "560920842", "osm_type": "way", "ref": "US 71", "destination": null, "maxheight": null, "placement": null, "maxspeed:advisory": null, "noname": null, "maxspeed:type": null, "junction:ref": null, "shoulder": null, "expressway": null, "destination:ref": null, "destination:lanes": null, "turn:lanes": null, "layer": null, "bridge": null, "surface": null, "source:hgv": "https://www.modot.org/sites/default/files/documents/KC_Com-Zone.pdf", "oneway": "yes", "name": "Bruce R. Watkins Drive", "maxspeed": "55 mph", "lanes": "2", "highway": "motorway", "hgv": "designated", "NHS": null }, "geometry": { "type": "LineString", "coordinates": [ [ -94.5560991, 38.9954798 ], [ -94.5559942, 38.9950698 ], [ -94.5558349, 38.9946187 ], [ -94.5556945, 38.9943033 ], [ -94.5554973, 38.993979 ], [ -94.5553038, 38.9937166 ], [ -94.5551024, 38.99347 ], [ -94.5534439, 38.9914576 ], [ -94.5530177, 38.9908109 ] ] } },
{ "type": "Feature", "properties": { "full_id": "w560920847", "osm_id": "560920847", "osm_type": "way", "ref": "US 71", "destination": null, "maxheight": null, "placement": null, "maxspeed:advisory": null, "noname": null, "maxspeed:type": null, "junction:ref": null, "shoulder": null, "expressway": null, "destination:ref": null, "destination:lanes": null, "turn:lanes": null, "layer": "1", "bridge": "yes", "surface": "concrete", "source:hgv": "https://www.modot.org/sites/default/files/documents/KC_Com-Zone.pdf", "oneway": "yes", "name": "Bruce R. Watkins Drive", "maxspeed": "55 mph", "lanes": "3", "highway": "motorway", "hgv": "designated", "NHS": null }, "geometry": { "type": "LineString", "coordinates": [ [ -94.5610556, 39.073524 ], [ -94.5612223, 39.0740322 ] ] } },
{ "type": "Feature", "properties": { "full_id": "w560920848", "osm_id": "560920848", "osm_type": "way", "ref": "US 71", "destination": null, "maxheight": null, "placement": null, "maxspeed:advisory": null, "noname": null, "maxspeed:type": null, "junction:ref": null, "shoulder": null, "expressway": null, "destination:ref": null, "destination:lanes": null, "turn:lanes": null, "layer": "1", "bridge": "yes", "surface": null, "source:hgv": "https://www.modot.org/sites/default/files/documents/KC_Com-Zone.pdf", "oneway": "yes", "name": "Bruce R. Watkins Drive", "maxspeed": "55 mph", "lanes": "3", "highway": "motorway", "hgv": "designated", "NHS": null }, "geometry": { "type": "LineString", "coordinates": [ [ -94.5615243, 39.0740416 ], [ -94.5613417, 39.0735197 ] ] } },
{ "type": "Feature", "properties": { "full_id": "w560920849", "osm_id": "560920849", "osm_type": "way", "ref": "US 71", "destination": null, "maxheight": "default", "placement": null, "maxspeed:advisory": null, "noname": null, "maxspeed:type": null, "junction:ref": null, "shoulder": null, "expressway": null, "destination:ref": null, "destination:lanes": null, "turn:lanes": null, "layer": null, "bridge": null, "surface": null, "source:hgv": "https://www.modot.org/sites/default/files/documents/KC_Com-Zone.pdf", "oneway": "yes", "name": "Bruce R. Watkins Drive", "maxspeed": "55 mph", "lanes": "3", "highway": "motorway", "hgv": "designated", "NHS": null }, "geometry": { "type": "LineString", "coordinates": [ [ -94.5613417, 39.0735197 ], [ -94.5607686, 39.0716735 ], [ -94.5606017, 39.070952 ], [ -94.5605345, 39.0702983 ], [ -94.5604753, 39.0692094 ], [ -94.560721, 39.0651911 ], [ -94.5608598, 39.0640986 ] ] } },
{ "type": "Feature", "properties": { "full_id": "w560920851", "osm_id": "560920851", "osm_type": "way", "ref": "US 71", "destination": null, "maxheight": null, "placement": null, "maxspeed:advisory": null, "noname": null, "maxspeed:type": null, "junction:ref": null, "shoulder": null, "expressway": null, "destination:ref": null, "destination:lanes": null, "turn:lanes": null, "layer": null, "bridge": null, "surface": null, "source:hgv": "https://www.modot.org/sites/default/files/documents/KC_Com-Zone.pdf", "oneway": "yes", "name": "Bruce R. Watkins Drive", "maxspeed": "55 mph", "lanes": "3", "highway": "motorway", "hgv": "designated", "NHS": null }, "geometry": { "type": "LineString", "coordinates": [ [ -94.5625011, 39.0770328 ], [ -94.5615243, 39.0740416 ] ] } },
{ "type": "Feature", "properties": { "full_id": "w560920852", "osm_id": "560920852", "osm_type": "way", "ref": "US 71", "destination": null, "maxheight": null, "placement": null, "maxspeed:advisory": null, "noname": null, "maxspeed:type": null, "junction:ref": null, "shoulder": null, "expressway": null, "destination:ref": null, "destination:lanes": null, "turn:lanes": null, "layer": null, "bridge": null, "surface": null, "source:hgv": "https://www.modot.org/sites/default/files/documents/KC_Com-Zone.pdf", "oneway": "yes", "name": "Bruce R. Watkins Drive", "maxspeed": "55 mph", "lanes": "4", "highway": "motorway", "hgv": "designated", "NHS": null }, "geometry": { "type": "LineString", "coordinates": [ [ -94.5634415, 39.0797726 ], [ -94.5632701, 39.0793349 ], [ -94.5627223, 39.0776614 ] ] } },
{ "type": "Feature", "properties": { "full_id": "w560920853", "osm_id": "560920853", "osm_type": "way", "ref": "US 71", "destination": null, "maxheight": null, "placement": null, "maxspeed:advisory": null, "noname": null, "maxspeed:type": null, "junction:ref": null, "shoulder": null, "expressway": null, "destination:ref": null, "destination:lanes": null, "turn:lanes": "none|none|none|slight_right", "layer": null, "bridge": null, "surface": null, "source:hgv": "https://www.modot.org/sites/default/files/documents/KC_Com-Zone.pdf", "oneway": "yes", "name": "Bruce R. Watkins Drive", "maxspeed": "55 mph", "lanes": "4", "highway": "motorway", "hgv": "designated", "NHS": null }, "geometry": { "type": "LineString", "coordinates": [ [ -94.5625602, 39.0772043 ], [ -94.5625011, 39.0770328 ] ] } },
{ "type": "Feature", "properties": { "full_id": "w560920854", "osm_id": "560920854", "osm_type": "way", "ref": "US 71", "destination": null, "maxheight": null, "placement": null, "maxspeed:advisory": null, "noname": null, "maxspeed:type": null, "junction:ref": null, "shoulder": null, "expressway": null, "destination:ref": null, "destination:lanes": null, "turn:lanes": null, "layer": "1", "bridge": "yes", "surface": "concrete", "source:hgv": "https://www.modot.org/sites/default/files/documents/KC_Com-Zone.pdf", "oneway": "yes", "name": "Bruce R. Watkins Drive", "maxspeed": "55 mph", "lanes": "4", "highway": "motorway", "hgv": "designated", "NHS": null }, "geometry": { "type": "LineString", "coordinates": [ [ -94.5627223, 39.0776614 ], [ -94.5625602, 39.0772043 ] ] } },
{ "type": "Feature", "properties": { "full_id": "w560920861", "osm_id": "560920861", "osm_type": "way", "ref": "US 71", "destination": null, "maxheight": null, "placement": null, "maxspeed:advisory": null, "noname": null, "maxspeed:type": null, "junction:ref": null, "shoulder": null, "expressway": null, "destination:ref": null, "destination:lanes": null, "turn:lanes": null, "layer": null, "bridge": null, "surface": null, "source:hgv": "https://www.modot.org/sites/default/files/documents/KC_Com-Zone.pdf", "oneway": "yes", "name": "Bruce R. Watkins Drive", "maxspeed": "55 mph", "lanes": "3", "highway": "motorway", "hgv": "designated", "NHS": null }, "geometry": { "type": "LineString", "coordinates": [ [ -94.5636244, 39.0801783 ], [ -94.5634415, 39.0797726 ] ] } },
{ "type": "Feature", "properties": { "full_id": "w560920864", "osm_id": "560920864", "osm_type": "way", "ref": "US 71", "destination": null, "maxheight": null, "placement": null, "maxspeed:advisory": null, "noname": null, "maxspeed:type": null, "junction:ref": null, "shoulder": null, "expressway": null, "destination:ref": null, "destination:lanes": null, "turn:lanes": null, "layer": "1", "bridge": "yes", "surface": null, "source:hgv": "https://www.modot.org/sites/default/files/documents/KC_Com-Zone.pdf", "oneway": "yes", "name": "Bruce R. Watkins Drive", "maxspeed": "55 mph", "lanes": "3", "highway": "motorway", "hgv": "designated", "NHS": null }, "geometry": { "type": "LineString", "coordinates": [ [ -94.5644095, 39.0813534 ], [ -94.564046, 39.0808651 ], [ -94.5636244, 39.0801783 ] ] } },
{ "type": "Feature", "properties": { "full_id": "w560920868", "osm_id": "560920868", "osm_type": "way", "ref": "US 71", "destination": null, "maxheight": null, "placement": null, "maxspeed:advisory": null, "noname": null, "maxspeed:type": null, "junction:ref": null, "shoulder": null, "expressway": null, "destination:ref": null, "destination:lanes": null, "turn:lanes": null, "layer": null, "bridge": null, "surface": null, "source:hgv": "https://www.modot.org/sites/default/files/documents/KC_Com-Zone.pdf", "oneway": "yes", "name": "Bruce R. Watkins Drive", "maxspeed": "55 mph", "lanes": "3", "highway": "motorway", "hgv": "designated", "NHS": null }, "geometry": { "type": "LineString", "coordinates": [ [ -94.571477, 39.0885516 ], [ -94.5713239, 39.0879138 ], [ -94.5712099, 39.0873708 ], [ -94.5711026, 39.0870335 ], [ -94.5710218, 39.0868187 ], [ -94.5709343, 39.0866069 ], [ -94.5708098, 39.0863793 ], [ -94.5705827, 39.0860144 ], [ -94.5702945, 39.0856446 ], [ -94.5701316, 39.0854846 ], [ -94.5698849, 39.0852597 ], [ -94.5695684, 39.0849849 ], [ -94.5690802, 39.0846518 ], [ -94.5666769, 39.0833068 ], [ -94.5660493, 39.0828696 ], [ -94.5656041, 39.082524 ], [ -94.5649979, 39.0819952 ], [ -94.5644095, 39.0813534 ] ] } },
{ "type": "Feature", "properties": { "full_id": "w560920883", "osm_id": "560920883", "osm_type": "way", "ref": "US 71", "destination": null, "maxheight": null, "placement": null, "maxspeed:advisory": null, "noname": null, "maxspeed:type": null, "junction:ref": null, "shoulder": null, "expressway": null, "destination:ref": null, "destination:lanes": null, "turn:lanes": "|||slight_right", "layer": "1", "bridge": "yes", "surface": null, "source:hgv": "https://www.modot.org/sites/default/files/documents/KC_Com-Zone.pdf", "oneway": "yes", "name": "Bruce R. Watkins Drive", "maxspeed": "45 mph", "lanes": "4", "highway": "motorway", "hgv": "designated", "NHS": null }, "geometry": { "type": "LineString", "coordinates": [ [ -94.5715099, 39.0888735 ], [ -94.571477, 39.0885516 ] ] } },
{ "type": "Feature", "properties": { "full_id": "w560920886", "osm_id": "560920886", "osm_type": "way", "ref": "US 71", "destination": null, "maxheight": null, "placement": null, "maxspeed:advisory": null, "noname": null, "maxspeed:type": null, "junction:ref": null, "shoulder": null, "expressway": null, "destination:ref": null, "destination:lanes": null, "turn:lanes": null, "layer": null, "bridge": null, "surface": null, "source:hgv": "https://www.modot.org/sites/default/files/documents/KC_Com-Zone.pdf", "oneway": "yes", "name": "Bruce R. Watkins Drive", "maxspeed": "45 mph", "lanes": "4", "highway": "motorway", "hgv": "designated", "NHS": null }, "geometry": { "type": "LineString", "coordinates": [ [ -94.5716688, 39.0898633 ], [ -94.5715099, 39.0888735 ] ] } },
{ "type": "Feature", "properties": { "full_id": "w560920889", "osm_id": "560920889", "osm_type": "way", "ref": "US 71", "destination": null, "maxheight": null, "placement": null, "maxspeed:advisory": null, "noname": null, "maxspeed:type": null, "junction:ref": null, "shoulder": null, "expressway": null, "destination:ref": null, "destination:lanes": null, "turn:lanes": null, "layer": "1", "bridge": "yes", "surface": null, "source:hgv": "https://www.modot.org/sites/default/files/documents/KC_Com-Zone.pdf", "oneway": "yes", "name": "Bruce R. Watkins Drive", "maxspeed": "45 mph", "lanes": "4", "highway": "motorway", "hgv": "designated", "NHS": null }, "geometry": { "type": "LineString", "coordinates": [ [ -94.571726, 39.0902557 ], [ -94.5716688, 39.0898633 ] ] } },
{ "type": "Feature", "properties": { "full_id": "w560920893", "osm_id": "560920893", "osm_type": "way", "ref": "US 71", "destination": null, "maxheight": null, "placement": null, "maxspeed:advisory": null, "noname": null, "maxspeed:type": null, "junction:ref": null, "shoulder": null, "expressway": null, "destination:ref": null, "destination:lanes": null, "turn:lanes": null, "layer": null, "bridge": null, "surface": null, "source:hgv": "https://www.modot.org/sites/default/files/documents/KC_Com-Zone.pdf", "oneway": "yes", "name": "Bruce R. Watkins Drive", "maxspeed": "45 mph", "lanes": "4", "highway": "motorway", "hgv": "designated", "NHS": null }, "geometry": { "type": "LineString", "coordinates": [ [ -94.5718816, 39.091145 ], [ -94.571726, 39.0902557 ] ] } },
{ "type": "Feature", "properties": { "full_id": "w560920895", "osm_id": "560920895", "osm_type": "way", "ref": "US 71", "destination": null, "maxheight": null, "placement": null, "maxspeed:advisory": null, "noname": null, "maxspeed:type": null, "junction:ref": null, "shoulder": null, "expressway": null, "destination:ref": null, "destination:lanes": null, "turn:lanes": null, "layer": "1", "bridge": "yes", "surface": null, "source:hgv": "https://www.modot.org/sites/default/files/documents/KC_Com-Zone.pdf", "oneway": "yes", "name": "Bruce R. Watkins Drive", "maxspeed": "45 mph", "lanes": "4", "highway": "motorway", "hgv": "designated", "NHS": null }, "geometry": { "type": "LineString", "coordinates": [ [ -94.5719805, 39.091712 ], [ -94.5718816, 39.091145 ] ] } },
{ "type": "Feature", "properties": { "full_id": "w560924607", "osm_id": "560924607", "osm_type": "way", "ref": "US 71", "destination": null, "maxheight": null, "placement": null, "maxspeed:advisory": null, "noname": null, "maxspeed:type": null, "junction:ref": null, "shoulder": null, "expressway": null, "destination:ref": null, "destination:lanes": null, "turn:lanes": null, "layer": null, "bridge": null, "surface": null, "source:hgv": "https://www.modot.org/sites/default/files/documents/KC_Com-Zone.pdf", "oneway": "yes", "name": "Bruce R. Watkins Drive", "maxspeed": "45 mph", "lanes": "4", "highway": "motorway", "hgv": "designated", "NHS": null }, "geometry": { "type": "LineString", "coordinates": [ [ -94.5720785, 39.092291 ], [ -94.5719805, 39.091712 ] ] } },
{ "type": "Feature", "properties": { "full_id": "w560924609", "osm_id": "560924609", "osm_type": "way", "ref": "US 71", "destination": null, "maxheight": null, "placement": null, "maxspeed:advisory": null, "noname": null, "maxspeed:type": null, "junction:ref": null, "shoulder": null, "expressway": null, "destination:ref": null, "destination:lanes": null, "turn:lanes": null, "layer": null, "bridge": null, "surface": null, "source:hgv": "https://www.modot.org/sites/default/files/documents/KC_Com-Zone.pdf", "oneway": "yes", "name": "Bruce R. Watkins Drive", "maxspeed": "45 mph", "lanes": "3", "highway": "motorway", "hgv": "designated", "NHS": null }, "geometry": { "type": "LineString", "coordinates": [ [ -94.5721818, 39.0933607 ], [ -94.5720785, 39.092291 ] ] } },
{ "type": "Feature", "properties": { "full_id": "w560924610", "osm_id": "560924610", "osm_type": "way", "ref": "US 71", "destination": null, "maxheight": null, "placement": null, "maxspeed:advisory": null, "noname": null, "maxspeed:type": null, "junction:ref": null, "shoulder": null, "expressway": null, "destination:ref": null, "destination:lanes": null, "turn:lanes": null, "layer": "1", "bridge": "yes", "surface": null, "source:hgv": null, "oneway": "yes", "name": "Bruce R. Watkins Drive", "maxspeed": "45 mph", "lanes": "2", "highway": "motorway", "hgv": null, "NHS": null }, "geometry": { "type": "LineString", "coordinates": [ [ -94.572798, 39.0983197 ], [ -94.5729153, 39.097567 ], [ -94.5729604, 39.0971399 ], [ -94.5729604, 39.0968598 ], [ -94.5728928, 39.0964677 ], [ -94.5728206, 39.0961667 ], [ -94.5727484, 39.0959776 ], [ -94.5726221, 39.0957045 ], [ -94.5724071, 39.0951184 ] ] } },
{ "type": "Feature", "properties": { "full_id": "w560924611", "osm_id": "560924611", "osm_type": "way", "ref": "US 71", "destination": null, "maxheight": null, "placement": null, "maxspeed:advisory": null, "noname": null, "maxspeed:type": null, "junction:ref": null, "shoulder": null, "expressway": null, "destination:ref": null, "destination:lanes": null, "turn:lanes": null, "layer": null, "bridge": null, "surface": null, "source:hgv": "https://www.modot.org/sites/default/files/documents/KC_Com-Zone.pdf", "oneway": "yes", "name": "Bruce R. Watkins Drive", "maxspeed": "45 mph", "lanes": "2", "highway": "motorway", "hgv": "designated", "NHS": null }, "geometry": { "type": "LineString", "coordinates": [ [ -94.5724071, 39.0951184 ], [ -94.5722918, 39.0946471 ], [ -94.5722663, 39.0943352 ], [ -94.5722333, 39.093895 ], [ -94.5721818, 39.0933607 ] ] } },
{ "type": "Feature", "properties": { "full_id": "w560927908", "osm_id": "560927908", "osm_type": "way", "ref": "US 71", "destination": null, "maxheight": null, "placement": null, "maxspeed:advisory": null, "noname": null, "maxspeed:type": null, "junction:ref": null, "shoulder": null, "expressway": null, "destination:ref": null, "destination:lanes": null, "turn:lanes": null, "layer": null, "bridge": null, "surface": "asphalt", "source:hgv": null, "oneway": "yes", "name": null, "maxspeed": "45 mph", "lanes": "2", "highway": "motorway", "hgv": null, "NHS": null }, "geometry": { "type": "LineString", "coordinates": [ [ -94.5719118, 39.0990211 ], [ -94.5719861, 39.0992008 ], [ -94.5720461, 39.0993458 ] ] } },
{ "type": "Feature", "properties": { "full_id": "w560927909", "osm_id": "560927909", "osm_type": "way", "ref": "US 71", "destination": "Joplin", "maxheight": null, "placement": null, "maxspeed:advisory": null, "noname": null, "maxspeed:type": null, "junction:ref": "2M", "shoulder": null, "expressway": null, "destination:ref": "US 71 South", "destination:lanes": null, "turn:lanes": null, "layer": null, "bridge": null, "surface": null, "source:hgv": null, "oneway": "yes", "name": "Bruce R. Watkins Drive", "maxspeed": "45 mph", "lanes": "2", "highway": "motorway", "hgv": null, "NHS": null }, "geometry": { "type": "LineString", "coordinates": [ [ -94.5727801, 39.0987646 ], [ -94.572798, 39.0983197 ] ] } },
{ "type": "Feature", "properties": { "full_id": "w562149943", "osm_id": "562149943", "osm_type": "way", "ref": "US 71", "destination": "Saint Joseph;Des Moines", "maxheight": null, "placement": null, "maxspeed:advisory": null, "noname": null, "maxspeed:type": null, "junction:ref": "2G", "shoulder": null, "expressway": null, "destination:ref": "I 29 North;I 35 North;US 71 North", "destination:lanes": null, "turn:lanes": null, "layer": null, "bridge": null, "surface": "asphalt", "source:hgv": null, "oneway": "yes", "name": null, "maxspeed": "45 mph", "lanes": "2", "highway": "motorway", "hgv": null, "NHS": null }, "geometry": { "type": "LineString", "coordinates": [ [ -94.571274, 39.1048839 ], [ -94.5709817, 39.1052343 ], [ -94.5707074, 39.1056006 ], [ -94.5704778, 39.1058284 ], [ -94.5693617, 39.1068247 ] ] } },
{ "type": "Feature", "properties": { "full_id": "w562149945", "osm_id": "562149945", "osm_type": "way", "ref": "US 71", "destination": "Saint Louis;Joplin", "maxheight": null, "placement": null, "maxspeed:advisory": null, "noname": null, "maxspeed:type": null, "junction:ref": "3", "shoulder": null, "expressway": null, "destination:ref": "I 70 East;US 40 East;US 71 South", "destination:lanes": null, "turn:lanes": null, "layer": null, "bridge": null, "surface": null, "source:hgv": null, "oneway": "yes", "name": null, "maxspeed": "45 mph", "lanes": "2", "highway": "motorway", "hgv": null, "NHS": null }, "geometry": { "type": "LineString", "coordinates": [ [ -94.5713502, 39.1055596 ], [ -94.5715234, 39.105332 ], [ -94.5715854, 39.1052505 ], [ -94.5717447, 39.1049944 ], [ -94.5719913, 39.1045557 ], [ -94.5721459, 39.1043428 ] ] } },
{ "type": "Feature", "properties": { "full_id": "w616154265", "osm_id": "616154265", "osm_type": "way", "ref": "US 71", "destination": null, "maxheight": null, "placement": null, "maxspeed:advisory": null, "noname": null, "maxspeed:type": "sign", "junction:ref": null, "shoulder": null, "expressway": null, "destination:ref": null, "destination:lanes": null, "turn:lanes": null, "layer": null, "bridge": null, "surface": "asphalt", "source:hgv": "https://www.modot.org/sites/default/files/documents/KC_Com-Zone.pdf", "oneway": "yes", "name": "Bruce R. Watkins Drive", "maxspeed": "55 mph", "lanes": "3", "highway": "motorway", "hgv": "designated", "NHS": null }, "geometry": { "type": "LineString", "coordinates": [ [ -94.5509869, 38.9848932 ], [ -94.5511801, 38.9851809 ], [ -94.5513624, 38.985552 ], [ -94.5515341, 38.9860649 ], [ -94.5517916, 38.9873367 ] ] } },
{ "type": "Feature", "properties": { "full_id": "w926713306", "osm_id": "926713306", "osm_type": "way", "ref": "US 71", "destination": null, "maxheight": null, "placement": null, "maxspeed:advisory": null, "noname": null, "maxspeed:type": null, "junction:ref": null, "shoulder": null, "expressway": null, "destination:ref": null, "destination:lanes": null, "turn:lanes": null, "layer": null, "bridge": null, "surface": "concrete", "source:hgv": "https://www.modot.org/sites/default/files/documents/KC_Com-Zone.pdf", "oneway": "yes", "name": "Bruce R. Watkins Drive", "maxspeed": "55 mph", "lanes": "3", "highway": "motorway", "hgv": "designated", "NHS": null }, "geometry": { "type": "LineString", "coordinates": [ [ -94.5642927, 39.0816752 ], [ -94.5648717, 39.0822453 ], [ -94.5654809, 39.0827652 ], [ -94.56602, 39.0831762 ], [ -94.5668267, 39.0836754 ] ] } },
{ "type": "Feature", "properties": { "full_id": "w1111286881", "osm_id": "1111286881", "osm_type": "way", "ref": "US 71", "destination": null, "maxheight": null, "placement": null, "maxspeed:advisory": null, "noname": null, "maxspeed:type": null, "junction:ref": null, "shoulder": null, "expressway": null, "destination:ref": null, "destination:lanes": null, "turn:lanes": "|||slight_right", "layer": null, "bridge": null, "surface": null, "source:hgv": "https://www.modot.org/sites/default/files/documents/KC_Com-Zone.pdf", "oneway": "yes", "name": "Bruce R. Watkins Drive", "maxspeed": "55 mph", "lanes": "4", "highway": "motorway", "hgv": "designated", "NHS": null }, "geometry": { "type": "LineString", "coordinates": [ [ -94.561067, 39.0598392 ], [ -94.5610787, 39.0595991 ] ] } },
{ "type": "Feature", "properties": { "full_id": "w1122511081", "osm_id": "1122511081", "osm_type": "way", "ref": "US 71", "destination": null, "maxheight": null, "placement": null, "maxspeed:advisory": null, "noname": null, "maxspeed:type": null, "junction:ref": null, "shoulder": "both", "expressway": null, "destination:ref": null, "destination:lanes": null, "turn:lanes": null, "layer": null, "bridge": null, "surface": null, "source:hgv": "https://www.modot.org/sites/default/files/documents/KC_Com-Zone.pdf", "oneway": "yes", "name": "Bruce R. Watkins Drive", "maxspeed": "45 mph", "lanes": "3", "highway": "motorway", "hgv": "designated", "NHS": null }, "geometry": { "type": "LineString", "coordinates": [ [ -94.5535255, 39.0329102 ], [ -94.5537592, 39.0319357 ], [ -94.5539033, 39.0310694 ], [ -94.5540257, 39.0301151 ] ] } },
{ "type": "Feature", "properties": { "full_id": "w1122511082", "osm_id": "1122511082", "osm_type": "way", "ref": "US 71", "destination": null, "maxheight": null, "placement": null, "maxspeed:advisory": null, "noname": null, "maxspeed:type": null, "junction:ref": null, "shoulder": null, "expressway": null, "destination:ref": null, "destination:lanes": null, "turn:lanes": null, "layer": null, "bridge": null, "surface": "asphalt", "source:hgv": "https://www.modot.org/sites/default/files/documents/KC_Com-Zone.pdf", "oneway": "yes", "name": "Bruce R. Watkins Drive", "maxspeed": "45 mph", "lanes": "3", "highway": "motorway", "hgv": "designated", "NHS": null }, "geometry": { "type": "LineString", "coordinates": [ [ -94.5529826, 39.030081 ], [ -94.5529429, 39.0311094 ], [ -94.5529758, 39.0320292 ], [ -94.5530951, 39.0331397 ] ] } },
{ "type": "Feature", "properties": { "full_id": "w1122511083", "osm_id": "1122511083", "osm_type": "way", "ref": "US 71", "destination": null, "maxheight": null, "placement": null, "maxspeed:advisory": null, "noname": null, "maxspeed:type": null, "junction:ref": null, "shoulder": "both", "expressway": null, "destination:ref": null, "destination:lanes": null, "turn:lanes": null, "layer": null, "bridge": null, "surface": null, "source:hgv": "https://www.modot.org/sites/default/files/documents/KC_Com-Zone.pdf", "oneway": "yes", "name": "Bruce R. Watkins Drive", "maxspeed": "45 mph", "lanes": "3", "highway": "motorway", "hgv": "designated", "NHS": null }, "geometry": { "type": "LineString", "coordinates": [ [ -94.5560369, 38.9979514 ], [ -94.5560413, 38.9978767 ], [ -94.556146, 38.9961006 ], [ -94.5560991, 38.9954798 ] ] } },
{ "type": "Feature", "properties": { "full_id": "w1122511084", "osm_id": "1122511084", "osm_type": "way", "ref": "US 71", "destination": null, "maxheight": null, "placement": null, "maxspeed:advisory": null, "noname": null, "maxspeed:type": "sign", "junction:ref": null, "shoulder": null, "expressway": null, "destination:ref": null, "destination:lanes": null, "turn:lanes": null, "layer": null, "bridge": null, "surface": "asphalt", "source:hgv": "https://www.modot.org/sites/default/files/documents/KC_Com-Zone.pdf", "oneway": "yes", "name": "Bruce R. Watkins Drive", "maxspeed": "45 mph", "lanes": "3", "highway": "motorway", "hgv": "designated", "NHS": null }, "geometry": { "type": "LineString", "coordinates": [ [ -94.5549397, 38.9946629 ], [ -94.5549885, 38.9951939 ], [ -94.5549816, 38.9956582 ], [ -94.5548633, 38.9978589 ], [ -94.55486, 38.9979197 ] ] } },
{ "type": "Feature", "properties": { "full_id": "w1186431065", "osm_id": "1186431065", "osm_type": "way", "ref": "US 71", "destination": null, "maxheight": null, "placement": null, "maxspeed:advisory": null, "noname": null, "maxspeed:type": null, "junction:ref": null, "shoulder": null, "expressway": null, "destination:ref": null, "destination:lanes": null, "turn:lanes": null, "layer": null, "bridge": null, "surface": "concrete", "source:hgv": "https://www.modot.org/sites/default/files/documents/KC_Com-Zone.pdf", "oneway": "yes", "name": "Bruce R. Watkins Drive", "maxspeed": "55 mph", "lanes": "3", "highway": "motorway", "hgv": "designated", "NHS": null }, "geometry": { "type": "LineString", "coordinates": [ [ -94.5601635, 39.0698762 ], [ -94.5603233, 39.0709455 ], [ -94.5606237, 39.0722074 ], [ -94.5610556, 39.073524 ] ] } },
{ "type": "Feature", "properties": { "full_id": "w1186431066", "osm_id": "1186431066", "osm_type": "way", "ref": "US 71", "destination": null, "maxheight": null, "placement": null, "maxspeed:advisory": null, "noname": null, "maxspeed:type": null, "junction:ref": null, "shoulder": null, "expressway": null, "destination:ref": null, "destination:lanes": null, "turn:lanes": "none|none|none|slight_right", "layer": null, "bridge": null, "surface": "concrete", "source:hgv": "https://www.modot.org/sites/default/files/documents/KC_Com-Zone.pdf", "oneway": "yes", "name": "Bruce R. Watkins Drive", "maxspeed": "55 mph", "lanes": "4", "highway": "motorway", "hgv": "designated", "NHS": null }, "geometry": { "type": "LineString", "coordinates": [ [ -94.5601846, 39.068733 ], [ -94.5601731, 39.0688631 ], [ -94.5601635, 39.0698762 ] ] } },
{ "type": "Feature", "properties": { "full_id": "w1187191527", "osm_id": "1187191527", "osm_type": "way", "ref": "US 71", "destination": null, "maxheight": null, "placement": null, "maxspeed:advisory": null, "noname": null, "maxspeed:type": null, "junction:ref": null, "shoulder": null, "expressway": null, "destination:ref": null, "destination:lanes": null, "turn:lanes": "|||slight_right", "layer": null, "bridge": null, "surface": "concrete", "source:hgv": "https://www.modot.org/sites/default/files/documents/KC_Com-Zone.pdf", "oneway": "yes", "name": "Bruce R. Watkins Drive", "maxspeed": "55 mph", "lanes": "4", "highway": "motorway", "hgv": "designated", "NHS": null }, "geometry": { "type": "LineString", "coordinates": [ [ -94.5668267, 39.0836754 ], [ -94.5671204, 39.0838571 ], [ -94.5680196, 39.0843242 ] ] } },
{ "type": "Feature", "properties": { "full_id": "w1188591038", "osm_id": "1188591038", "osm_type": "way", "ref": "US 71", "destination": null, "maxheight": null, "placement": null, "maxspeed:advisory": null, "noname": "yes", "maxspeed:type": "sign", "junction:ref": null, "shoulder": null, "expressway": null, "destination:ref": null, "destination:lanes": null, "turn:lanes": null, "layer": null, "bridge": null, "surface": null, "source:hgv": "https://www.modot.org/sites/default/files/documents/KC_Com-Zone.pdf", "oneway": "yes", "name": null, "maxspeed": "65 mph", "lanes": "3", "highway": "motorway", "hgv": "designated", "NHS": null }, "geometry": { "type": "LineString", "coordinates": [ [ -94.5422582, 38.9625888 ], [ -94.5423519, 38.962928 ] ] } },
{ "type": "Feature", "properties": { "full_id": "w1188593577", "osm_id": "1188593577", "osm_type": "way", "ref": "US 71", "destination": null, "maxheight": null, "placement": null, "maxspeed:advisory": null, "noname": "yes", "maxspeed:type": null, "junction:ref": null, "shoulder": null, "expressway": null, "destination:ref": null, "destination:lanes": null, "turn:lanes": null, "layer": null, "bridge": null, "surface": null, "source:hgv": "https://www.modot.org/sites/default/files/documents/KC_Com-Zone.pdf", "oneway": "yes", "name": null, "maxspeed": "65 mph", "lanes": "3", "highway": "motorway", "hgv": "designated", "NHS": null }, "geometry": { "type": "LineString", "coordinates": [ [ -94.5441361, 38.9668567 ], [ -94.5436101, 38.9658511 ], [ -94.5433312, 38.9652171 ], [ -94.5430213, 38.964336 ], [ -94.5424171, 38.9621349 ] ] } },
{ "type": "Feature", "properties": { "full_id": "w1387153149", "osm_id": "1387153149", "osm_type": "way", "ref": "US 71", "destination": null, "maxheight": null, "placement": null, "maxspeed:advisory": null, "noname": null, "maxspeed:type": null, "junction:ref": null, "shoulder": null, "expressway": "yes", "destination:ref": null, "destination:lanes": null, "turn:lanes": null, "layer": null, "bridge": null, "surface": "asphalt", "source:hgv": "https://www.modot.org/sites/default/files/documents/KC_Com-Zone.pdf", "oneway": "yes", "name": "Bruce R. Watkins Drive", "maxspeed": "45 mph", "lanes": "3", "highway": "trunk", "hgv": "designated", "NHS": null }, "geometry": { "type": "LineString", "coordinates": [ [ -94.5539778, 39.0160855 ], [ -94.5538927, 39.0173317 ] ] } },
{ "type": "Feature", "properties": { "full_id": "w1387153150", "osm_id": "1387153150", "osm_type": "way", "ref": "US 71", "destination": null, "maxheight": null, "placement": null, "maxspeed:advisory": null, "noname": null, "maxspeed:type": null, "junction:ref": null, "shoulder": null, "expressway": "yes", "destination:ref": null, "destination:lanes": null, "turn:lanes": "none|none|none|right", "layer": null, "bridge": null, "surface": "asphalt", "source:hgv": "https://www.modot.org/sites/default/files/documents/KC_Com-Zone.pdf", "oneway": "yes", "name": "Bruce R. Watkins Drive", "maxspeed": "45 mph", "lanes": "4", "highway": "trunk", "hgv": "designated", "NHS": null }, "geometry": { "type": "LineString", "coordinates": [ [ -94.5538927, 39.0173317 ], [ -94.5538736, 39.0176114 ] ] } },
{ "type": "Feature", "properties": { "full_id": "w1388172911", "osm_id": "1388172911", "osm_type": "way", "ref": "US 71", "destination": null, "maxheight": null, "placement": null, "maxspeed:advisory": null, "noname": null, "maxspeed:type": null, "junction:ref": null, "shoulder": "both", "expressway": "yes", "destination:ref": null, "destination:lanes": null, "turn:lanes": null, "layer": null, "bridge": null, "surface": null, "source:hgv": "https://www.modot.org/sites/default/files/documents/KC_Com-Zone.pdf", "oneway": "yes", "name": "Bruce R. Watkins Drive", "maxspeed": "45 mph", "lanes": "3", "highway": "trunk", "hgv": "designated", "NHS": null }, "geometry": { "type": "LineString", "coordinates": [ [ -94.5545548, 39.022909 ], [ -94.5547528, 39.0193736 ], [ -94.5547587, 39.019269 ], [ -94.5547631, 39.0191775 ], [ -94.5549024, 39.0164434 ] ] } },
{ "type": "Feature", "properties": { "full_id": "w1388172912", "osm_id": "1388172912", "osm_type": "way", "ref": "US 71", "destination": null, "maxheight": null, "placement": null, "maxspeed:advisory": null, "noname": null, "maxspeed:type": null, "junction:ref": null, "shoulder": "both", "expressway": "yes", "destination:ref": null, "destination:lanes": null, "turn:lanes": "none|none|none|right", "layer": null, "bridge": null, "surface": null, "source:hgv": "https://www.modot.org/sites/default/files/documents/KC_Com-Zone.pdf", "oneway": "yes", "name": "Bruce R. Watkins Drive", "maxspeed": "45 mph", "lanes": "4", "highway": "trunk", "hgv": "designated", "NHS": null }, "geometry": { "type": "LineString", "coordinates": [ [ -94.5545305, 39.0232194 ], [ -94.5545548, 39.022909 ] ] } },
{ "type": "Feature", "properties": { "full_id": "w1388773441", "osm_id": "1388773441", "osm_type": "way", "ref": "US 71", "destination": null, "maxheight": null, "placement": null, "maxspeed:advisory": null, "noname": null, "maxspeed:type": null, "junction:ref": null, "shoulder": null, "expressway": "yes", "destination:ref": null, "destination:lanes": null, "turn:lanes": null, "layer": null, "bridge": null, "surface": "asphalt", "source:hgv": "https://www.modot.org/sites/default/files/documents/KC_Com-Zone.pdf", "oneway": "yes", "name": "Bruce R. Watkins Drive", "maxspeed": "45 mph", "lanes": "3", "highway": "trunk", "hgv": "designated", "NHS": null }, "geometry": { "type": "LineString", "coordinates": [ [ -94.5538736, 39.0176114 ], [ -94.5538173, 39.0191482 ], [ -94.553814, 39.0192372 ], [ -94.5538068, 39.0193594 ], [ -94.5536141, 39.0226131 ] ] } },
{ "type": "Feature", "properties": { "full_id": "w1388773442", "osm_id": "1388773442", "osm_type": "way", "ref": "US 71", "destination": null, "maxheight": null, "placement": null, "maxspeed:advisory": null, "noname": null, "maxspeed:type": null, "junction:ref": null, "shoulder": null, "expressway": "yes", "destination:ref": null, "destination:lanes": null, "turn:lanes": "none|none|none|right", "layer": null, "bridge": null, "surface": "asphalt", "source:hgv": "https://www.modot.org/sites/default/files/documents/KC_Com-Zone.pdf", "oneway": "yes", "name": "Bruce R. Watkins Drive", "maxspeed": "45 mph", "lanes": "4", "highway": "trunk", "hgv": "designated", "NHS": null }, "geometry": { "type": "LineString", "coordinates": [ [ -94.5536141, 39.0226131 ], [ -94.5535995, 39.022859 ] ] } },
{ "type": "Feature", "properties": { "full_id": "w1521472154", "osm_id": "1521472154", "osm_type": "way", "ref": "US 71", "destination": "Saint Louis;Joplin", "maxheight": null, "placement": null, "maxspeed:advisory": null, "noname": null, "maxspeed:type": null, "junction:ref": "3", "shoulder": null, "expressway": null, "destination:ref": "I 70 East;US 40 East;US 71 South", "destination:lanes": null, "turn:lanes": null, "layer": null, "bridge": null, "surface": null, "source:hgv": null, "oneway": "yes", "name": null, "maxspeed": "45 mph", "lanes": "2", "highway": "motorway", "hgv": null, "NHS": null }, "geometry": { "type": "LineString", "coordinates": [ [ -94.5700508, 39.1068034 ], [ -94.5703147, 39.1065809 ], [ -94.5704854, 39.1064485 ], [ -94.5707395, 39.1062395 ], [ -94.5709633, 39.1060246 ], [ -94.5711454, 39.1058068 ] ] } },
{ "type": "Feature", "properties": { "full_id": "w1521472155", "osm_id": "1521472155", "osm_type": "way", "ref": "US 71", "destination": "Saint Louis;Joplin", "maxheight": "14'7\"", "placement": null, "maxspeed:advisory": null, "noname": null, "maxspeed:type": null, "junction:ref": "3", "shoulder": null, "expressway": null, "destination:ref": "I 70 East;US 40 East;US 71 South", "destination:lanes": null, "turn:lanes": null, "layer": null, "bridge": null, "surface": null, "source:hgv": null, "oneway": "yes", "name": null, "maxspeed": "45 mph", "lanes": "2", "highway": "motorway", "hgv": null, "NHS": null }, "geometry": { "type": "LineString", "coordinates": [ [ -94.5711454, 39.1058068 ], [ -94.5713502, 39.1055596 ] ] } }
]
}
